Company Name,Phone No 1,Phone No 2,Phone No 3,Phone No 4,Phone No 5,Address,City,State,Postal Code,URL
Key West Roofing Ltd.,(604) 618-1471,,,,,7533 143 St ,Surrey,BC,V3W 5P2,https://www.bbb.org/ca/bc/surrey/profile/commercial-roofing/key-west-roofing-ltd-0037-1271434
Blue Star Roofing Ltd.,(604) 807-8244,,,,,14427 68 Ave ,Surrey,BC,V3S 2A8,https://www.bbb.org/ca/bc/surrey/profile/roofing-contractors/blue-star-roofing-ltd-0037-1267357
TBH Roofing & Renovations Ltd.,(604) 721-6765,,,,,,Surrey,BC,V3S 8A5,https://www.bbb.org/ca/bc/surrey/profile/roofing-contractors/tbh-roofing-renovations-ltd-0037-1299623
Guardians Roofing Ltd.,(778) 861-5248,,,,,8222 144 St ,Surrey,BC,V3W 5T4,https://www.bbb.org/ca/bc/surrey/profile/roofing-contractors/guardians-roofing-ltd-0037-1250271
Mattu Roofing Ltd.,(604) 961-2035,(604) 698-9430,,,,8351 143 St ,Surrey,BC,V3W 0V7,https://www.bbb.org/ca/bc/surrey/profile/roofing-contractors/mattu-roofing-ltd-0037-1243604
Save More Roofing,(778) 892-1266,,,,,14328 84A Ave ,Surrey,BC,V3W 0Z9,https://www.bbb.org/ca/bc/surrey/profile/roofing-contractors/save-more-roofing-0037-1236201
Brave Heart Subcontracting,(778) 834-0541,,,,,13734 67 Ave ,Surrey,BC,V3W 6X6,https://www.bbb.org/ca/bc/surrey/profile/roofing-contractors/brave-heart-subcontracting-0037-2399574
Hans Roofing Ltd.,(778) 862-0523,,,,,13452 79 Ave ,Surrey,BC,V3W 2Y8,https://www.bbb.org/ca/bc/surrey/profile/commercial-roofing/hans-roofing-ltd-0037-1287230
All Seasons Roofing (2001) Ltd.,(604) 502-8683,(604) 502-8686,,,,13281 Comber Way ,Surrey,BC,V6B 1P2,https://www.bbb.org/ca/bc/surrey/profile/roofing-contractors/all-seasons-roofing-2001-ltd-0037-1195544
K Burkett and Sons Roofing,(604) 496-2257,,,,,14496 88 Ave ,Surrey,BC,V3W 5V1,https://www.bbb.org/ca/bc/surrey/profile/roofing-contractors/k-burkett-and-sons-roofing-0037-1384190
Cedar Grove Roofing Supply,(604) 802-1274,,,,,8073 - 132nd Street ,Surrey,BC,V3W 4N5,https://www.bbb.org/ca/bc/surrey/profile/roofing-materials/cedar-grove-roofing-supply-0037-1368134
Rai Roofing Ltd.,(604) 807-0307,,,,,6297 134 St ,Surrey,BC,V3X 1L7,https://www.bbb.org/ca/bc/surrey/profile/roofing-contractors/rai-roofing-ltd-0037-1207905
BMB Roofing Ltd,(604) 593-1723,,,,,12985 70 B Ave ,Surrey,BC,V3W 7A6,https://www.bbb.org/ca/bc/surrey/profile/roofing-contractors/bmb-roofing-ltd-0037-1373563
Paras Roofing Ltd.,(604) 319-1312,,,,,8746 August Dr ,Surrey,BC,V3S 5A2,https://www.bbb.org/ca/bc/surrey/profile/commercial-roofing/paras-roofing-ltd-0037-1255997
Roofmart Pacific Ltd,(604) 591-5171,(604) 299-8035,(604) 591-5750,,,8321 132 St ,Surrey,BC,V3W 4N6,https://www.bbb.org/ca/bc/surrey/profile/roofing-contractors/roofmart-pacific-ltd-0037-111348
Quinn Industries,(604) 862-1731,,,,,14589 74 Ave ,Surrey,BC,V3S 2G6,https://www.bbb.org/ca/bc/surrey/profile/home-additions/quinn-industries-0037-1292905
JTH Finishing Carpentry Ltd,(604) 441-1734,,,,,14378 72 Ave ,Surrey,BC,V3W 2R1,https://www.bbb.org/ca/bc/surrey/profile/carpenter/jth-finishing-carpentry-ltd-0037-1364998
Gurprit Drywall & Renovations,(604) 245-4351,,,,,14701 72 Ave ,Surrey,BC,V3S 2E8,https://www.bbb.org/ca/bc/surrey/profile/home-improvement/gurprit-drywall-renovations-0037-1296637
Smart Choice Painting Inc.,(778) 928-6058,,,,,7265 143 St ,Surrey,BC,V3W 5P1,https://www.bbb.org/ca/bc/surrey/profile/painting-contractors/smart-choice-painting-inc-0037-2396524
Young boy construction ltd,(604) 363-6465,,,,,14571 76 A Ave ,Surrey,BC,V3S 2P4,https://www.bbb.org/ca/bc/surrey/profile/home-improvement/young-boy-construction-ltd-0037-2409034
Pyramid Dream Homes Ltd.,(778) 882-5653,,,,,7539 148 Street ,Surrey,BC,V3S 3E8,https://www.bbb.org/ca/bc/surrey/profile/home-builders/pyramid-dream-homes-ltd-0037-1365554
Unique Arts Home Renovations,(604) 318-0434,,,,,14168 72 Ave ,Surrey,BC,V3W 2P8,https://www.bbb.org/ca/bc/surrey/profile/home-improvement/unique-arts-home-renovations-0037-1214749
TSA Construction Inc,(778) 688-5764,,,,,6926 148 St ,Surrey,BC,V3S 3E2,https://www.bbb.org/ca/bc/surrey/profile/general-contractor/tsa-construction-inc-0037-1375430
Rimo Construction Ltd,(604) 700-5808,,,,,7153 140A St ,Surrey,BC,V3W 7V6,https://www.bbb.org/ca/bc/surrey/profile/general-contractor/rimo-construction-ltd-0037-1372087
All Seasons Development Ltd.,(778) 565-5649,,,,,7691 150A St ,Surrey,BC,V3S 5P1,https://www.bbb.org/ca/bc/surrey/profile/home-improvement/all-seasons-development-ltd-0037-1275607
Wagner Restorations Ltd,(604) 590-9039,,,,,14045 77 Ave ,Surrey,BC,V3W 2W8,https://www.bbb.org/ca/bc/surrey/profile/home-improvement/wagner-restorations-ltd-0037-1203871
Fastrack Drywall,(778) 823-6462,,,,,14470 67 B Ave ,Surrey,BC,V3S 0T3,https://www.bbb.org/ca/bc/surrey/profile/drywall-contractors/fastrack-drywall-0037-1374795
Divine Designs Construction,(604) 551-4204,,,,,14602 67 B Ave ,Surrey,BC,V3S 0N1,https://www.bbb.org/ca/bc/surrey/profile/general-contractor/divine-designs-construction-0037-1371872
Budget Aluminum and Allied World Ltd.,(604) 783-8356,(604) 783-8356,,,,,Surrey,BC,V3S 0Z4,https://www.bbb.org/ca/bc/surrey/profile/deck-railings/budget-aluminum-and-allied-world-ltd-0037-1376670
Toms Roofing Ltd.,(778) 552-8533,,,,,6308 130B St ,Surrey,BC,V3X 1R4,https://www.bbb.org/ca/bc/surrey/profile/roofing-contractors/toms-roofing-ltd-0037-1285595
Blueline Roofing&Sheet Metal,(604) 594-7868,,,,,101 13119 84th Ave ,Surrey,BC,V3W 1B3,https://www.bbb.org/ca/bc/surrey/profile/roofing-contractors/blueline-roofingsheet-metal-0037-1271333
Relevant Roofing Inc,(604) 367-8448,,,,,831 102 15910 Fraser Hwy ,Surrey,BC,V4N 0X9,https://www.bbb.org/ca/bc/surrey/profile/roofing-contractors/relevant-roofing-inc-0037-1369019
Baaz Roofing Ltd.,(778) 870-1850,,,,,6693 127 St ,Surrey,BC,V3W 1G5,https://www.bbb.org/ca/bc/surrey/profile/roofing-contractors/baaz-roofing-ltd-0037-1365003
Dulay Roofing Ltd.,(604) 250-9842,,,,,12565 69A Ave ,Surrey,BC,V3W 1P9,https://www.bbb.org/ca/bc/surrey/profile/roofing-contractors/dulay-roofing-ltd-0037-1215711
H & R Roofing Ltd.,(604) 897-7939,,,,,6933 125 A St ,Surrey,BC,V3W 1P9,https://www.bbb.org/ca/bc/surrey/profile/roofing-contractors/h-r-roofing-ltd-0037-1277072
DC Roofing Inc.,(604) 503-3500,,,,,110 8468 162 St ,Surrey,BC,V4N 1B4,https://www.bbb.org/ca/bc/surrey/profile/roofing-contractors/dc-roofing-inc-0037-1198806
SRS Roofing,(604) 655-8486,,,,,,Surrey,BC,V3W 9J1,https://www.bbb.org/ca/bc/surrey/profile/roofing-contractors/srs-roofing-0037-1378742
OTE Gutters & Roofing Ltd.,(604) 404-9744,,,,,6250 137B St ,Surrey,BC,V3X 3R1,https://www.bbb.org/ca/bc/surrey/profile/building-contractors/ote-gutters-roofing-ltd-0037-2401833
Dulai Roofing Ltd.,(604) 597-4435,,,,,112 13045 84 Ave ,Surrey,BC,V3W 1B3,https://www.bbb.org/ca/bc/surrey/profile/roofing-contractors/dulai-roofing-ltd-0037-117531
Pooni Contracting,(604) 590-4524,,,,,14854 72 Ave ,Surrey,BC,V3S 2G1,https://www.bbb.org/ca/bc/surrey/profile/general-contractor/pooni-contracting-0037-1206920
Divine Electrical Contractors Ltd,(778) 589-5113,,,,,14862 72 Ave ,Surrey,BC,V3S 2G1,https://www.bbb.org/ca/bc/surrey/profile/electrical-contractors/divine-electrical-contractors-ltd-0037-1287582
Aark Construction Ltd,(604) 596-0652,(604) 596-0652,,,,14783 69A Ave ,Surrey,BC,V3S 2C7,https://www.bbb.org/ca/bc/surrey/profile/general-contractor/aark-construction-ltd-0037-139571
Gurmeet Kooner Ltd,(778) 883-8534,,,,,14999 71A Ave ,Surrey,BC,V3S 0A1,https://www.bbb.org/ca/bc/surrey/profile/general-contractor/gurmeet-kooner-ltd-0037-1232879
Modern Touch Construction,(604) 779-8412,,,,,,Surrey,BC,V3W 9V9,https://www.bbb.org/ca/bc/surrey/profile/general-contractor/modern-touch-construction-0037-2404509
MVP Home & Property Services,(604) 562-5996,,,,,14940 69A Ave ,Surrey,BC,V3S 0Y9,https://www.bbb.org/ca/bc/surrey/profile/general-contractor/mvp-home-property-services-0037-1232340
Shimmer Development,(604) 618-8205,,,,,-- ,Surrey,BC,V3S 3J3,https://www.bbb.org/ca/bc/surrey/profile/construction/shimmer-development-0037-1369161
AGG Painting Ltd.,(604) 723-4098,,,,,6961 150 St ,Surrey,BC,V3S 3J3,https://www.bbb.org/ca/bc/surrey/profile/commercial-painter/agg-painting-ltd-0037-1365112
Wayjo General Contracting,(604) 596-3013,,,,,7925 148 Ave ,Surrey,BC,V3S 3G1,https://www.bbb.org/ca/bc/surrey/profile/general-contractor/wayjo-general-contracting-0037-1188891
Bill Lightfoot Construction,(604) 507-8120,,,,,205 13771 72A Avenue ,Surrey,BC,V3W 9C6,https://www.bbb.org/ca/bc/surrey/profile/general-contractor/bill-lightfoot-construction-0037-1230188
Singh Contracting Ltd.,,,,,,. ,Surrey,BC,V3W 7K2,https://www.bbb.org/ca/bc/surrey/profile/general-contractor/singh-contracting-ltd-0037-1370793
Peak Masters,(604) 783-1345,,,,,44 8428 Venture Way ,Surrey,BC,V3S 0W6,https://www.bbb.org/ca/bc/surrey/profile/roofing-contractors/peak-masters-0037-1274499
Aquaguard Roofing Ltd,(604) 765-1782,,,,,6459 130 St ,Surrey,BC,V3W 4H9,https://www.bbb.org/ca/bc/surrey/profile/roofing-contractors/aquaguard-roofing-ltd-0037-1301920
Pattar Roofing Ltd.,(604) 250-8977,,,,,13283 56 Ave ,Surrey,BC,V3X 2Z5,https://www.bbb.org/ca/bc/surrey/profile/roofing-contractors/pattar-roofing-ltd-0037-102992
Jas Mann Roofing and Waterproofing Inc.,(778) 229-6266,(604) 597-3225,(778) 402-6371,(604) 897-1484,,8733 162 A St ,Surrey,BC,V4N 1J7,https://www.bbb.org/ca/bc/surrey/profile/roofing-contractors/jas-mann-roofing-and-waterproofing-inc-0037-1261665
Homelife Roofing Ltd.,(604) 445-9978,,,,,15108 95A Ave ,Surrey,BC,V3R 1E5,https://www.bbb.org/ca/bc/surrey/profile/roofing-contractors/homelife-roofing-ltd-0037-1367615
PR Peter Roofing Ltd.,(604) 589-4603,(604) 589-4603,(604) 857-3325,,,7440 149A St ,Surrey,BC,V3S 3H5,https://www.bbb.org/ca/bc/surrey/profile/roofing-contractors/pr-peter-roofing-ltd-0037-130412
Signature Roofing,(604) 616-9016,,,,,14661 83 Ave ,Surrey,BC,V3S 9K5,https://www.bbb.org/ca/bc/surrey/profile/roofing-contractors/signature-roofing-0037-1232850
Active Roofing Ltd.,(604) 765-0903,,,,,111 6030 142 St ,Surrey,BC,V3X 0J5,https://www.bbb.org/ca/bc/surrey/profile/roofing-contractors/active-roofing-ltd-0037-1369931
Complete Roofing Ltd.,(604) 725-0106,(604) 591-1353,,,,15575 86 Ave ,Surrey,BC,V3S 5C8,https://www.bbb.org/ca/bc/surrey/profile/roofing-contractors/complete-roofing-ltd-0037-1231695
All World 1419 Roofing Ltd.,(778) 868-7475,,,,,7550 123A St ,Surrey,BC,V3W 9P6,https://www.bbb.org/ca/bc/surrey/profile/roofing-contractors/all-world-1419-roofing-ltd-0037-1376987
S & S Siding & Gutters,(604) 888-6369,,,,,6702 138 St ,Surrey,BC,V3W 5G8,https://www.bbb.org/ca/bc/surrey/profile/gutters/s-s-siding-gutters-0037-1202916
Mighty Moe Property Maintenance & Gutters Inc.,(778) 242-4145,,,,,107 15336 67 Ave ,Surrey,BC,V3S 7C9,https://www.bbb.org/ca/bc/surrey/profile/gutters/mighty-moe-property-maintenance-gutters-inc-0037-1286111
Real Siding and Gutters Ltd.,(778) 237-3809,,,,,13498 80A Ave ,Surrey,BC,V3W 8A6,https://www.bbb.org/ca/bc/surrey/profile/gutters/real-siding-and-gutters-ltd-0037-2420575
ARA Gutters,(604) 765-3130,,,,,87 8190 King George Blvd ,Surrey,BC,V3W 5B7,https://www.bbb.org/ca/bc/surrey/profile/gutters/ara-gutters-0037-1266723
Arnold & Sons Roofing Ltd.,(604) 599-0821,(604) 599-0826,,,,112 13302 76 Ave ,Surrey,BC,V3W 2W1,https://www.bbb.org/ca/bc/surrey/profile/roofing-contractors/arnold-sons-roofing-ltd-0037-115446
Super General Contractors Ltd.,(604) 537-8173,,,,,6109 150A St ,Surrey,BC,V3S 7W9,https://www.bbb.org/ca/bc/surrey/profile/home-improvement/super-general-contractors-ltd-0037-1273407
JustAsk Bc Property Maintenance,(604) 372-4691,,,,,15436 Killarney Pl ,Surrey,BC,V3S 7G8,https://www.bbb.org/ca/bc/surrey/profile/home-improvement/justask-bc-property-maintenance-0037-1293092
Prima Services,(604) 227-7402,,,,,9036 146A St ,Surrey,BC,V3R 6X7,https://www.bbb.org/ca/bc/vancouver/profile/gutters/prima-services-0037-1273092
Uppal Building Supplies Ltd.,(604) 594-4142,,,,,7846 128 St ,Surrey,BC,V3W 4E8,https://www.bbb.org/ca/bc/surrey/profile/building-materials/uppal-building-supplies-ltd-0037-1230366
Superior Gutter Rescue Ltd,(604) 951-1133,,,,,9099 149 St ,Surrey,BC,V3R 3Z5,https://www.bbb.org/ca/bc/surrey/profile/gutters/superior-gutter-rescue-ltd-0037-1241364
Duall Star Construction,(604) 594-3052,,,,,13031 63 Ave ,Surrey,BC,V3X 1R2,https://www.bbb.org/ca/bc/surrey/profile/gutters/duall-star-construction-0037-216207
Discovery Building Maintenance,(604) 363-6244,,,,,8906 135A St ,Surrey,BC,V3V 5V3,https://www.bbb.org/ca/bc/surrey/profile/janitor-service/discovery-building-maintenance-0037-1271047
Anand Masonry Ltd,(604) 725-3094,,,,,13362 68 Ave ,Surrey,BC,V3W 2E7,https://www.bbb.org/ca/bc/surrey/profile/mason-contractors/anand-masonry-ltd-0037-1375911
Kelowna Pine Lighting,(250) 862-3245,(604) 591-8114,(604) 591-8895,,,6898 King George Blvd ,Surrey,BC,V3W 4Z9,https://www.bbb.org/ca/bc/kelowna/profile/light-fixture-repair/kelowna-pine-lighting-0037-1219139
Canadian Windows,(604) 593-5101,,,,,130 12885 85 Ave ,Surrey,BC,V3W 0K8,https://www.bbb.org/ca/bc/surrey/profile/windows/canadian-windows-0037-126297
East-Can Roofing & Siding Ltd,(604) 562-0957,,,,,7592 125 St ,Surrey,BC,V3W 0M3,https://www.bbb.org/ca/bc/surrey/profile/roofing-contractors/east-can-roofing-siding-ltd-0037-1250893
Canam Roofing Ltd.,(778) 881-1417,,,,,12266 68A Ave ,Surrey,BC,V3W 0X3,https://www.bbb.org/ca/bc/surrey/profile/roofing-contractors/canam-roofing-ltd-0037-1261947
Morrison Windows Ltd.,(604) 539-1315,,,,,8400 124 St ,Surrey,BC,V3W 6K1,https://www.bbb.org/ca/bc/surrey/profile/window-installation/morrison-windows-ltd-0037-1274324
D & R Skylight Installations,(604) 584-3656,,,,,4 12331 84 Ave ,Surrey,BC,V3W 3G8,https://www.bbb.org/ca/bc/surrey/profile/skylights/d-r-skylight-installations-0037-127425
Skyview Windows Inc.,(604) 593-3597,,,,,12154 86 Ave ,Surrey,BC,V3W 3H7,https://www.bbb.org/ca/bc/surrey/profile/windows/skyview-windows-inc-0037-1279641
A Top Roofing Ltd.,(778) 874-0421,,,,,202 13863 100 Ave ,Surrey,BC,V3T 5P5,https://www.bbb.org/ca/bc/surrey/profile/roofing-contractors/a-top-roofing-ltd-0037-2406693
Wesco Glass Restorations,(778) 686-5855,(604) 738-6529,(604) 537-6529,(604) 210-9818,(778) 508-7691,105 - 151 10090 152nd St ,Surrey,BC,V3R 8X8,https://www.bbb.org/ca/bc/coquitlam/profile/glazier/wesco-glass-restorations-0037-1225004
Summit Glazing Systems Inc.,(604) 727-7133,,,,,11638 Commonwealth Cres ,Delta,BC,V4E 2N1,https://www.bbb.org/ca/bc/delta/profile/window-door-installation/summit-glazing-systems-inc-0037-1157970
Crystalline Glass Ltd.,(604) 349-7702,(778) 952-8946,,,,,Surrey,BC,V3T 1L1,https://www.bbb.org/ca/bc/surrey/profile/window-installation/crystalline-glass-ltd-0037-1378746
BHI,(778) 288-4801,,,,,Private Address ,Surrey,BC,V3W 6M7,https://www.bbb.org/ca/bc/surrey/profile/home-builders/bhi-0037-1376636
Dil Brothers Construction Services Ltd,(778) 893-1295,,,,,8820 141A St ,Surrey,BC,V3V 7W5,https://www.bbb.org/ca/bc/surrey/profile/painting-contractors/dil-brothers-construction-services-ltd-0037-1372113
Gurveer Drywall Ltd.,(604) 220-1111,,,,,13237 64A Ave ,Surrey,BC,V3W 7H9,https://www.bbb.org/ca/bc/surrey/profile/drywall-contractors/gurveer-drywall-ltd-0037-1281618
Aims Craftsman Construction,(604) 710-0523,,,,,14696 89 Ave ,Surrey,BC,V3R 6S8,https://www.bbb.org/ca/bc/surrey/profile/general-contractor/aims-craftsman-construction-0037-1377152
Top Line Construction Ltd.,(604) 518-2828,,,,,6918 130 Street ,Surrey,BC,V3W 4J5,https://www.bbb.org/ca/bc/surrey/profile/home-improvement/top-line-construction-ltd-0037-1288972
Liberty Appliance Repair,(604) 813-6382,,,,,"14794 58 Ave, ",Surrey,BC,V3S 1S2,https://www.bbb.org/ca/bc/surrey/profile/appliance-repair/liberty-appliance-repair-0037-2399779
Tanayah Homes,(778) 926-4343,,,,,13927 58 B Ave ,Surrey,BC,V3X 0G7,https://www.bbb.org/ca/bc/surrey/profile/home-builders/tanayah-homes-0037-1385875
Alp Electric Ltd.,(778) 723-4444,,,,,56 8888 151 St ,Surrey,BC,V3R 0Z9,https://www.bbb.org/ca/bc/surrey/profile/electrician/alp-electric-ltd-0037-2399579
Td Renovations,(604) 591-1997,,,,,13541 60a Ave ,Surrey,BC,V3X 1H7,https://www.bbb.org/ca/bc/surrey/profile/home-improvement/td-renovations-0037-1188625
Your City Construction Ltd,(604) 906-4969,,,,,305 14225 57 Ave ,Surrey,BC,V3X 2W6,https://www.bbb.org/ca/bc/surrey/profile/home-improvement/your-city-construction-ltd-0037-2407891
Star Eagle Renovation,(778) 908-6690,,,,,7337- 128 B St. ,Surrey,BC,V3W 7E5,https://www.bbb.org/ca/bc/surrey/profile/home-improvement/star-eagle-renovation-0037-1285721
Wood + Wall Renovations,(604) 551-0604,,,,,. ,Surrey,BC,V3R 8V1,https://www.bbb.org/ca/bc/surrey/profile/home-improvement/wood-wall-renovations-0037-2419138
Vector Construction & Renovations,(604) 690-3327,,,,,15448 Kildare Dr ,Surrey,BC,V3S 6B9,https://www.bbb.org/ca/bc/surrey/profile/home-improvement/vector-construction-renovations-0037-1202590
Global World Painting,(778) 855-9006,,,,,14875 56 B Ave ,Surrey,BC,V3S 8W8,https://www.bbb.org/ca/bc/surrey/profile/painting-contractors/global-world-painting-0037-2400997
Northwood Home Inspections,(778) 574-4663,(604) 575-9366,,,,6828 176A St ,Surrey,BC,V3S 4P4,https://www.bbb.org/ca/bc/surrey/profile/home-inspection/northwood-home-inspections-0037-1133986
SPS Roofing Ltd,(604) 618-1643,,,,,,Surrey,BC,V3T 3E4,https://www.bbb.org/ca/bc/surrey/profile/commercial-roofing/sps-roofing-ltd-0037-1273991
Nelson Roofing & Sheet Metal Ltd.,(250) 336-8088,(250) 336-8089,(250) 287-4939,(250) 287-8784,(888) 318-8642,6925 176 St ,Surrey,BC,V3S 4P4,https://www.bbb.org/ca/bc/courtenay/profile/roofing-contractors/nelson-roofing-sheet-metal-ltd-0047-1286
JJ Roofing,(604) 726-6345,(604) 597-2974,,,,10660 140 St ,Surrey,BC,V3T 4N8,https://www.bbb.org/ca/bc/surrey/profile/roofing-contractors/jj-roofing-0037-1233616
Macbeth Roofing & Waterproofing,(604) 593-1044,(604) 593-1045,,,,73 13365 115th Ave ,Delta,BC,V4C 2R5,https://www.bbb.org/ca/bc/delta/profile/roofing-contractors/macbeth-roofing-waterproofing-0037-128817
Solid Roofing,(604) 897-4088,,,,,307 5906 176A St ,Surrey,BC,V3S 4H7,https://www.bbb.org/ca/bc/surrey/profile/roofing-contractors/solid-roofing-0037-1367629
Kinnereth Roofing Company,(778) 317-9040,,,,,11897 97 Ave ,Surrey,BC,V3V 2C4,https://www.bbb.org/ca/bc/surrey/profile/roofing-contractors/kinnereth-roofing-company-0037-1259952
Guru Roofing Ltd,,,,,,10110 121 A St ,Surrey,BC,V3V 4L2,https://www.bbb.org/ca/bc/surrey/profile/metal-roofing-contractors/guru-roofing-ltd-0037-1369951
Daniel Roofing,(604) 720-3958,,,,,16427 Glenside Pl ,Surrey,BC,V4N 1V6,https://www.bbb.org/ca/bc/surrey/profile/roofing-contractors/daniel-roofing-0037-1258593
Marks Roofing Ltd.,(778) 885-3347,,,,,11079 Swan Cr ,Surrey,BC,V3R 5B7,https://www.bbb.org/ca/bc/surrey/profile/roofing-contractors/marks-roofing-ltd-0037-1299733
Eaves to Peaks Roofing,(604) 309-8629,,,,,13660 110A Ave. ,Surrey,BC,V3R 2B1,https://www.bbb.org/ca/bc/surrey/profile/commercial-roofing/eaves-to-peaks-roofing-0037-1267360
Kanga Roofing Inc.,(604) 240-9510,,,,,11028 157 St ,Surrey,BC,V4N 1C5,https://www.bbb.org/ca/bc/surrey/profile/roofing-contractors/kanga-roofing-inc-0037-1274500
Consumers Choice Roofing & Drainage Ltd.,(604) 669-0303,,,,,18267 64 Ave ,Surrey,BC,V3S 0M3,https://www.bbb.org/ca/bc/surrey/profile/roofing-contractors/consumers-choice-roofing-drainage-ltd-0037-1251547
Titan Roofing Ltd,(778) 855-7663,,,,,10665 Ramona Way ,Delta,BC,V4C 6S5,https://www.bbb.org/ca/bc/delta/profile/roofing-contractors/titan-roofing-ltd-0037-1365002
Kora Kitchen and Bath Design Ltd.,(604) 619-9079,,,,,11890 Gilmour Cr ,Delta,BC,V4C 1L1,https://www.bbb.org/ca/bc/delta/profile/bathroom-design/kora-kitchen-and-bath-design-ltd-0037-1254247
TC Team,(604) 725-9463,,,,,9364 127 St ,Surrey,BC,V3V 6C5,https://www.bbb.org/ca/bc/surrey/profile/home-improvement/tc-team-0037-1298052
Taranis Construction Inc.,(604) 323-6824,,,,,16058 96A Ave ,Surrey,BC,V4N 3K8,https://www.bbb.org/ca/bc/surrey/profile/construction-management/taranis-construction-inc-0037-1236836
MY05 Drywall Ltd,(604) 728-2425,,,,,13286 98 Ave ,Surrey,BC,V3T 5M9,https://www.bbb.org/ca/bc/surrey/profile/drywall-contractors/my05-drywall-ltd-0037-1369930
Eagle Kitchen Cabinets Ltd.,(604) 598-0687,,,,,12102 86 Ave ,Surrey,BC,V3W 3H7,https://www.bbb.org/ca/bc/surrey/profile/cabinets/eagle-kitchen-cabinets-ltd-0037-1292557
J & S Decking Ltd,(778) 868-6704,,,,,15730 98A Ave ,Surrey,BC,V4N 2V7,https://www.bbb.org/ca/bc/burnaby/profile/patios-and-decks/j-s-decking-ltd-0037-1381006
Tristar Enterprises,(604) 727-1631,(604) 589-7994,,,,15785 98 Ave ,Surrey,BC,V4N 2V5,https://www.bbb.org/ca/bc/surrey/profile/handyman/tristar-enterprises-0037-222655
GP Homes Development Limited,(604) 720-3784,,,,,8262 171 St ,Surrey,BC,V4N 0P2,https://www.bbb.org/ca/bc/surrey/profile/home-builders/gp-homes-development-limited-0037-1271873
C Fraser Contracting,(604) 836-3352,,,,,6295 171 St ,Surrey,BC,V3S 7K4,https://www.bbb.org/ca/bc/surrey/profile/home-improvement/c-fraser-contracting-0037-2414811
C Fraser Contracting,(604) 836-3352,,,,,6295 171 St ,Surrey,BC,V3S 7K4,https://www.bbb.org/ca/bc/surrey/profile/home-improvement/c-fraser-contracting-0037-2414812
NO Complaint Construction Ltd.,(604) 788-7410,,,,,17120 64th. Ave. ,Surrey,BC,V3S 1V4,https://www.bbb.org/ca/bc/surrey/profile/home-improvement/no-complaint-construction-ltd-0037-1279732
Frontline Framing Ltd.,(604) 767-9593,,,,,11768 Kerrbay St ,Delta,BC,V4C 1K1,https://www.bbb.org/ca/bc/delta/profile/framing-contractors/frontline-framing-ltd-0037-1281282
PRL Pacific Reconstruction,(604) 319-1657,,,,,110 10090 152 St ,Surrey,BC,V3R 8X8,https://www.bbb.org/ca/bc/surrey/profile/home-improvement/prl-pacific-reconstruction-0037-1365948
Sea to Sky Construction,(778) 688-8812,,,,,8579 171 St ,Surrey,BC,V4N 5J1,https://www.bbb.org/ca/bc/surrey/profile/construction-services/sea-to-sky-construction-0037-1302770
Pinewood Construction Ltd,(604) 724-8990,,,,,9238 124 St. ,Surrey,BC,V3V 4S3,https://www.bbb.org/ca/bc/surrey/profile/home-improvement/pinewood-construction-ltd-0037-1287385
Best JR Roofing,(604) 209-1686,(604) 543-1854,(604) 501-2295,,,300 8820 120 St ,Surrey,BC,V3V 0C9,https://www.bbb.org/ca/bc/surrey/profile/roofing-contractors/best-jr-roofing-0037-1197601
Paragon Roofing BC,(604) 358-3436,,,,,,Surrey,BC,V3V 7R8,https://www.bbb.org/ca/bc/surrey/profile/residential-roofing/paragon-roofing-bc-0037-2417342
Hogan's Roofing Ltd.,(604) 710-4791,,,,,11923 96 Ave ,Surrey,BC,V3V 1W1,https://www.bbb.org/ca/bc/delta/profile/roofing-contractors/hogans-roofing-ltd-0037-1274761
Crucial Roof Services Ltd.,(604) 561-8798,,,,,7813 Garfield Dr ,Delta,BC,V4C 4C9,https://www.bbb.org/ca/bc/delta/profile/roofing-contractors/crucial-roof-services-ltd-0037-1226513
Four Corner Roofing Ltd.,(604) 614-4710,,,,,101 12167 78 Ave ,Surrey,BC,V3W 5B6,https://www.bbb.org/ca/bc/surrey/profile/roofing-contractors/four-corner-roofing-ltd-0037-1286495
Super Strong Roofing Ltd.,(604) 961-1956,,,,,5810 126A St ,Surrey,BC,V3X 3J4,https://www.bbb.org/ca/bc/surrey/profile/roofing-contractors/super-strong-roofing-ltd-0037-1208357
Phantom Works Ltd.,(604) 825-4292,,,,,102 7500 Scott Rd ,Surrey,BC,V3W 3N1,https://www.bbb.org/ca/bc/surrey/profile/roofing-contractors/phantom-works-ltd-0037-2400896
Galaxy Roofing Ltd.,(778) 385-2621,,,,,12581 90 Ave ,Surrey,BC,V3V 1V9,https://www.bbb.org/ca/bc/surrey/profile/roofing-contractors/galaxy-roofing-ltd-0037-1282379
Anytime Roofing Ltd.,(778) 710-7104,,,,,,Surrey,BC,V3X 3L8,https://www.bbb.org/ca/bc/surrey/profile/roofing-contractors/anytime-roofing-ltd-0037-2428621
Real Longlife Enviro Roofing Corp.,(604) 598-9697,(778) 891-6033,,,,100 8253 120 St ,Delta,BC,V4C 6R1,https://www.bbb.org/ca/bc/delta/profile/roofing-contractors/real-longlife-enviro-roofing-corp-0037-1248385
High Tech Roofing,(604) 782-6462,,,,,7837 117A St ,Delta,BC,V4C 6C4,https://www.bbb.org/ca/bc/delta/profile/roofing-contractors/high-tech-roofing-0037-1287186
Dutta Custom Metal Roofing Ltd,(604) 782-6462,,,,,7837 117A St ,Delta,BC,V4C 6C4,https://www.bbb.org/ca/bc/delta/profile/metal-roofing-contractors/dutta-custom-metal-roofing-ltd-0037-2418651
Lower Mainland Roof Inspections & Consulting Ltd.,(778) 968-6465,,,,,12077 59 Ave ,Surrey,BC,V3X 3L3,https://www.bbb.org/ca/bc/surrey/profile/roof-inspection/lower-mainland-roof-inspections-consulting-ltd-0037-1371601
First Experts Roofing,(778) 230-5717,,,,,13140 99 Ave ,Surrey,BC,V3T 1E9,https://www.bbb.org/ca/bc/surrey/profile/roofing-contractors/first-experts-roofing-0037-1266260
Tectum Sheet Metal Ltd.,(778) 590-0903,(778) 727-0755,,,,11846 84 Ave ,Delta,BC,V4C 2M5,https://www.bbb.org/ca/bc/surrey/profile/sheet-metal-contractor/tectum-sheet-metal-ltd-0037-1284849
Friendly Roofing Ltd.,(778) 246-0606,,,,,9711 128A St ,Surrey,BC,V3T 3E1,https://www.bbb.org/ca/bc/surrey/profile/roofing-contractors/friendly-roofing-ltd-0037-1264958
Rainstar Roofing,(236) 333-7982,,,,,Private Address ,Surrey,BC,V3T 1R1,https://www.bbb.org/ca/bc/surrey/profile/roofing-contractors/rainstar-roofing-0037-1384219
Vingroup Contracting Ltd,(604) 767-6642,,,,,Non Reportable Home Address ,Surrey,BC,V3S 3X8,https://www.bbb.org/ca/bc/surrey/profile/home-improvement/vingroup-contracting-ltd-0037-1365925
L & W Restorations,(604) 671-5182,,,,,46 9955 140 St ,Surrey,BC,V3T 4M4,https://www.bbb.org/ca/bc/surrey/profile/home-improvement/l-w-restorations-0037-175052
Gates Martinez Renovation Services Ltd,(604) 572-8255,,,,,5661 125A St ,Surrey,BC,V3X 3G8,https://www.bbb.org/ca/bc/surrey/profile/home-improvement/gates-martinez-renovation-services-ltd-0037-1200468
Advanced Euro Paving & Landscaping,(604) 862-8770,,,,,7988 170A St ,Surrey,BC,V4N 0C6,https://www.bbb.org/ca/bc/surrey/profile/landscape-contractors/advanced-euro-paving-landscaping-0037-1255194
On Demand Renos Ltd,(604) 512-8777,,,,,-- ,Delta,BC,V4C 1C4,https://www.bbb.org/ca/bc/delta/profile/home-improvement/on-demand-renos-ltd-0037-1369333
Gemini Marketing & Management Corp.,(604) 930-8402,,,,,"9242 126A St., ",Surrey,BC,V3V 5G2,https://www.bbb.org/ca/bc/surrey/profile/home-improvement/gemini-marketing-management-corp-0037-1231985
Beautiful Image Renovation,(778) 293-0883,,,,,12566 91A Ave ,Surrey,BC,V3V 7C7,https://www.bbb.org/ca/bc/surrey/profile/home-improvement/beautiful-image-renovation-0037-1205404
22 Construction,(604) 726-2122,,,,,8767 168 St. ,Surrey,BC,V4N 5J4,https://www.bbb.org/ca/bc/surrey/profile/home-improvement/22-construction-0037-1291097
Khaira Bros Plumbing and Heating,(604) 970-5700,,,,,12550 91A Ave ,Surrey,BC,V3V 7C7,https://www.bbb.org/ca/bc/surrey/profile/plumber/khaira-bros-plumbing-and-heating-0037-1373330
Scores Grill,(604) 594-8887,,,,,8220 120 St ,Surrey,BC,V3W 3N4,https://www.bbb.org/ca/bc/surrey/profile/home-improvement/scores-grill-0037-1188374
Innova Remodeling,(604) 762-7005,(604) 598-0212,,,,5504 125A St ,Surrey,BC,V3W 1X3,https://www.bbb.org/ca/bc/surrey/profile/home-improvement/innova-remodeling-0037-1135228
Emin's Renovations,(604) 375-5122,,,,,,Surrey,BC,V3T 4Z5,https://www.bbb.org/ca/bc/surrey/profile/home-improvement/emins-renovations-0037-1257112
New Image Projects Ltd,(604) 803-7944,(604) 575-0222,,,,5835 167 St ,Surrey,BC,V3S 9T5,https://www.bbb.org/ca/bc/surrey/profile/general-contractor/new-image-projects-ltd-0037-1187864
DM Masonry,(604) 999-5893,,,,,Private Address ,Surrey,BC,V3S 0C6,https://www.bbb.org/ca/bc/surrey/profile/mason-contractors/dm-masonry-0037-1384925
Heavenly Interiors,(604) 496-1311,,,,,111 14859 100 Ave ,Surrey,BC,V3R 2V5,https://www.bbb.org/ca/bc/surrey/profile/painting-contractors/heavenly-interiors-0037-1268345
Essar Finishing Carpentry Ltd,(778) 968-3403,,,,,205 7837 120 A St ,Surrey,BC,V3W 0W9,https://www.bbb.org/ca/bc/surrey/profile/finish-carpentry/essar-finishing-carpentry-ltd-0037-1375910
Bling Construction,(778) 863-2241,,,,,9772 152B St ,Surrey,BC,V3R 9K3,https://www.bbb.org/ca/bc/surrey/profile/general-contractor/bling-construction-0037-1382620
JC Homes (2016) Ltd,(604) 710-4837,,,,,9510 132 St ,Surrey,BC,V3V 5R3,https://www.bbb.org/ca/bc/surrey/profile/home-builders/jc-homes-2016-ltd-0037-1377154
Aquatic Pools Ltd.,(604) 588-1698,,,,,16491 89 Ave ,Surrey,BC,V4N 1A2,https://www.bbb.org/ca/bc/surrey/profile/pool-contractors/aquatic-pools-ltd-0037-1236174
Gahlla Renovation Services Ltd.,(778) 668-4721,,,,,7857 St ,Surrey,BC,V3W 0W6,https://www.bbb.org/ca/bc/surrey/profile/home-improvement/gahlla-renovation-services-ltd-0037-1364776
Gogoani Construction Ltd.,(778) 861-7575,,,,,9416 160 St ,Surrey,BC,V4N 2R6,https://www.bbb.org/ca/bc/surrey/profile/construction/gogoani-construction-ltd-0037-1377087
Experacon Construction,(778) 882-1441,,,,,9825 140 St ,Surrey,BC,V3T 5M1,https://www.bbb.org/ca/bc/surrey/profile/construction-services/experacon-construction-0037-1385141
XMT Construction Ltd.,(604) 329-6561,,,,,8068 120A St ,Delta,BC,V4C 6P6,https://www.bbb.org/ca/bc/delta/profile/home-improvement/xmt-construction-ltd-0037-1255720
Father & Son Renovations And Contracting,(604) 589-4319,,,,,,Surrey,BC,V3T 4H7,https://www.bbb.org/ca/bc/surrey/profile/home-improvement/father-son-renovations-and-contracting-0037-215581
Todds Custom Cabinets & Renovations,(604) 644-5145,,,,,204-6557 121 St ,Surrey,BC,V3W 1E7,https://www.bbb.org/ca/bc/surrey/profile/cabinet-maker/todds-custom-cabinets-renovations-0037-1302599
AHM Construction & Remodelling Ltd,(604) 317-6643,,,,,8110 120A St ,Surrey,BC,V3W 3P3,https://www.bbb.org/ca/bc/surrey/profile/home-improvement/ahm-construction-remodelling-ltd-0037-1369470
Court Construction,(604) 594-1142,,,,,71 12172 84 Ave ,Surrey,BC,V3W 9S9,https://www.bbb.org/ca/bc/surrey/profile/home-improvement/court-construction-0037-215177
Swoham Construction Ltd,(778) 323-2432,,,,,Private Address ,Surrey,BC,V3T 4M4,https://www.bbb.org/ca/bc/surrey/profile/general-contractor/swoham-construction-ltd-0037-2396498
Kevin Gray Quality Restoration Solutions,(604) 828-5896,,,,,235 - 9458 Prince Charles Blvd ,Surrey,BC,V3V 1S6,https://www.bbb.org/ca/bc/surrey/profile/home-improvement/kevin-gray-quality-restoration-solutions-0037-1213052
G N R Contracting,(604) 841-8477,,,,,13522 87 A Ave ,Surrey,BC,V3W 6B6,https://www.bbb.org/ca/bc/surrey/profile/general-contractor/g-n-r-contracting-0037-221999
Encompass Contract & Land Services,(604) 572-5074,,,,,12895 68 Ave ,Surrey,BC,V3W 7M1,https://www.bbb.org/ca/bc/surrey/profile/general-contractor/encompass-contract-land-services-0037-1211158
Buildiko Homes & Construction Ltd.,(604) 729-6260,,,,,201 8433 132 St ,Surrey,BC,V3W 4N8,https://www.bbb.org/ca/bc/surrey/profile/home-renovation/buildiko-homes-construction-ltd-0037-1379032
777 Construction Ltd.,(604) 765-5429,,,,,"7 107 12827 76 Ave, ",Surrey,BC,V3W 2V3,https://www.bbb.org/ca/bc/surrey/profile/construction/777-construction-ltd-0037-2399675
Avis Restoration Services Ltd.,(604) 518-7310,,,,,118 12827 76 Ave ,Surrey,BC,V3W 1E6,https://www.bbb.org/ca/bc/surrey/profile/general-contractor/avis-restoration-services-ltd-0037-1266678
Paratech Integrated Systems Ltd.,(604) 780-6311,,,,,205 12844 78 Ave ,Surrey,BC,V3W 8E7,https://www.bbb.org/ca/bc/surrey/profile/general-contractor/paratech-integrated-systems-ltd-0037-2412403
Future Home Surrey Ltd,(604) 599-6111,(604) 535-2851,,,,112 7750 128 St ,Surrey,BC,V3W 0R6,https://www.bbb.org/ca/bc/surrey/profile/general-contractor/future-home-surrey-ltd-0037-163648
My House Design/Build Team Ltd.,(604) 694-6873,(604) 951-4093,,,,15356 Fraser Hwy ,Surrey,BC,V3R 3P5,https://www.bbb.org/ca/bc/surrey/profile/home-renovation/my-house-designbuild-team-ltd-0037-1236341
Sindhar Construction and Renovation Ltd.,(778) 955-5841,,,,,13836 89 A Ave ,Surrey,BC,V3V 6K9,https://www.bbb.org/ca/bc/surrey/profile/home-improvement/sindhar-construction-and-renovation-ltd-0037-1291444
Karcher Renovations and Handyman Services,(604) 401-1142,,,,,6998 128 St ,Surrey,BC,V3W 4C9,https://www.bbb.org/ca/bc/surrey/profile/general-contractor/karcher-renovations-and-handyman-services-0037-2413511
K. R. M. Enterprises,(604) 574-4064,,,,,5664 149 St ,Surrey,BC,V3S 8W9,https://www.bbb.org/ca/bc/surrey/profile/general-contractor/k-r-m-enterprises-0037-1130026
Royal Craft Homes,(604) 724-0009,,,,,205 12899 80 Ave ,Surrey,BC,V3W 0E6,https://www.bbb.org/ca/bc/surrey/profile/home-builders/royal-craft-homes-0037-1300190
Western Luxury Custom Homes,(778) 772-1313,,,,,13137 62B Ave ,Surrey,BC,V3X 1P4,https://www.bbb.org/ca/bc/surrey/profile/home-builders/western-luxury-custom-homes-0037-1284067
Neat Construction Ltd,(604) 825-4213,,,,,15152 Fraser Hwy ,Surrey,BC,V3R 3P1,https://www.bbb.org/ca/bc/surrey/profile/general-contractor/neat-construction-ltd-0037-1376045
Brahma Renovations and Construction,(604) 783-6447,,,,,8886 Ursus Cr ,Surrey,BC,V3V 6L4,https://www.bbb.org/ca/bc/surrey/profile/home-renovation/brahma-renovations-and-construction-0037-1379472
Shri Guru Nanak Construction Ltd.,(604) 537-7400,,,,,7822 167A Street ,Surrey,BC,V4N 0L9,https://www.bbb.org/ca/bc/surrey/profile/general-contractor/shri-guru-nanak-construction-ltd-0037-1365327
West Villa Developments Ltd.,(604) 710-6003,,,,,13265 92B Avenue ,Surrey,BC,V3V 6N6,https://www.bbb.org/ca/bc/surrey/profile/general-contractor/west-villa-developments-ltd-0037-1365743
Timberline Industries Inc,(604) 599-9151,,,,,7984 123 Street ,Surrey,BC,V3S 4N5,https://www.bbb.org/ca/bc/surrey/profile/general-contractor/timberline-industries-inc-0037-213400
Prestige Worldwide Mechanical Ltd,(604) 455-7510,,,,,9068 160 A St ,Surrey,BC,V4N 3E4,https://www.bbb.org/ca/bc/surrey/profile/plumber/prestige-worldwide-mechanical-ltd-0037-1303142
On Site Contracting,(604) 808-8542,,,,,15455 95 Ave ,Surrey,BC,V3R 9E4,https://www.bbb.org/ca/bc/surrey/profile/general-contractor/on-site-contracting-0037-1200621
ASPS Renovations Ltd.,(604) 839-3889,,,,,12580 60A Ave ,Surrey,BC,V3X 3L7,https://www.bbb.org/ca/bc/surrey/profile/general-contractor/asps-renovations-ltd-0037-1296298
HighGrove Construction Ltd,(604) 318-7235,,,,,9586 153A St ,Surrey,BC,V3R 8J6,https://www.bbb.org/ca/bc/surrey/profile/general-contractor/highgrove-construction-ltd-0037-1372097
Prabh Construction Ltd,(604) 825-4068,,,,,6099 123 St ,Surrey,BC,V3W 1M9,https://www.bbb.org/ca/bc/surrey/profile/custom-home-builder/prabh-construction-ltd-0037-1371993
Big Boss Construction Ltd,(604) 729-6533,,,,,7781 122 St ,Surrey,BC,V3W 3S5,https://www.bbb.org/ca/bc/surrey/profile/general-contractor/big-boss-construction-ltd-0037-1375415
Everwest Construction,(778) 881-4395,,,,,12161 76 Ave ,Surrey,BC,V3W 2T3,https://www.bbb.org/ca/bc/surrey/profile/home-builders/everwest-construction-0037-1383027
Westex Group Development Ltd.,(604) 307-6751,,,,,13446 95 Avenue ,Surrey,BC,V3V 1P5,https://www.bbb.org/ca/bc/surrey/profile/general-contractor/westex-group-development-ltd-0037-1368203
Northwest Drafting & Design Ltd.,(778) 863-2232,,,,,8835 164 St ,Surrey,BC,V4N 1A1,https://www.bbb.org/ca/bc/surrey/profile/home-design/northwest-drafting-design-ltd-0037-1379225
PLR Construction Ltd,(604) 728-6681,,,,,16536 61 Ave ,Surrey,BC,V3S 5V4,https://www.bbb.org/ca/bc/surrey/profile/home-improvement/plr-construction-ltd-0037-1285063
Lark Group of Companies,(604) 576-2935,(604) 576-2936,,,,1500 13737 96 Ave ,Surrey,BC,V3V 0C6,https://www.bbb.org/ca/bc/surrey/profile/real-estate-development/lark-group-of-companies-0037-175793
Pacific Restoration (1994) Ltd,(604) 437-1899,(604) 437-1599,,,,"5881 Beresford Street, ",Vancouver,BC,V6J 1K1,https://www.bbb.org/ca/bc/vancouver/profile/metal-roofing-contractors/pacific-restoration-1994-ltd-0037-1251545
Vancouver Copperworks,(778) 883-4639,,,,,3 2810 Huntington Pl ,Port Coquitlam,BC,V3C 4T3,https://www.bbb.org/ca/bc/port-coquitlam/profile/metal-roofing-contractors/vancouver-copperworks-0037-1371437
Papco Building Supply Ltd.,(604) 456-0799,,,,,6892A Merritt Ave ,Burnaby,BC,V5J 4R6,https://www.bbb.org/ca/bc/burnaby/profile/construction-supplies/papco-building-supply-ltd-0037-1282002
Blue Mount Roofing Ltd.,(604) 782-0490,,,,,,Burnaby,BC,V5A 2B5,https://www.bbb.org/ca/bc/burnaby/profile/roofing-contractors/blue-mount-roofing-ltd-0037-1370003
Golden Phoenix Building Material,(604) 233-4826,,,,,12496 Davenport Dr ,Maple Ridge,BC,V2X 8X2,https://www.bbb.org/ca/bc/maple-ridge/profile/roofing-contractors/golden-phoenix-building-material-0037-1374912
Adanac Roofing & Gutters,(604) 888-1616,,,,,22116 88 Ave ,Langley,BC,V1M 3S8,https://www.bbb.org/ca/bc/langley/profile/roofing-contractors/adanac-roofing-gutters-0037-1230037
21st Century Roofers Ltd.,(778) 298-5810,,,,,20094 Fernridge Cres ,Langley,BC,V2Z 1X4,https://www.bbb.org/ca/bc/langley/profile/roofing-contractors/21st-century-roofers-ltd-0037-114789
Whonnock Roofing Ltd.,(604) 462-7638,,,,,PO Box 335 Stn Del Ctr ,Maple Ridge,BC,V2X 7G2,https://www.bbb.org/ca/bc/maple-ridge/profile/roofing-contractors/whonnock-roofing-ltd-0037-115760
Neo Roofing Solutions,(604) 346-5647,(604) 297-0885,,,,11527 Fraserview St ,Maple Ridge,BC,V2X 4Y8,https://www.bbb.org/ca/bc/maple-ridge/profile/roofing-contractors/neo-roofing-solutions-0037-1248742
OnTop Roofing Ltd.,(604) 812-6536,,,,,PO Box 78099 RPO Northside ,Port Coquitlam,BC,V3B 7H5,https://www.bbb.org/ca/bc/port-coquitlam/profile/roofing-contractors/ontop-roofing-ltd-0037-222875
Taves Roofing Ltd.,(604) 670-7553,(604) 406-8806,(604) 524-6695,(604) 640-2367,(604) 980-1058,14 7228 Winston St ,Burnaby,BC,V5A 2G9,https://www.bbb.org/ca/bc/maple-ridge/profile/roofing-contractors/taves-roofing-ltd-0037-134806
Ridge Meadows Roofing Inc,(604) 377-5401,,,,,21102 117 Ave ,Maple Ridge,BC,V2X 7N8,https://www.bbb.org/ca/bc/maple-ridge/profile/roofing-contractors/ridge-meadows-roofing-inc-0037-1210458
Helios Roofing & Waterproofing Ltd.,(604) 783-6095,,,,,200-5050 Kingsway ,Burnaby,BC,V5H 4H2,https://www.bbb.org/ca/bc/burnaby/profile/roofing-contractors/helios-roofing-waterproofing-ltd-0037-1266214
ApexMaster Roof Systems Ltd.,(604) 536-4057,,,,,111 1785 Martin Dr ,Surrey,BC,V4A 9T5,https://www.bbb.org/ca/bc/surrey/profile/roofing-contractors/apexmaster-roof-systems-ltd-0037-135789
B Cheema Roofing Ltd.,(604) 722-3600,(604) 351-1396,(778) 926-3400,,,2242 168 St ,Surrey,BC,V3S 0B5,https://www.bbb.org/ca/bc/surrey/profile/roofing-contractors/b-cheema-roofing-ltd-0037-1226097
Vlad Construction Corp.,(778) 384-5178,(604) 496-6465,,,,,Coquitlam,BC,V3K 4L6,https://www.bbb.org/ca/bc/coquitlam/profile/building-contractors/vlad-construction-corp-0037-1288325
Coast Mountain Roof Ltd.,(604) 420-1657,(604) 420-1657,(604) 773-0492,,,C130 6286 203 St ,Langley,BC,V3A 5E6,https://www.bbb.org/ca/bc/langley/profile/roofing-contractors/coast-mountain-roof-ltd-0037-1263097
Full Star Roofing & Construction Inc.,(778) 885-0028,(604) 634-2020,(604) 338-3799,,,1805 Edinburgh St ,New Westminster,BC,V3M 2S2,https://www.bbb.org/ca/bc/new-westminster/profile/roofing-contractors/full-star-roofing-construction-inc-0037-1256463
K2 Roofing Ltd.,(604) 317-0004,,,,,911 12 St ,New Westminster,BC,V3M 4K3,https://www.bbb.org/ca/bc/new-westminster/profile/roofing-contractors/k2-roofing-ltd-0037-1248494
Samra Bros Roofing Ltd.,(604) 946-4333,,,,,14309 Magdalen Ave ,White Rock,BC,V4B 2X1,https://www.bbb.org/ca/bc/white-rock/profile/roofing-contractors/samra-bros-roofing-ltd-0037-106542
Moose on A Roof,(604) 349-7941,,,,,"974, 160 Street ",Surrey,BC,V4A 4W5,https://www.bbb.org/ca/bc/surrey/profile/tile-roofing-contractors/moose-on-a-roof-0037-1273202
Red Brick Chimney Services,(778) 668-7636,(604) 777-3060,,,,1840 Routley Ave ,Port Coquitlam,BC,V3C 1A7,https://www.bbb.org/ca/bc/port-coquitlam/profile/chimney-repair/red-brick-chimney-services-0037-1258885
R. Gill Bros. Roofing Ltd.,(604) 825-3346,,,,,1043 Thomas Ave ,Coquitlam,BC,V3K 2K5,https://www.bbb.org/ca/bc/coquitlam/profile/roofing-contractors/r-gill-bros-roofing-ltd-0037-1191283
Interlock Industries (B.C.) Ltd,(888) 766-3661,,,,,9969 River Way ,Delta,BC,V4G 1M8,https://www.bbb.org/ca/bc/delta/profile/roofing-contractors/interlock-industries-bc-ltd-0037-214215
Coquitlam Roofing Contractors,(778) 858-7847,,,,,170C 20465 Douglas Cr ,Langley,BC,V3A 4B6,https://www.bbb.org/ca/bc/langley/profile/roofing-contractors/coquitlam-roofing-contractors-0037-1384669
G & K Roofing Ltd,(604) 526-4217,(604) 526-4218,(604) 720-2620,,,203 7908 15th Ave ,Burnaby,BC,V3N 0G4,https://www.bbb.org/ca/bc/burnaby/profile/roofing-contractors/g-k-roofing-ltd-0037-1229423
Summit Steel Cladding Inc.,(604) 533-4001,,,,,105 5967 206A St ,Langley,BC,V3A 8M1,https://www.bbb.org/ca/bc/langley/profile/metal-roofing-contractors/summit-steel-cladding-inc-0037-199090
Mack Kirk Roofing & Sheet Metal,(604) 258-7121,(604) 258-7122,(778) 389-6458,,,100 1485 Coast Meridian Rd ,Port Coquitlam,BC,V3C 5P1,https://www.bbb.org/ca/bc/port-coquitlam/profile/roofing-contractors/mack-kirk-roofing-sheet-metal-0037-112526
Busy Boys Roofing Ltd.,(604) 418-5500,,,,,3418 164A St ,Surrey,BC,V3Z 0G5,https://www.bbb.org/ca/bc/surrey/profile/metal-roofing-contractors/busy-boys-roofing-ltd-0037-1230140
Pacific Shores Roofing Company Ltd.,(604) 227-1919,(604) 530-1324,,,,,Surrey,BC,V4N 3R1,https://www.bbb.org/ca/bc/surrey/profile/roofing-contractors/pacific-shores-roofing-company-ltd-0037-1232703
Ferro Building Systems Ltd,(604) 530-3224,,,,,301 19292 60th Ave ,Surrey,BC,V3S 3M2,https://www.bbb.org/ca/bc/surrey/profile/building-contractors/ferro-building-systems-ltd-0037-1384934
Penfolds Roofing & Solar,(604) 254-4663,,,,,2230 Hartley Ave ,Coquitlam,BC,V3K 6X3,https://www.bbb.org/ca/bc/coquitlam/profile/roofing-contractors/penfolds-roofing-solar-0037-102515
The Old Roofer,(778) 835-7455,,,,,205 2080 Hartley Ave ,Coquitlam,BC,V3K 6W5,https://www.bbb.org/ca/bc/coquitlam/profile/roofing-contractors/the-old-roofer-0037-1368797
Best Quality Roofing,(604) 716-5325,(604) 848-8503,,,,61B Fawcett Rd ,Coquitlam,BC,V3K 6V2,https://www.bbb.org/ca/bc/coquitlam/profile/roofing-contractors/best-quality-roofing-0037-1198297
BestWest Roofing Inc.,(604) 779-5317,,,,,1 12 Royal Ave E ,New Westminster,BC,V3L 0B7,https://www.bbb.org/ca/bc/new-westminster/profile/roofing-contractors/bestwest-roofing-inc-0037-1198298
Spartan Roofing,(778) 957-7663,(778) 741-9935,(778) 741-0653,,,207 6430 194 St ,Surrey,BC,V4N 6J7,https://www.bbb.org/ca/bc/surrey/profile/roofing-contractors/spartan-roofing-0037-2410768
Aback Roofing,(778) 828-8098,,,,,901 1026 Queens Ave ,New Westminster,BC,V3M 6B2,https://www.bbb.org/ca/bc/new-westminster/profile/roofing-contractors/aback-roofing-0037-1277063
Sierrans Roofing Ltd.,(778) 997-8301,,,,,,Langley,BC,V2Y 3G8,https://www.bbb.org/ca/bc/langley/profile/roofing-contractors/sierrans-roofing-ltd-0037-1257810
JMT Roofing,(604) 960-1363,,,,,326 Wood St ,New Westminster,BC,V3M 1P4,https://www.bbb.org/ca/bc/new-westminster/profile/roofing-contractors/jmt-roofing-0037-1227731
Raven Metapro Systems Inc,(604) 539-9669,(604) 539-9600,,,,103 5769 Production Wy ,Langley,BC,V3A 4N5,https://www.bbb.org/ca/bc/langley/profile/metal-roofing-contractors/raven-metapro-systems-inc-0037-1226223
Harvard Industries Ltd.,(604) 530-1818,,,,,1 19643 96 Ave ,Langley,BC,V1M 3C9,https://www.bbb.org/ca/bc/langley/profile/roofing-contractors/harvard-industries-ltd-0037-121000
T E K Roofing & Sheet Metal Ltd,(604) 685-4652,(604) 473-2522,(604) 299-2522,,,201 - 204 Cayer Street ,Coquitlam,BC,V3K 5B1,https://www.bbb.org/ca/bc/coquitlam/profile/roofing-contractors/t-e-k-roofing-sheet-metal-ltd-0037-200166
Great West Enterprises Ltd.,(778) 578-7018,,,,,206 20641 Logan Ave ,Langley,BC,V3A 7R3,https://www.bbb.org/ca/bc/langley/profile/commercial-roofing/great-west-enterprises-ltd-0037-1262572
In Awe Roofing Ltd.,(604) 255-7663,,,,,20986 77A Ave ,Langley,BC,V2Y 0L8,https://www.bbb.org/ca/bc/langley/profile/roofing-contractors/in-awe-roofing-ltd-0037-1236865
Quantum Roofing,(604) 313-3825,(604) 332-7341,,,,178 1180 Kingsway Ave ,Port Coquitlam,BC,V3C 6N7,https://www.bbb.org/ca/bc/port-coquitlam/profile/roofing-contractors/quantum-roofing-0037-1286271
Totem Roofing & Insulation Ltd.,(604) 460-1322,,,,,11524 195B St ,Pitt Meadows,BC,V3Y 1R2,https://www.bbb.org/ca/bc/pitt-meadows/profile/roofing-contractors/totem-roofing-insulation-ltd-0037-122552
Robinson Roofing and Sheet Metal,(604) 500-7663,,,,,2-1921 Broadway St ,Port Coquitlam,BC,V3C 2N2,https://www.bbb.org/ca/bc/port-coquitlam/profile/roofing-contractors/robinson-roofing-and-sheet-metal-0037-1278175
Altium Building Corp,(604) 560-9554,(604) 574-1233,,,,101 2455 192nd Street ,Surrey,BC,V3Z 3X1,https://www.bbb.org/ca/bc/surrey/profile/metal-roofing-contractors/altium-building-corp-0037-1359693
Langley Roofing Co. Ltd.,(604) 534-8651,(604) 534-8399,,,,3338 200 St ,Langley,BC,V3A 4W3,https://www.bbb.org/ca/bc/langley/profile/roofing-contractors/langley-roofing-co-ltd-0037-110860
Western Pacific Roofing Ltd.,(604) 996-5877,,,,,PO Box 61694 ,Langley,BC,V3A 8C8,https://www.bbb.org/ca/bc/langley/profile/roofing-contractors/western-pacific-roofing-ltd-0037-1251183
German Master Roofing,(778) 840-6214,,,,,4456 209A St. ,Langley,BC,V3A 8Z2,https://www.bbb.org/ca/bc/langley/profile/roofing-contractors/german-master-roofing-0037-1370079
Broadway Roofing Co. Ltd.,(778) 883-4732,,,,,400 7430 Lowland Dr ,Burnaby,BC,V5J 5A4,https://www.bbb.org/ca/bc/burnaby/profile/roofing-contractors/broadway-roofing-co-ltd-0037-123714
Marine Roofing,(604) 433-4322,,,,,4909 Byrne Rd ,Burnaby,BC,V5J 3H6,https://www.bbb.org/ca/bc/burnaby/profile/roofing-contractors/marine-roofing-0037-108137
Roofking,(604) 377-3854,,,,,2826 200 St ,Langley,BC,V2Z 2C1,https://www.bbb.org/ca/bc/langley/profile/roofing-contractors/roofking-0037-1230095
H B Roofing Ltd.,(604) 946-5346,(604) 948-0512,(604) 240-6843,(604) 948-0577,,109 7402 Progress Way ,Delta,BC,V4G 0A1,https://www.bbb.org/ca/bc/delta/profile/roofing-contractors/h-b-roofing-ltd-0037-113358
Ajax Building Products Inc.,(604) 888-4488,(604) 644-5407,,,,18067 92 Ave ,Surrey,BC,V4N 3Y4,https://www.bbb.org/ca/bc/surrey/profile/general-contractor/ajax-building-products-inc-0037-117575
Best Busy Boys Roofing,(604) 599-5611,,,,,15557 112A Ave ,Surrey,BC,V3R 0K5,https://www.bbb.org/ca/bc/surrey/profile/commercial-roofing/best-busy-boys-roofing-0037-1215276
The Glass Guru of North Surrey,(604) 595-3011,,,,,17163 102 Ave ,Surrey,BC,V4N 3L4,https://www.bbb.org/ca/bc/surrey/profile/glass-repair/the-glass-guru-of-north-surrey-0037-1261553
Artisan Glazing Products Inc.,(604) 783-7464,,,,,11118 157A St ,Surrey,BC,V4N 4R3,https://www.bbb.org/ca/bc/surrey/profile/railing/artisan-glazing-products-inc-0037-1285459
Red Roofing Ltd,(778) 706-7143,,,,,6048 133 A St. ,Surrey,BC,V3X 2K3,https://www.bbb.org/ca/bc/surrey/profile/roofing-contractors/red-roofing-ltd-0037-2396527
LFS Roofing Ltd.,(604) 996-0231,,,,,13430 - 91 Ave. ,Surrey,BC,V3V 1E5,https://www.bbb.org/ca/bc/surrey/profile/commercial-roofing/lfs-roofing-ltd-0037-1274507
A1 Top Canadian Roofing Ltd.,(604) 781-2094,,,,,6831 124 St ,Surrey,BC,V3W 3W6,https://www.bbb.org/ca/bc/surrey/profile/roofing-contractors/a1-top-canadian-roofing-ltd-0037-1279485
Erin Roofing&Waterproofing Ltd.,(778) 928-9864,,,,,12356 78 Ave ,Surrey,BC,V3W 2X4,https://www.bbb.org/ca/bc/surrey/profile/commercial-roofing/erin-roofingwaterproofing-ltd-0037-1301577
Elite United renovations,(604) 243-6983,,,,,,Surrey,BC,V3S 8C1,https://www.bbb.org/ca/bc/surrey/profile/general-contractor/elite-united-renovations-0037-2416082
Singh Excavating BC Ltd.,(778) 895-0362,,,,,,Surrey,BC,V3W 7K2,https://www.bbb.org/ca/bc/surrey/profile/excavating-contractors/singh-excavating-bc-ltd-0037-1370169
RJ Plumbing & Heating Ltd.,(778) 991-7251,(778) 999-7800,,,,13896 78th Ave. ,Surrey,BC,V3W 5Z7,https://www.bbb.org/ca/bc/surrey/profile/general-contractor/rj-plumbing-heating-ltd-0037-1226773
Emaan Excavating Ltd,(778) 859-7501,,,,,-- ,Surrey,BC,V3S 9H1,https://www.bbb.org/ca/bc/surrey/profile/excavating-contractors/emaan-excavating-ltd-0037-1379206
Sunview Homes Ltd,(604) 728-3921,,,,,652 - 7360 137 Street ,Surrey,BC,V3W 1A3,https://www.bbb.org/ca/bc/surrey/profile/general-contractor/sunview-homes-ltd-0037-1366161
Baba Homes Ltd.,(604) 807-1313,,,,,Po Box 16514 8776 140 St Bear Creek Postal Outlet,Surrey,BC,V3W 2P5,https://www.bbb.org/ca/bc/surrey/profile/home-builders/baba-homes-ltd-0037-1213427
North Built Construction Ltd,(778) 808-3318,,,,,203 6450 148 St ,Surrey,BC,V3S 7G7,https://www.bbb.org/ca/bc/surrey/profile/general-contractor/north-built-construction-ltd-0037-202467
Jas Construction Ltd.,(604) 209-2722,(604) 503-1223,(604) 503-1223,,,202 15300 68 Ave ,Surrey,BC,V3S 2B9,https://www.bbb.org/ca/bc/surrey/profile/home-builders/jas-construction-ltd-0037-1281703
RNZ Construction & Developments Ltd,(604) 306-0411,,,,,-- ,Surrey,BC,V3W 5Y4,https://www.bbb.org/ca/bc/surrey/profile/home-renovation/rnz-construction-developments-ltd-0037-1376629
Gold Seal Homes Ltd.,(604) 760-0720,,,,,324 150 St ,Surrey,BC,V3S 3J7,https://www.bbb.org/ca/bc/surrey/profile/general-contractor/gold-seal-homes-ltd-0037-1365697
Lovelle Design Centre,(604) 635-3322,(604) 449-7774,,,,109 13569 76 Ave ,Surrey,BC,V3W 2W3,https://www.bbb.org/ca/bc/surrey/profile/kitchen-cabinets-and-equipment/lovelle-design-centre-0037-1249677
NorthRock Custom Home Builders,(604) 626-7100,,,,,16483 78 Ave ,Surrey,BC,V3S 2H7,https://www.bbb.org/ca/bc/surrey/profile/home-builders/northrock-custom-home-builders-0037-1187918
Sierra Projects,(604) 503-0160,,,,,218 6333 148th St ,Surrey,BC,V3S 3C3,https://www.bbb.org/ca/bc/surrey/profile/general-contractor/sierra-projects-0037-1366683
Fab-form Industries Ltd,(604) 596-3278,,,,,212 6333 148 St ,Surrey,BC,V3S 3C3,https://www.bbb.org/ca/bc/delta/profile/concrete-construction-forms/fab-form-industries-ltd-0037-1268417
D Mand Design Drafting Svc,(604) 597-1838,,,,,14658 84 Ave ,Surrey,BC,V3S 9K7,https://www.bbb.org/ca/bc/surrey/profile/general-contractor/d-mand-design-drafting-svc-0037-1355771
Trunorse Construction Ltd.,(778) 847-2361,,,,,15086 87B Ave ,Surrey,BC,V3S 5G7,https://www.bbb.org/ca/bc/surrey/profile/home-renovation/trunorse-construction-ltd-0037-1378267
J C Nolan Contracting,(604) 318-5159,,,,,13548 62 Ave ,Surrey,BC,V3X 2J4,https://www.bbb.org/ca/bc/surrey/profile/general-contractor/j-c-nolan-contracting-0037-213884
Hero Enterprises Co,(604) 377-0270,,,,,14161 88 Ave ,Surrey,BC,V3W 3L5,https://www.bbb.org/ca/bc/surrey/profile/general-contractor/hero-enterprises-co-0037-1376728
Mezetta Homes Ltd.,(604) 720-1407,,,,,Private Address ,Surrey,BC,V4N 0S4,https://www.bbb.org/ca/bc/surrey/profile/general-contractor/mezetta-homes-ltd-0037-1384224
Avaya Homes,(604) 306-2017,,,,,14626 - 58th Ave ,Surrey,BC,V4R 2R9,https://www.bbb.org/ca/bc/surrey/profile/general-contractor/avaya-homes-0037-1301353
Golden Avenue Homes Ltd,(604) 537-6626,,,,,13027 68 Avenue ,Surrey,BC,V3W 2E5,https://www.bbb.org/ca/bc/surrey/profile/general-contractor/golden-avenue-homes-ltd-0037-1371781
Vanity Homes Ltd.,(604) 807-6264,,,,,5809 140A Pl ,Surrey,BC,V3X 2S1,https://www.bbb.org/ca/bc/surrey/profile/general-contractor/vanity-homes-ltd-0037-1368109
Delacon Construction Ltd.,(604) 597-9337,,,,,264 12899 76 Ave ,Surrey,BC,V3W 1E6,https://www.bbb.org/ca/bc/surrey/profile/general-contractor/delacon-construction-ltd-0037-1228478
Symbolic Construction Group,(604) 599-6886,,,,,211 12877 76 Ave ,Surrey,BC,V3W 1E6,https://www.bbb.org/ca/bc/surrey/profile/home-builders/symbolic-construction-group-0037-1277803
B.C.E. Contracting Ltd,(604) 773-3400,,,,,6260 132A St ,Surrey,BC,V3X 2L9,https://www.bbb.org/ca/bc/surrey/profile/general-contractor/bce-contracting-ltd-0037-1260412
Ken's Handyman Services Ltd.,(604) 825-1227,,,,,,Surrey,BC,V3W 5C2,https://www.bbb.org/ca/bc/surrey/profile/handyman/kens-handyman-services-ltd-0037-1371183
Double V Construction Ltd.,(604) 590-3131,(604) 590-6523,,,,406 13303 78 Ave ,Surrey,BC,V3W 5B9,https://www.bbb.org/ca/bc/surrey/profile/general-contractor/double-v-construction-ltd-0037-117749
Rich Gold Contracting Ltd.,(604) 992-8474,,,,,14413 Chartwell Dr. ,Surrey,BC,V3S 5E1,https://www.bbb.org/ca/bc/surrey/profile/home-improvement/rich-gold-contracting-ltd-0037-1277306
Top Quality Construction Ltd.,(604) 786-7240,,,,,13387 80 Avenue ,Surrey,BC,V3W 3B8,https://www.bbb.org/ca/bc/surrey/profile/framing-contractors/top-quality-construction-ltd-0037-1365532
Best Built Homes Inc.,(604) 908-7411,,,,,14519 60 Ave ,Surrey,BC,V3S 1R4,https://www.bbb.org/ca/bc/surrey/profile/home-builders/best-built-homes-inc-0037-1366179
Onyx Contractors Ltd,(604) 596-1501,(604) 590-5142,,,,14745 60 Ave ,Surrey,BC,V3S 1R5,https://www.bbb.org/ca/bc/surrey/profile/general-contractor/onyx-contractors-ltd-0037-185438
Belfor (Canada) Inc,(604) 599-9980,,,,,7677D 132 St ,Surrey,BC,V3W 4M8,https://www.bbb.org/ca/bc/vancouver/profile/fire-water-damage-restoration/belfor-canada-inc-0037-117680
AM Framing,(604) 230-8835,,,,,7874 132 Street ,Surrey,BC,V3W 4N1,https://www.bbb.org/ca/bc/surrey/profile/general-contractor/am-framing-0037-1302861
Xcess Contracting Ltd.,(604) 537-4050,,,,,7038 131 St ,Surrey,BC,V3W 6M9,https://www.bbb.org/ca/bc/surrey/profile/general-contractor/xcess-contracting-ltd-0037-1273735
Uppal Bros. Homes Ltd,(604) 725-3096,,,,,13095 70B Avenue ,Surrey,BC,V3W 5X4,https://www.bbb.org/ca/bc/surrey/profile/general-contractor/uppal-bros-homes-ltd-0037-1365509
Best Standard Construction Ltd,(604) 306-9424,,,,,6370 134 St ,Surrey,BC,V3X 1L4,https://www.bbb.org/ca/bc/surrey/profile/general-contractor/best-standard-construction-ltd-0037-1286272
Royal Touch Homes Ltd,(604) 616-0383,,,,,6376 133 B St ,Surrey,BC,V3X 1L5,https://www.bbb.org/ca/bc/surrey/profile/general-contractor/royal-touch-homes-ltd-0037-2399563
Evris Constructions Ltd.,(604) 329-8757,,,,,15086 87B Ave ,Surrey,BC,V3S 5G7,https://www.bbb.org/ca/bc/surrey/profile/home-additions/evris-constructions-ltd-0037-1206557
Haida Roofing and Drainage,(778) 883-6775,(604) 431-3906,,,,748 Townley St ,Coquitlam,BC, V3J 4N4,https://www.bbb.org/ca/bc/coquitlam/profile/roofing-contractors/haida-roofing-and-drainage-0037-1258964
Centimark,(604) 521-8911,,,,,7680 Winston St ,Burnaby,BC,V5A 2H4,https://www.bbb.org/ca/bc/burnaby/profile/roofing-contractors/centimark-0037-115528
Willowbrook Roofing,(604) 765-5519,,,,,2657 206 St ,Langley,BC,V2Z 2C2,https://www.bbb.org/ca/bc/dewdney/profile/commercial-roofing/willowbrook-roofing-0037-1265046
Caspian Roofing Ltd.,(778) 227-7323,(778) 735-0946,,,,2450 Patricia Ave ,Port Coquitlam,BC,V3B 2H3,https://www.bbb.org/ca/bc/coquitlam/profile/roofing-contractors/caspian-roofing-ltd-0037-2405670
Particular Roof Services,(604) 783-5697,,,,,20928 Cook Ave ,Maple Ridge,BC,V2X 7P5,https://www.bbb.org/ca/bc/maple-ridge/profile/roofing-consultants/particular-roof-services-0037-1224470
Sagebrooke Properties Inc,(604) 360-1100,,,,,Unit 1A 12777 76A Ave ,Surrey,BC,V3W 4Y8,https://www.bbb.org/ca/bc/surrey/profile/general-contractor/sagebrooke-properties-inc-0037-2396501
Prestige Waterfalls,,,,,,101B 7750 128 St ,Surrey,BC,V3R 0R6,https://www.bbb.org/ca/bc/surrey/profile/general-contractor/prestige-waterfalls-0037-1265606
D. Fisher Contracting Ltd,(604) 290-6239,,,,,16242 77 Ave ,Surrey,BC,V4N 0L2,https://www.bbb.org/ca/bc/surrey/profile/general-contractor/d-fisher-contracting-ltd-0037-1186659
Villa Contracting,(604) 754-5550,,,,,397- 15910 Fraser Hwy. ,Surrey,BC,V4N 0X9,https://www.bbb.org/ca/bc/surrey/profile/home-improvement/villa-contracting-0037-1289754
Hiro Kato,(604) 729-4548,,,,,6128 132 St ,Surrey,BC,V3X 1M8,https://www.bbb.org/ca/bc/surrey/profile/general-contractor/hiro-kato-0037-1274512
Jaheny Custom Builders,(604) 576-2399,,,,,15544 59 Av ,Surrey,BC,V3S 4N8,https://www.bbb.org/ca/bc/surrey/profile/home-builders/jaheny-custom-builders-0037-1285909
Marshall Mountain Homes Ltd,(604) 597-5612,,,,,1-13018 84th Avenue ,Surrey,BC,V3W 1L2,https://www.bbb.org/ca/bc/surrey/profile/general-contractor/marshall-mountain-homes-ltd-0037-1370517
Ravi Munday Personal Real Estate Corporation,(604) 724-5369,(604) 591-3114,,,,,Surrey,BC,V3W 1L2,https://www.bbb.org/ca/bc/surrey/profile/general-contractor/ravi-munday-personal-real-estate-corporation-0037-1268725
Diamond Mountain Construction Ltd.,(778) 839-9156,,,,,13576 89 Ave ,Surrey,BC,V3V 8A6,https://www.bbb.org/ca/bc/surrey/profile/general-contractor/diamond-mountain-construction-ltd-0037-1375413
Farid Form Rentals Ltd,(604) 592-2225,,,,,101-13035 84 Ave ,Surrey,BC,V3W 1B3,https://www.bbb.org/ca/bc/surrey/profile/general-contractor/farid-form-rentals-ltd-0037-1286478
M & R Holdings,,,,,,7599 127 St ,Surrey,BC,V3W 0G2,https://www.bbb.org/ca/bc/surrey/profile/general-contractor/m-r-holdings-0037-216220
Prime B Customs Homes Ltd,(778) 688-7292,,,,,119 - 8166 128 Street ,Surrey,BC,V3W 1R1,https://www.bbb.org/ca/bc/surrey/profile/general-contractor/prime-b-customs-homes-ltd-0037-1365556
1049662 B.C. Ltd.,(604) 590-6868,,,,,"206 - 8120, 128 Street ",Surrey,BC,V3W 2P2,https://www.bbb.org/ca/bc/surrey/profile/general-contractor/1049662-bc-ltd-0037-1367488
West Central Building Supplies,(604) 533-3441,,,,,20275 Logan Ave ,Langley,BC,V3A 4L5,https://www.bbb.org/ca/bc/langley/profile/construction-services/west-central-building-supplies-0037-206001
Northwood Roofing Ltd.,(604) 308-4819,,,,,502 20540 Duncan Way ,Langley,BC,V3A 7A3,https://www.bbb.org/ca/bc/langley/profile/roofing-contractors/northwood-roofing-ltd-0037-1159748
Gill Roof Consulting Ltd.,(778) 881-1916,,,,,203 7908 15 Ave ,Burnaby,BC,V3N 0G6,https://www.bbb.org/ca/bc/burnaby/profile/roofing-consultants/gill-roof-consulting-ltd-0037-2421868
ATC Consulting Inc.,(604) 999-8122,,,,,20948 50th Ave ,Langley,BC,V3A 5Y8,https://www.bbb.org/ca/bc/langley/profile/roof-inspection/atc-consulting-inc-0037-1375285
Emerald Inspection & Consulting Services Ltd,(604) 944-8588,(604) 944-8782,(877) 944-8588,,,501A 1952 Kingsway Ave ,Port Coquitlam,BC,V3C 6C2,https://www.bbb.org/ca/bc/port-coquitlam/profile/home-inspection/emerald-inspection-consulting-services-ltd-0037-134902
Claynor Roofing Ltd,(604) 533-5456,(604) 576-8943,(604) 290-6920,,,,Langley,BC,V2Z 1Y1,https://www.bbb.org/ca/bc/langley/profile/roofing-consultants/claynor-roofing-ltd-0037-134838
Thomson Roofing Service,(604) 427-4145,,,,,2382 204A St ,Langley,BC,V2Z 1Z9,https://www.bbb.org/ca/bc/langley/profile/roofing-contractors/thomson-roofing-service-0037-132976
Ultimate Glass Ltd,(604) 363-3009,,,,,22038 122 Ave ,Maple Ridge,BC,V2X 4X4,https://www.bbb.org/ca/bc/maple-ridge/profile/glass-repair/ultimate-glass-ltd-0037-1372432
Mountain West Roofing Inc.,(604) 474-1185,,,,,1342 Glenbrook St. ,Coquitlam,BC,V3E 3G8,https://www.bbb.org/ca/bc/coquitlam/profile/roofing-contractors/mountain-west-roofing-inc-0037-1289811
TMO Contracting Inc.,(604) 901-7663,,,,,300 3665 Kingsway ,Vancouver,BC,V5R 5W2,https://www.bbb.org/ca/bc/vancouver/profile/roofing-contractors/tmo-contracting-inc-0037-1236518
C-Sky Windows Ltd.,(604) 759-2759,,,,,5662 Goring St ,Burnaby,BC,V5B 3A3,https://www.bbb.org/ca/bc/burnaby/profile/windows/c-sky-windows-ltd-0037-1241321
Richmond Aluminum Products,(604) 821-0839,(604) 821-0139,(800) 314-2862,,,2155 1851 Savage Rd ,Richmond,BC,V6V 2R6,https://www.bbb.org/ca/bc/richmond/profile/patio-enclosures/richmond-aluminum-products-0037-191777
GVRD Building Maintenance,(778) 319-3642,,,,,301 3345 Kingsway ,Vancouver,BC,V5R 0A7,https://www.bbb.org/ca/bc/vancouver/profile/property-maintenance/gvrd-building-maintenance-0037-1290239
Canuck Roofing Ltd.,(778) 772-1969,,,,,4310 Norfolk St ,Burnaby,BC,V5G 4J9,https://www.bbb.org/ca/bc/burnaby/profile/roofing-contractors/canuck-roofing-ltd-0037-1258985
Navco Construction Corp,(778) 588-7477,,,,,3049 Sienna Court ,Coquitlam,BC,V3E 3N7,https://www.bbb.org/ca/bc/coquitlam/profile/roofing-contractors/navco-construction-corp-0037-1247173
Haney Builders' Supplies,(604) 463-6206,(604) 463-0644,,,,22740 Dewdney Trunk Rd ,Maple Ridge,BC,V2X 3K2,https://www.bbb.org/ca/bc/maple-ridge/profile/building-materials/haney-builders-supplies-0037-127961
Chateau Conservatories Inc,(604) 433-0979,(604) 433-0974,,,,3955 Myrtle St ,Burnaby,BC,V5C 4G3,https://www.bbb.org/ca/bc/burnaby/profile/skylights/chateau-conservatories-inc-0037-101220
Britannia Conservatory Systems Ltd.,(604) 742-0766,(604) 734-3772,(604) 734-3774,(604) 742-0765,,1545 NE Kent Rd ,Vancouver,BC,V5P 4Y7,https://www.bbb.org/ca/bc/vancouver/profile/skylights/britannia-conservatory-systems-ltd-0037-222040
Sky High Plumbing & Heating Ltd.,(604) 724-0068,,,,,8250 118 St ,Delta,BC,V4C 6H2,https://www.bbb.org/ca/bc/delta/profile/plumbing-and-heating/sky-high-plumbing-heating-ltd-0037-1299485
M J M Homes Ltd,(604) 812-6921,,,,,8460 171A Street ,Surrey,BC,V4N 0A9,https://www.bbb.org/ca/bc/surrey/profile/general-contractor/m-j-m-homes-ltd-0037-1370503
PRP Renovations & Furniture Inc,(604) 505-1771,(604) 270-1902,,,,7059 Barkley Place ,Delta,BC,V4E 1T8,https://www.bbb.org/ca/bc/delta/profile/home-improvement/prp-renovations-furniture-inc-0037-1247850
Spot on Homes Ltd.,(604) 721-9537,,,,,11930 Cottonwood Ave ,Delta,BC,V4E 3J9,https://www.bbb.org/ca/bc/delta/profile/general-contractor/spot-on-homes-ltd-0037-1365027
True North West Developments Inc.,(778) 385-9074,,,,,15837 99A Ave ,Surrey,BC,V4N 2A7,https://www.bbb.org/ca/bc/surrey/profile/general-contractor/true-north-west-developments-inc-0037-1365530
Abdul's Contracting,(778) 320-1785,,,,,7460 116 Street ,Delta,BC,V4C 5T2,https://www.bbb.org/ca/bc/delta/profile/general-contractor/abduls-contracting-0037-1257046
Evolved Construction,(604) 218-3852,,,,,Private Address ,Surrey,BC,V3S 3Z2,https://www.bbb.org/ca/bc/surrey/profile/general-contractor/evolved-construction-0037-1376337
Wonder Marble and Stone Inc,(604) 729-1707,,,,,9565 126 Street ,Surrey,BC,V3V 5C9,https://www.bbb.org/ca/bc/surrey/profile/general-contractor/wonder-marble-and-stone-inc-0037-1365248
Jaycat General Contracting and Maintenance,(604) 379-8281,,,,,129 12233 92 Ave ,Surrey,BC,V3V 5Z3,https://www.bbb.org/ca/bc/surrey/profile/general-contractor/jaycat-general-contracting-and-maintenance-0037-2420553
KLR Building Ltd.,(604) 518-8065,,,,,5615 121A St ,Surrey,BC,V3X 0A4,https://www.bbb.org/ca/bc/surrey/profile/general-contractor/klr-building-ltd-0037-1370490
4-S Consulting Services,(778) 708-1745,,,,,11727 82A Avenue ,Delta,BC,V4C 2E5,https://www.bbb.org/ca/bc/delta/profile/home-builders/4-s-consulting-services-0037-1302633
KSR Contracting,(604) 290-2611,,,,,5934 Briarwood Cr ,Delta,BC,V4E 2X2,https://www.bbb.org/ca/bc/delta/profile/general-contractor/ksr-contracting-0037-1263098
KSA Homes Developer Ltd.,(778) 869-7908,,,,,11764 84 Ave ,Delta,BC,V4C 2M3,https://www.bbb.org/ca/bc/delta/profile/home-builders/ksa-homes-developer-ltd-0037-1371794
O'Neill Conditioning,(604) 328-3591,,,,,11670 82 Ave ,Delta,BC,V4C 2C4,https://www.bbb.org/ca/bc/delta/profile/general-contractor/oneill-conditioning-0037-1260670
Kronos Builders Group Ltd,(604) 649-7158,,,,,12050 90 Avenue ,Surrey,BC,V3V 1B5,https://www.bbb.org/ca/bc/surrey/profile/home-builders/kronos-builders-group-ltd-0037-1371798
Usher Roofing Systems Ltd,(250) 755-4012,,,,,6016 Schooner Way ,Nanaimo,BC,V9V 1G1,https://www.bbb.org/ca/bc/nanaimo/profile/roofing-contractors/usher-roofing-systems-ltd-0047-193122293
Allied Glass & Aluminum Products (2007) Ltd.,(250) 388-5108,,,,,561 David St ,Victoria,BC,V8T 2C7,https://www.bbb.org/ca/bc/victoria/profile/window-glass/allied-glass-aluminum-products-2007-ltd-0047-2203
Vintage Roofing Ltd.,(250) 889-1117,,,,,731 Princess Ave ,Victoria,BC,V8T 1K5,https://www.bbb.org/ca/bc/victoria/profile/roofing-contractors/vintage-roofing-ltd-0047-34745
Van Isle Windows Ltd.,(250) 383-7128,,,,,404 Hillside Ave ,Victoria,BC,V8T 1Y7,https://www.bbb.org/ca/bc/victoria/profile/window-door-installation/van-isle-windows-ltd-0047-978
North Glass & Aluminum,(778) 440-8240,,,,,587 Bay St ,Victoria,BC,V8T 1P5,https://www.bbb.org/ca/bc/victoria/profile/window-glass/north-glass-aluminum-0047-1717944
Mountain View Roofing,(250) 891-4300,,,,,915 Dellwood Rd ,Victoria,BC,V9A 6P2,https://www.bbb.org/ca/bc/victoria/profile/roofing-contractors/mountain-view-roofing-0047-230610413
Proline Roofing & Gutters,(250) 475-1310,(250) 475-1314,,,,1055 Alston St ,Victoria,BC,V9A 3S6,https://www.bbb.org/ca/bc/victoria/profile/roofing-contractors/proline-roofing-gutters-0047-1069202
A&D Glass Co. Ltd.,(250) 383-7141,,,,,818 Johnson St ,Victoria,BC,V8W 1N3,https://www.bbb.org/ca/bc/victoria/profile/window-glass/ad-glass-co-ltd-0047-2171
Thermal King Glass,(250) 478-1286,,,,,250 Island Hwy ,Victoria,BC,V9B 1G2,https://www.bbb.org/ca/bc/victoria/profile/vinyl-windows/thermal-king-glass-0047-594
Deckadence Inc.,(250) 386-0400,(250) 386-0405,,,,"#202, 1492 Admirals Rd ",Victoria,BC,V9A 2R1,https://www.bbb.org/ca/bc/victoria/profile/deck-builder/deckadence-inc-0047-18219
Enerheat Windows / Cornerstone Renovations / Gibson Construction,(250) 382-1224,,,,,2044 Lorne Terr ,Victoria,BC,V8S 2H8,https://www.bbb.org/ca/bc/victoria/profile/window-installation/enerheat-windows-cornerstone-renovations-gibson-construction-0047-578
Mid Island Glass Ltd.,(250) 751-8199,,,,,4386 Boban Dr ,Nanaimo,BC,V9T 6A7,https://www.bbb.org/ca/bc/nanaimo/profile/skylights/mid-island-glass-ltd-0047-38142
Haro Construction,(250) 208-5637,,,,,2077 Longspur Dr ,Victoria,BC,V9B 0E7,https://www.bbb.org/ca/bc/victoria/profile/general-contractor/haro-construction-0047-235958160
Soare Contracting Inc.,(250) 474-7325,,,,,2519 Wentwich Rd ,Victoria,BC,V9B 3N5,https://www.bbb.org/ca/bc/victoria/profile/metal-roofing-contractors/soare-contracting-inc-0047-201013181
Procision Roofing,(250) 532-5780,,,,,2837 Peatt Rd ,Victoria,BC,V9B 3V5,https://www.bbb.org/ca/bc/victoria/profile/roofing-contractors/procision-roofing-0047-212618207
Centra Windows Inc.,(604) 882-5010,(604) 882-3909,(604) 882-7411,(888) 534-3333,(604) 455-2115,865 Van Isle Way ,Victoria,BC,V9B 5R8,https://www.bbb.org/ca/bc/langley/profile/window-installation/centra-windows-inc-0037-114788
A. MacKenzie Roofing,(250) 217-2824,,,,,516 Mount View Ave ,Victoria,BC,V9B 2B1,https://www.bbb.org/ca/bc/victoria/profile/roofing-contractors/a-mackenzie-roofing-0047-90010420
Sun Catchers,(250) 812-6336,,,,,#349 - 800 Kelly Road ,Victoria,BC,V9B 6J9,https://www.bbb.org/ca/bc/victoria/profile/skylights/sun-catchers-0047-1070866
Canadian Roof Doctor,(888) 677-6310,,,,,2984 Lakewood Pl ,Victoria,BC,V9B 6B1,https://www.bbb.org/ca/bc/victoria/profile/roofing-contractors/canadian-roof-doctor-0047-90007906
Dyrda Brothers Construction,(250) 858-3745,,,,,471 Webb Pl ,Victoria,BC,V9C 2E4,https://www.bbb.org/ca/bc/victoria/profile/general-contractor/dyrda-brothers-construction-0047-90009851
Lococo Brothers Roofing,(250) 889-7322,,,,,2030 Gillespie Rd Lower,Sooke,BC,V9Z 0E2,https://www.bbb.org/ca/bc/sooke/profile/roofing-contractors/lococo-brothers-roofing-0047-235971324
Complete Windows,(250) 248-5959,,,,,"#1 - 452 Island Hwy E, PO Box 1298",Parksville,BC,V9P 2H3,https://www.bbb.org/ca/bc/parksville/profile/window-door-installation/complete-windows-0047-211410767
Climax Roofing Inc.,(250) 954-0023,(250) 951-3339,(250) 954-8510,(250) 954-7510,,1198 Industrial Way ,Parksville,BC,V9P 2W8,https://www.bbb.org/ca/bc/parksville/profile/roofing-contractors/climax-roofing-inc-0047-220142426
Sunburst Skylights Manufacturing,(250) 248-8131,,,,,1210 Industrial Way ,Parksville,BC,V9P 2W8,https://www.bbb.org/ca/bc/parksville/profile/skylights/sunburst-skylights-manufacturing-0047-7587
Whistler Glass Ltd.,(604) 932-1132,,,,,1 1314 Alpha Lake Rd ,Whistler,BC,V0N 1B1,https://www.bbb.org/ca/bc/whistler/profile/glass-company/whistler-glass-ltd-0037-1254648
Rees Roofing,(250) 686-1179,,,,,2187 French Rd S ,Sooke,BC,V9Z 0M7,https://www.bbb.org/ca/bc/sooke/profile/roofing-contractors/rees-roofing-0047-90007955
Roof It Roofing (Rooftech Roofing),(250) 240-1053,,,,,5 - 3175 Brooklin Ln ,Qualicum Beach,BC,V9K 1X5,https://www.bbb.org/ca/bc/qualicum-beach/profile/roofing-contractors/roof-it-roofing-rooftech-roofing-0047-90009254
Javen Simon Roofing Ltd.,(250) 735-1188,,,,,2452 15th Ave ,Port Alberni,BC,V9Y 2Z7,https://www.bbb.org/ca/bc/port-alberni/profile/roofing-contractors/javen-simon-roofing-ltd-0047-90004492
Greycor Contracting Limited,(778) 980-1110,,,,,16771 58B Ave ,Surrey,BC,V3S 2K3,https://www.bbb.org/ca/bc/surrey/profile/general-contractor/greycor-contracting-limited-0037-1371803
Mark McGill,(604) 590-2222,,,,,5990 South Park Court ,Surrey,BC,V3X 2B8,https://www.bbb.org/ca/bc/surrey/profile/general-contractor/mark-mcgill-0037-216134
Anderson Home Inspections Ltd.,(604) 317-0134,,,,,8526 Wildwood Pl ,Surrey,BC,V4N 5C5,https://www.bbb.org/ca/bc/surrey/profile/home-inspection/anderson-home-inspections-ltd-0037-1255584
Birgill Homes Ltd,(604) 537-4424,,,,,14041-100A Avenue ,Surrey,BC,V3T 1K4,https://www.bbb.org/ca/bc/surrey/profile/general-contractor/birgill-homes-ltd-0037-1366181
Graywolf Construction Ltd,,,,,,,Surrey,BC,V3R 7H7,https://www.bbb.org/ca/bc/surrey/profile/general-contractor/graywolf-construction-ltd-0037-217635
Gee Gee Contracting Ltd,(604) 599-1494,,,,,7016 Brewster Dr W ,Delta,BC,V4E 1V1,https://www.bbb.org/ca/bc/delta/profile/general-contractor/gee-gee-contracting-ltd-0037-1212383
Ultra Waterworks Ltd,(604) 786-8565,,,,,16782 57th Ave ,Surrey,BC,V3S 2P1,https://www.bbb.org/ca/bc/surrey/profile/general-contractor/ultra-waterworks-ltd-0037-1373303
Clear Creek Management,(778) 891-0072,(604) 913-0551,,,,302 10090 152 St ,Surrey,BC,V3R 8X8,https://www.bbb.org/ca/bc/surrey/profile/general-contractor/clear-creek-management-0037-1228180
Kebeau,(778) 317-7122,(604) 957-2058,,,,10146 141 St ,Surrey,BC,V3T 4P6,https://www.bbb.org/ca/bc/surrey/profile/general-contractor/kebeau-0037-1249560
Ark Edge Homes Ltd.,(778) 882-7304,,,,,17189 83 Ave ,Surrey,BC,V4N 0B2,https://www.bbb.org/ca/bc/surrey/profile/general-contractor/ark-edge-homes-ltd-0037-1365122
Maybach Developments Ltd,(604) 807-6660,,,,,6029 170A Street ,Surrey,BC,V3S 8H1,https://www.bbb.org/ca/bc/surrey/profile/general-contractor/maybach-developments-ltd-0037-1370523
Thiara Properties Ltd,(604) 537-1313,,,,,8692 170 Street ,Surrey,BC,V4N 5K8,https://www.bbb.org/ca/bc/surrey/profile/general-contractor/thiara-properties-ltd-0037-1368188
Urban Villas Ltd,(604) 376-8511,,,,,17055 - 60th Avenue ,Surrey,BC,V3S 1T3,https://www.bbb.org/ca/bc/surrey/profile/general-contractor/urban-villas-ltd-0037-1368202
Teja Home Development Ltd.,(778) 881-6874,,,,,7677 117 St ,Delta,BC,V4C 6A7,https://www.bbb.org/ca/bc/delta/profile/general-contractor/teja-home-development-ltd-0037-1383020
Vancity Finishing Inc.,(604) 369-8653,,,,,7689 122 St ,Surrey,BC,V3W 1J3,https://www.bbb.org/ca/bc/surrey/profile/general-contractor/vancity-finishing-inc-0037-1386211
All Around Home Care,(604) 590-0628,,,,,65 122 St ,Surrey,BC,V3W 4T4,https://www.bbb.org/ca/bc/surrey/profile/general-contractor/all-around-home-care-0037-1229551
Articulate Development Inc,(778) 889-4242,,,,,9414 132A St ,Surrey,BC,V3V 6W4,https://www.bbb.org/ca/bc/surrey/profile/general-contractor/articulate-development-inc-0037-1371836
GNK Construction Ltd.,(604) 725-4442,,,,,12263 64A Ave ,Surrey,BC,V3W 3R8,https://www.bbb.org/ca/bc/surrey/profile/general-contractor/gnk-construction-ltd-0037-2404439
5K Construction Ltd.,(604) 351-3567,(604) 590-2051,,,,16483 87A Ave ,Surrey,BC,V4N 1E7,https://www.bbb.org/ca/bc/surrey/profile/home-builders/5k-construction-ltd-0037-1199145
2010 Custom Homes Inc,(604) 767-0209,,,,,12971 92A Avenue ,Surrey,BC,V3V 1K1,https://www.bbb.org/ca/bc/surrey/profile/home-builders/2010-custom-homes-inc-0037-1371743
Buttar Construction Ltd,(604) 377-3306,,,,,9318 Prince Charles Blvd ,Surrey,BC,V3W 1S6,https://www.bbb.org/ca/bc/surrey/profile/construction/buttar-construction-ltd-0037-2396492
J H Rasmussen,(604) 543-8041,,,,,8930 126 St ,Surrey,BC,V3V 1A8,https://www.bbb.org/ca/bc/surrey/profile/general-contractor/j-h-rasmussen-0037-119238
Jot Renovations Ltd,(604) 724-4827,,,,,124 82 Avenue ,Surrey,BC,V3W 3E5,https://www.bbb.org/ca/bc/surrey/profile/general-contractor/jot-renovations-ltd-0037-1377680
PRO FLO Drainage & Landscape Construction,(604) 369-0039,,,,,441 7184 120 St ,Surrey,BC,V3W 0M6,https://www.bbb.org/ca/bc/surrey/profile/drainage-contractors/pro-flo-drainage-landscape-construction-0037-1156261
Tjikko Restoration & Services Ltd.,(604) 562-2859,,,,,298 7184 120 St ,Surrey,BC,V3W 0N6,https://www.bbb.org/ca/bc/surrey/profile/fire-water-damage-restoration/tjikko-restoration-services-ltd-0037-1385726
PNR Screens Ltd.,(250) 652-4612,,,,,6680 Mirah Rd ,Saanichton,BC,V8M 1Z4,https://www.bbb.org/ca/bc/saanichton/profile/window-installation/pnr-screens-ltd-0047-722
Excalabor Glass & Aluminum,(250) 652-3833,,,,,3 - 2189 Keating X Rd ,Saanichton,BC,V8M 2A5,https://www.bbb.org/ca/bc/saanichton/profile/window-glass/excalabor-glass-aluminum-0047-5170
Big City Glass,(250) 661-5175,,,,,1164 Stellys X Rd ,Brentwood Bay,BC,V8M 1H3,https://www.bbb.org/ca/bc/brentwood-bay/profile/window-door-installation/big-city-glass-0047-171643781
Roof Guys,(250) 893-2765,,,,,46 - 1287 Verdier Ave ,Brentwood Bay,BC,V8M 1H2,https://www.bbb.org/ca/bc/brentwood-bay/profile/roofing-contractors/roof-guys-0047-90005271
Above Roofing,(250) 507-5050,,,,,202 - 2750 Shawnigan Lake Rd ,Shawnigan Lake,BC,V0R 2W5,https://www.bbb.org/ca/bc/shawnigan-lake/profile/roofing-contractors/above-roofing-0047-90008689
Four 12 Roofing,(250) 216-7923,,,,,1670 Tampico Pl ,Victoria,BC,V8N 5H2,https://www.bbb.org/ca/bc/victoria/profile/roofing-contractors/four-12-roofing-0047-205634950
Shoreline Roofing,(250) 413-7967,,,,,1554 Dufour Rd ,Sooke,BC,V9Z 0T6,https://www.bbb.org/ca/bc/sooke/profile/roofing-contractors/shoreline-roofing-0047-193911969
Go-More Roofing,(778) 265-8902,,,,,1145 Roy Rd ,Victoria,BC,V8Z 2X5,https://www.bbb.org/ca/bc/victoria/profile/roofing-contractors/go-more-roofing-0047-235954155
R&D Roofing & Siding Ltd.,(250) 885-1409,,,,,4031 Grange Rd ,Victoria,BC,V8Z 4V4,https://www.bbb.org/ca/bc/victoria/profile/roofing-contractors/rd-roofing-siding-ltd-0047-1075363
West Coast VIP Skylights,(250) 999-5181,,,,,Unit 187- 1581-H Hillside Ave. ,Victoria,BC,V8T 2C1,https://www.bbb.org/ca/bc/victoria/profile/skylights/west-coast-vip-skylights-0047-235957967
ATC Home Solutions Inc.,(250) 714-9566,,,,,2350 Autumnwood Dr ,Nanaimo,BC,V9T 4N7,https://www.bbb.org/ca/bc/nanaimo/profile/roofing-contractors/atc-home-solutions-inc-0047-201253898
Golden Rule Roofing,(250) 597-7853,(250) 508-8260,,,,2674 Capital Hts ,Victoria,BC,V8T 3M2,https://www.bbb.org/ca/bc/duncan/profile/roofing-contractors/golden-rule-roofing-0047-90004795
Kevin The Roofsmith,(250) 418-5677,,,,,217-1063 Foul Bay Rd ,Victoria,BC,V8S 4J3,https://www.bbb.org/ca/bc/victoria/profile/roofing-contractors/kevin-the-roofsmith-0047-235955678
C K Khan Construction,(604) 763-6196,,,,,,Surrey,BC,V3V 7V6,https://www.bbb.org/ca/bc/surrey/profile/general-contractor/c-k-khan-construction-0037-1141610
Metropolitan Construction Ltd,(604) 582-6377,(604) 582-6377,(604) 720-1381,,,15877 95 Ave ,Surrey,BC,V4N 3B9,https://www.bbb.org/ca/bc/surrey/profile/general-contractor/metropolitan-construction-ltd-0037-109483
Affinity Projects Ltd,(604) 781-4467,,,,,102-12047 80 Ave ,Surrey,BC,V3W 1M9,https://www.bbb.org/ca/bc/surrey/profile/general-contractor/affinity-projects-ltd-0037-1302984
Pro Woodwork Ltd,(604) 613-4505,,,,,8411 122 St ,Surrey,BC,V3W 3S8,https://www.bbb.org/ca/bc/surrey/profile/general-contractor/pro-woodwork-ltd-0037-1376109
Red Tree Creative Homes Inc,(778) 241-4526,,,,,5676 125 Street ,Surrey,BC,V3X 0A5,https://www.bbb.org/ca/bc/surrey/profile/general-contractor/red-tree-creative-homes-inc-0037-1365549
Avante Concrete Ltd.,(604) 599-8825,,,,,5155 160 St ,Surrey,BC,V3Z 1G2,https://www.bbb.org/ca/bc/surrey/profile/concrete-contractors/avante-concrete-ltd-0037-121859
Re New Surface Systems,(604) 596-7728,,,,,71053 8115 120 St ,Delta,BC,V4C 8E7,https://www.bbb.org/ca/bc/delta/profile/concrete-contractors/re-new-surface-systems-0037-126369
G & T Construction & Renovation,(604) 543-2472,,,,,12543 91 Ave ,Surrey,BC,V3V 6B4,https://www.bbb.org/ca/bc/surrey/profile/general-contractor/g-t-construction-renovation-0037-1276024
Titania Holdings Inc,(604) 721-2013,,,,,8775 168 Street ,Surrey,BC,V4N 5J4,https://www.bbb.org/ca/bc/surrey/profile/general-contractor/titania-holdings-inc-0037-1365518
Restoration Services,(604) 580-2585,(604) 580-2581,,,,9417 128 St ,Surrey,BC,V3V 5N5,https://www.bbb.org/ca/bc/surrey/profile/general-contractor/restoration-services-0037-1231967
SIA Mechanical Contractors,(604) 837-9607,,,,,13288 89A Ave ,Surrey,BC,V3V 1B3,https://www.bbb.org/ca/bc/surrey/profile/general-contractor/sia-mechanical-contractors-0037-1213263
Amplified Construction Ltd.,(778) 317-3205,,,,,12549 76 A Ave ,Surrey,BC,V3W 7W5,https://www.bbb.org/ca/bc/surrey/profile/building-and-construction/amplified-construction-ltd-0037-1374799
New Age Contracting Ltd,(778) 882-8605,,,,,-- ,Surrey,BC,V3R 7B5,https://www.bbb.org/ca/bc/surrey/profile/general-contractor/new-age-contracting-ltd-0037-1373286
Jasgill Investment & Contracting Ltd,(604) 590-0055,,,,,100 - 8484 128 St ,Surrey,BC,V3W 4G3,https://www.bbb.org/ca/bc/surrey/profile/general-contractor/jasgill-investment-contracting-ltd-0037-1212696
Zahid Ahmad,(778) 892-4433,,,,,12447 72 Avenue ,Surrey,BC,V3W 2M5,https://www.bbb.org/ca/bc/surrey/profile/general-contractor/zahid-ahmad-0037-1367780
Nu Trend Marketing Ltd,(604) 589-2262,(604) 583-2248,,,,15187 93 Ave ,Surrey,BC,V3R 7A7,https://www.bbb.org/ca/bc/surrey/profile/general-contractor/nu-trend-marketing-ltd-0037-184695
A-Tech Concrete Solutions,(604) 679-7434,,,,,-- ,Surrey,BC,V3V 7C1,https://www.bbb.org/ca/bc/surrey/profile/concrete/a-tech-concrete-solutions-0037-1379272
Vancouver Builders Service Ltd,(604) 597-8602,(604) 597-2586,(604) 618-7394,(604) 728-3209,,13345 55 A Ave ,Surrey,BC,V3X 3B5,https://www.bbb.org/ca/bc/surrey/profile/general-contractor/vancouver-builders-service-ltd-0037-111780
One 4 All Construction Ltd,(604) 724-9075,,,,,8745 129 St ,Surrey,BC,V2W 0L1,https://www.bbb.org/ca/bc/surrey/profile/construction-services/one-4-all-construction-ltd-0037-1199744
Steelage Construction Ltd,(604) 418-1515,,,,,13706 93A Ave ,Surrey,BC,V3V 8A9,https://www.bbb.org/ca/bc/surrey/profile/drywall-contractors/steelage-construction-ltd-0037-1369219
Kleen-Flo General Construction,(778) 822-3904,,,,,6043 128 St. ,Surrey,BC,V3X 1P2,https://www.bbb.org/ca/bc/surrey/profile/general-contractor/kleen-flo-general-construction-0037-1376491
Rhea Custom Homes & Developments Ltd.,(604) 773-2105,,,,,12958 58A Avenue ,Surrey,BC,V3X 0C6,https://www.bbb.org/ca/bc/surrey/profile/general-contractor/rhea-custom-homes-developments-ltd-0037-1365548
Arcon Enterprises,(604) 831-4887,,,,,12912 Carluke Cr ,Surrey,BC,V3V 6R4,https://www.bbb.org/ca/bc/surrey/profile/general-contractor/arcon-enterprises-0037-1213213
TM Lucky Pressure Washing Ltd,(604) 715-0381,,,,,8877 Jedburgh Place ,Surrey,BC,V3V 6S1,https://www.bbb.org/ca/bc/surrey/profile/general-contractor/tm-lucky-pressure-washing-ltd-0037-1260246
Smart Woodworking Inc.,(604) 532-0769,,,,,19 12484 82 Ave ,Surrey,BC,V3W 3E9,https://www.bbb.org/ca/bc/surrey/profile/general-contractor/smart-woodworking-inc-0037-135967
Dream Choice Homes Ltd.,(604) 537-8313,,,,,13008 57 Ave ,Surrey,BC,V3X 3X3,https://www.bbb.org/ca/bc/surrey/profile/general-contractor/dream-choice-homes-ltd-0037-1366854
Sodesto Homes Ltd,(604) 767-6732,,,,,,Surrey,BC,V4N 0L9,https://www.bbb.org/ca/bc/surrey/profile/construction/sodesto-homes-ltd-0037-2398059
Clover Contracting Ltd,,,,,,6100 163B St ,Surrey,BC,V3S 3W2,https://www.bbb.org/ca/bc/surrey/profile/general-contractor/clover-contracting-ltd-0037-1279441
AmPco Construction Ltd,(604) 951-5959,,,,,15796 92 Ave ,Surrey,BC,V4N 2X1- 2X1,https://www.bbb.org/ca/bc/surrey/profile/general-contractor/ampco-construction-ltd-0037-1374794
Westlight Homes & Development Ltd,(778) 847-4651,,,,,14176 Colebrook Rd ,Surrey,BC,V3Z 0L2,https://www.bbb.org/ca/bc/surrey/profile/home-builders/westlight-homes-development-ltd-0037-1381139
White Pine Development Inc.,(604) 961-0663,,,,,15785 92 Ave ,Surrey,BC,V4N 3C3,https://www.bbb.org/ca/bc/surrey/profile/general-contractor/white-pine-development-inc-0037-1365249
Hosic Canada Enterprises Ltd.,(778) 990-1715,,,,,6461 124 A St ,Surrey,BC,V3W 5Y1,https://www.bbb.org/ca/bc/surrey/profile/building-and-construction/hosic-canada-enterprises-ltd-0037-2396441
A Grade Homes & Construction Ltd,(604) 996-2286,,,,,7101-123 Street ,Surrey,BC,V3W 3V2,https://www.bbb.org/ca/bc/surrey/profile/general-contractor/a-grade-homes-construction-ltd-0037-1371761
Rexler Homes & Construction Ltd.,(604) 760-9454,,,,,12273 72 Ave ,Surrey,BC,V3W 2M4,https://www.bbb.org/ca/bc/surrey/profile/home-builders/rexler-homes-construction-ltd-0037-1299822
Newlands Western Homes Construction,(604) 518-3882,,,,,6516 124 St ,Surrey,BC,V3W 1P7,https://www.bbb.org/ca/bc/surrey/profile/general-contractor/newlands-western-homes-construction-0037-1365262
Omex Homes Inc.,(778) 961-6100,,,,,Po Box 88558 Newton RPO ,Surrey,BC,V3W 0Z1,https://www.bbb.org/ca/bc/surrey/profile/general-contractor/omex-homes-inc-0037-1385280
Modest Plumbing and Heating Ltd.,(604) 785-3561,,,,,6128 126 St ,Surrey,BC,V3X 1V6,https://www.bbb.org/ca/bc/surrey/profile/plumbing-and-heating/modest-plumbing-and-heating-ltd-0037-2415914
East Rich Homes Ltd.,(778) 881-8596,,,,,Private Address ,Surrey,BC,V3W 2S1,https://www.bbb.org/ca/bc/surrey/profile/home-builders/east-rich-homes-ltd-0037-1302083
I C C Integrated Construction Concepts Ltd,(604) 599-0706,,,,,310-12960 84 Ave ,Surrey,BC,V3W 1K7,https://www.bbb.org/ca/bc/surrey/profile/general-contractor/i-c-c-integrated-construction-concepts-ltd-0037-2411011
Metro Van Construction Ltd,(604) 825-4651,,,,,5694-136 Street ,Surrey,BC,V3X 1J3,https://www.bbb.org/ca/bc/surrey/profile/general-contractor/metro-van-construction-ltd-0037-1364798
Landmark Finishing Ltd,(604) 599-1145,,,,,8928 134A St ,Surrey,BC,V3V 5S7,https://www.bbb.org/ca/bc/surrey/profile/general-contractor/landmark-finishing-ltd-0037-1211080
DGH Developments Ltd,(604) 825-9621,,,,,8961 135A St ,Surrey,BC,V3V 5V2,https://www.bbb.org/ca/bc/surrey/profile/home-builders/dgh-developments-ltd-0037-1375492
Maxcare Contracting Ltd,(604) 505-9324,,,,,16286 80 A Ave ,Surrey,BC,V4N 0J7,https://www.bbb.org/ca/bc/surrey/profile/general-contractor/maxcare-contracting-ltd-0037-1375365
MaxMore Construction And Development Ltd.,(604) 551-2196,,,,,13741 91 Ave ,Surrey,BC,V3V 7X1,https://www.bbb.org/ca/bc/surrey/profile/general-contractor/maxmore-construction-and-development-ltd-0037-2424180
VML Cabido Homes Ltd,(604) 880-6201,,,,,8940 156 St ,Surrey,BC,V3R 4K8,https://www.bbb.org/ca/bc/surrey/profile/general-contractor/vml-cabido-homes-ltd-0037-1375763
Batta Homes,(604) 501-6000,,,,,204 12725 80 Ave ,Surrey,BC,V3W 3A6,https://www.bbb.org/ca/bc/surrey/profile/home-builders/batta-homes-0037-1385874
SDS New Homes Ltd,(604) 543-2454,,,,,7884 126A St ,Surrey,BC,V3W 1M7,https://www.bbb.org/ca/bc/surrey/profile/general-contractor/sds-new-homes-ltd-0037-1365328
Bayview Construction Ltd.,(604) 834-9171,(604) 535-0533,(604) 968-2587,,,13579 56 Ave ,Surrey,BC,V3X 2Z5,https://www.bbb.org/ca/bc/surrey/profile/construction-services/bayview-construction-ltd-0037-1214526
3 Bright Stars Painting Services,(778) 788-6971,,,,,,Surrey,BC,V3W 1P3,https://www.bbb.org/ca/bc/surrey/profile/painting-contractors/3-bright-stars-painting-services-0037-1298366
MBG Buildings Inc.,(604) 574-6600,(604) 574-5601,,,,303 15240 56 Ave ,Surrey,BC,V3S 5K7,https://www.bbb.org/ca/bc/surrey/profile/metal-building/mbg-buildings-inc-0037-1268982
Craftmaster Builders & Developments Inc,(778) 683-1967,,,,,15028 92A Ave ,Surrey,BC,V3R 7A6,https://www.bbb.org/ca/bc/surrey/profile/home-improvement/craftmaster-builders-developments-inc-0037-1300869
MTS Innovation Ltd,(778) 682-3552,,,,,9304 149th st ,Surrey,BC,V3R 7B3,https://www.bbb.org/ca/bc/surrey/profile/general-contractor/mts-innovation-ltd-0037-1373077
Mortise Group of Companies,(778) 552-1661,,,,,207 12639 80 Ave ,Surrey,BC,V3W 3A6,https://www.bbb.org/ca/bc/surrey/profile/home-builders/mortise-group-of-companies-0037-1301953
Komo Roofing and Contracting Services Inc.,(778) 888-0449,,,,,118 1917 W 4 Ave ,Vancouver,BC,V6J 1M7,https://www.bbb.org/ca/bc/vancouver/profile/roofing-contractors/komo-roofing-and-contracting-services-inc-0037-1275991
Simply Skylight Installation Ltd.,(604) 404-5292,,,,,209 2171 W 2 Ave ,Vancouver,BC,V6K 1H7,https://www.bbb.org/ca/bc/vancouver/profile/skylights/simply-skylight-installation-ltd-0037-2418827
Atlas Meridian Glassworks Inc,(604) 984-6639,(604) 984-4639,,,,110 Garden Ave ,North Vancouver,BC,V7P 3H2,https://www.bbb.org/ca/bc/north-vancouver/profile/glazier/atlas-meridian-glassworks-inc-0037-143359
Skylights Only Installations Inc,(604) 968-5256,(604) 685-4518,(604) 688-5483,(604) 926-0095,(604) 985-4522,575 Elstree Pl ,North Vancouver,BC,V7N 2Y2,https://www.bbb.org/ca/bc/north-vancouver/profile/skylights/skylights-only-installations-inc-0037-134846
A. Super Glass Company Ltd.,(604) 737-2255,(604) 737-2243,,,,3417 W Broadway ,Vancouver,BC,V6R 2B4,https://www.bbb.org/ca/bc/vancouver/profile/glass-repair/a-super-glass-company-ltd-0037-105789
Ambleside Roofing,(778) 288-8357,,,,,207 1425 Marine Dr ,West Vancouver,BC,V7P 1B9,https://www.bbb.org/ca/bc/west-vancouver/profile/roofing-contractors/ambleside-roofing-0037-1253017
Britannia Conservatory Systems,(306) 934-2870,,,,,200 100 Park Royal ,West Vancouver,BC,V7T 1A2,https://www.bbb.org/ca/bc/west-vancouver/profile/skylights/britannia-conservatory-systems-0037-1230593
Canadian Skylight Inc,(604) 985-4512,(604) 985-4522,,,,4855 Shirley Ave ,North Vancouver,BC,V7R 3W5,https://www.bbb.org/ca/bc/north-vancouver/profile/skylights/canadian-skylight-inc-0037-1251800
Lindal SunRooms,(604) 926-3711,(604) 926-9253,(800) 454-1484,,,,West Vancouver,BC,V7T 1B8,https://www.bbb.org/ca/bc/west-vancouver/profile/skylights/lindal-sunrooms-0037-132149
Direct Roofing And Waterproofing Ltd.,(778) 552-7663,,,,,30694 Simpson Rd Unit A ,Abbotsford,BC,V2T 6C7,https://www.bbb.org/ca/bc/abbotsford/profile/roofing-contractors/direct-roofing-and-waterproofing-ltd-0037-1269381
Island Glass and Mirror Ltd.,(604) 272-9601,(604) 272-9602,(604) 278-9661,,,110 11120 Hammersmith Gate ,Richmond,BC,V7A 5J1,https://www.bbb.org/ca/bc/richmond/profile/glass-company/island-glass-and-mirror-ltd-0037-113677
4Way Roofing Ltd.,(778) 512-7403,,,,,2060 E 37 Ave ,Vancouver,BC,V5P 1G2,https://www.bbb.org/ca/bc/vancouver/profile/roofing-contractors/4way-roofing-ltd-0037-2416056
Elite Solarium & Patio Inc.,(604) 779-6500,,,,,24891 56 Ave ,Langley,BC,V4W 1G3,https://www.bbb.org/ca/bc/langley/profile/skylights/elite-solarium-patio-inc-0037-1290297
Jake's Roofing,(604) 817-4179,,,,,138 3665 244 St ,Langley,BC,V2Z 1N1,https://www.bbb.org/ca/bc/langley/profile/roofing-contractors/jakes-roofing-0037-1241283
M & B Roofing Ltd.,(778) 862-7305,,,,,11180 Bridgeport Rd. ,Richmond,BC,V6X 1T2,https://www.bbb.org/ca/bc/richmond/profile/roofing-contractors/m-b-roofing-ltd-0037-1377041
Angel Glass,(604) 603-9655,,,,,127 618 E Kent Ave S ,Vancouver,BC,V5X 0B1,https://www.bbb.org/ca/bc/vancouver/profile/window-door-installation/angel-glass-0037-1244131
Kardam Manufacturing,(604) 270-8071,,,,,10611 River Dr ,Richmond,BC,V6X 1Z2,https://www.bbb.org/ca/bc/richmond/profile/skylights/kardam-manufacturing-0037-109854
Wyatt Enterprises Ltd,(604) 818-4126,(604) 607-7488,(604) 667-7055,,,25386 56 Ave ,Langley,BC,V4W 1B3,https://www.bbb.org/ca/bc/langley/profile/home-improvement/wyatt-enterprises-ltd-0037-208137
All Coast Roofing,(778) 229-0250,,,,,3478 Pandara St ,Vancouver,BC,V5K 1W8,https://www.bbb.org/ca/bc/vancouver/profile/roofing-contractors/all-coast-roofing-0037-1383051
Optimum Studios Ltd,(604) 321-8321,,,,,202 8475 Ontario St ,Vancouver,BC,V5X 3E8,https://www.bbb.org/ca/bc/vancouver/profile/construction-services/optimum-studios-ltd-0037-1273696
Regan Roofing Ltd.,(604) 324-1574,(604) 324-4588,,,,105 8838 Heather St ,Vancouver,BC,V6P 3S8,https://www.bbb.org/ca/bc/vancouver/profile/roofing-contractors/regan-roofing-ltd-0037-123571
Affordable Quality Roofing Ltd.,(604) 984-9004,(604) 984-6669,(604) 644-9258,(604) 984-6560,,212 2411 Dollarton Hwy ,North Vancouver,BC,V7H 0A3,https://www.bbb.org/ca/bc/north-vancouver/profile/roofing-contractors/affordable-quality-roofing-ltd-0037-110570
House Warmers Mfg. Ltd.,(604) 986-3102,,,,,101 2433 Dollarton Hwy. ,North Vancouver,BC,V7H 0A1,https://www.bbb.org/ca/bc/north-vancouver/profile/windows/house-warmers-mfg-ltd-0037-114303
Allstar Waterproofing & Restoration Systems Ltd.,(604) 255-1135,(604) 255-4420,,,,100 220 Victoria Dr ,Vancouver,BC,V5L 0C7,https://www.bbb.org/ca/bc/vancouver/profile/waterproofing-contractors/allstar-waterproofing-restoration-systems-ltd-0037-1262632
Allstar Window & Pressure Cleaning Systems,(604) 255-1135,(604) 255-4420,,,,100 220 Victoria Dr ,Vancouver,BC,V5L 0C7,https://www.bbb.org/ca/bc/vancouver/profile/window-cleaning/allstar-window-pressure-cleaning-systems-0037-106986
Sunrise Skylights,(604) 888-5570,(604) 888-5950,,,,,Langley,BC,V1M 2E5,https://www.bbb.org/ca/bc/langley/profile/skylights/sunrise-skylights-0037-199353
Tri-Cities Glass Station LTD,(604) 552-3738,,,,,502 - 20170 Stewart Cres ,Maple Ridge,BC,V2X 0T4,https://www.bbb.org/ca/bc/maple-ridge/profile/glass-company/tri-cities-glass-station-ltd-0037-164848
Velux Group,(604) 468-0060,,,,,2130 550 Sherling Pl ,Port Coquitlam,BC,V3E 3G7,https://www.bbb.org/ca/bc/port-coquitlam/profile/skylights/velux-group-0037-1285322
McMartin Roofing,(604) 592-0130,,,,,21010 44 Ave ,Langley,BC,V3A 5B2,https://www.bbb.org/ca/bc/langley/profile/roofing-contractors/mcmartin-roofing-0037-100234
24 Hour Glass Ltd.,(604) 433-2300,,,,,7111 Randolph Ave ,Burnaby,BC,V5J 4W5,https://www.bbb.org/ca/bc/burnaby/profile/window-repair/24-hour-glass-ltd-0037-160116
Element Comfort Solutions,(604) 360-0353,,,,,2655 Kingsway Ave ,Port Coquitlam,BC,V3C 1T5,https://www.bbb.org/ca/bc/surrey/profile/solar-energy-products/element-comfort-solutions-0037-1263084
PCC- Pacific Coast Contracting,(778) 580-7663,(604) 226-7271,(604) 554-0962,,,2300 2850 Shaughnessy St ,Port Coquitlam,BC,V3C 6K5,https://www.bbb.org/ca/bc/port-coquitlam/profile/general-contractor/pcc-pacific-coast-contracting-0037-1289855
604 Fix Leak,(604) 349-5325,,,,,501 3292 Production Way ,Burnaby,BC,V5A 4R4,https://www.bbb.org/ca/bc/burnaby/profile/leak-detection/604-fix-leak-0037-1272686
Gold Standard Roofing,(770) 688-0487,(604) 588-4155,,,,105 4238 Lozells Ave ,Burnaby,BC,V5A 0C4,https://www.bbb.org/ca/bc/burnaby/profile/roofing-contractors/gold-standard-roofing-0037-222250
Light More Skylights,(604) 942-1559,,,,,3059 York St ,Port Coquitlam,BC,V3B 4A6,https://www.bbb.org/ca/bc/port-coquitlam/profile/skylights/light-more-skylights-0037-110680
Bond Roofing,(604) 375-2100,,,,,6208 Denbigh Ave ,Burnaby,BC,V5H 3R5,https://www.bbb.org/ca/bc/burnaby/profile/roofing-contractors/bond-roofing-0037-1237044
Prism Glass Ltd,(604) 218-0997,,,,,604 1515 Broadway ,Port Coquitlam,BC,V3C 6M2,https://www.bbb.org/ca/bc/port-coquitlam/profile/glazier/prism-glass-ltd-0037-1281103
Spectrum Skyworks,(604) 944-2477,,,,,1455 Spitfire Pl ,Port Coquitlam,BC,V3C 6L4,https://www.bbb.org/ca/bc/port-coquitlam/profile/skylights/spectrum-skyworks-0037-137444
Four Seasons Sunrooms - Tiem Builders Ltd.,(604) 227-4314,,,,,101 1585 Broadway St ,Port Coquitlam,BC,V3C 2M7,https://www.bbb.org/ca/bc/port-coquitlam/profile/sunroom-construction/four-seasons-sunrooms-tiem-builders-ltd-0037-121595
Odyssey Skylights Ltd,(604) 530-6201,,,,,4 20701 Langley Bypass ,Langley,BC,V3A 5E8,https://www.bbb.org/ca/bc/langley/profile/skylights/odyssey-skylights-ltd-0037-106508
Streamline Auto & Window Glass Ltd.,(604) 552-9222,,,,,1170 1971 Broadway St ,Port Coquitlam,BC,V3C 0C9,https://www.bbb.org/ca/bc/port-coquitlam/profile/glass-company/streamline-auto-window-glass-ltd-0037-1249366
Craftsman Glazing and Skylights,(604) 941-5222,(604) 941-0384,,,,1 1865 McLean Ave ,Port Coquitlam,BC,V3C 1N1,https://www.bbb.org/ca/bc/port-coquitlam/profile/skylights/craftsman-glazing-and-skylights-0037-155454
Columbia Manufacturing Co Ltd,(604) 437-3377,(604) 437-4443,,,,4575 Tillicum St ,Burnaby,BC,V5J 3J9,https://www.bbb.org/ca/bc/burnaby/profile/skylights/columbia-manufacturing-co-ltd-0037-215878
Columbia Glazing Systems Inc,(604) 421-6591,,,,,7481 North Fraser Way ,Burnaby,BC,V5J 4Z3,https://www.bbb.org/ca/bc/burnaby/profile/window-door-installation/columbia-glazing-systems-inc-0037-1186572
Vancouver Glass (1990) Ltd.,(604) 253-7707,(604) 253-8448,,,,1706 E Hastings St ,Vancouver,BC,V5L 1S9,https://www.bbb.org/ca/bc/vancouver/profile/windows/vancouver-glass-1990-ltd-0037-127734
Pepe the Handyman,(604) 780-5841,,,,,PO Box 78031 Grandview ,Vancouver,BC,V5L 1W2,https://www.bbb.org/ca/bc/vancouver/profile/gutter-cleaning/pepe-the-handyman-0037-1375930
Xtreme Roofing,(604) 317-1852,(778) 803-1545,,,,25664 Dewdney Trunk Rd ,Maple Ridge,BC,V4R 1Y2,https://www.bbb.org/ca/bc/maple-ridge/profile/roofing-contractors/xtreme-roofing-0037-1273592
Stormrider Roof Repairs,(604) 803-2808,,,,,202-8623 Granville St ,Vancouver,BC,V6P 5A2,https://www.bbb.org/ca/bc/vancouver/profile/roofing-contractors/stormrider-roof-repairs-0037-220117
Heyes Roofing & Installations,(604) 985-8546,(604) 985-3698,,,,357 Lynn Ave ,North Vancouver,BC,V7J 2C4,https://www.bbb.org/ca/bc/north-vancouver/profile/roofing-contractors/heyes-roofing-installations-0037-138351
Absolute Roof Solutions,(604) 263-0334,,,,,1676 W 75 Ave ,Vancouver,BC,V6P 6G2,https://www.bbb.org/ca/bc/vancouver/profile/roofing-contractors/absolute-roof-solutions-0037-1160870
BE Gold Building Maintenance,(778) 938-6738,,,,,400 601 W Broadway St ,Vancouver,BC,V5Z 4C2,https://www.bbb.org/ca/bc/vancouver/profile/property-maintenance/be-gold-building-maintenance-0037-1366678
Kitchen Korner,(604) 856-4134,(604) 856-2975,,,,26929 Fraser Hwy ,Aldergrove,BC,V4W 3E4,https://www.bbb.org/ca/bc/aldergrove/profile/cabinet-maker/kitchen-korner-0037-113495
Dayliter Skylights,(604) 856-4530,,,,,5492 275 St ,Langley,BC,V4W 3X7,https://www.bbb.org/ca/bc/langley/profile/skylights/dayliter-skylights-0037-1265458
Sapphire Glass Inc,(778) 996-0219,,,,,107 422 Richards Street ,Vancouver,BC,V6B 2Z4,https://www.bbb.org/ca/bc/vancouver/profile/glass-company/sapphire-glass-inc-0037-1383820
Nika Roofing Ltd.,(778) 858-7122,(778) 316-7958,,,,1110 27th St ,North Vancouver,BC,V7J 1S2,https://www.bbb.org/ca/bc/north-vancouver/profile/roofing-contractors/nika-roofing-ltd-0037-1285606
Pacific West Exteriors Ltd.,(604) 733-1347,,,,,111 1790 W 10 Ave ,Vancouver,BC,V6J 2A6,https://www.bbb.org/ca/bc/vancouver/profile/roofing-contractors/pacific-west-exteriors-ltd-0037-1282254
Concorde Property Services Ltd.,(604) 880-7583,,,,,211 3030 Lincoln Ave ,Coquitlam,BC,V3B 6B4,https://www.bbb.org/ca/bc/coquitlam/profile/property-maintenance/concorde-property-services-ltd-0037-1285884
Incredible Restorations Ltd.,(604) 639-0990,,,,,29 8980 Fraserwood Crt ,Burnaby,BC,V5J 5H7,https://www.bbb.org/ca/bc/burnaby/profile/fire-water-damage-restoration/incredible-restorations-ltd-0037-170260
Allied Plastic Skylights,(604) 888-4545,(604) 888-8156,,,,19352 94 Ave ,Surrey,BC,V4N 4E4,https://www.bbb.org/ca/bc/surrey/profile/skylights/allied-plastic-skylights-0037-141439
Samra Bros Builders Inc.,(604) 351-7487,(604) 540-6551,(604) 540-6533,,,2126 132A St ,Surrey,BC,V4A 9N1,https://www.bbb.org/ca/bc/surrey/profile/commercial-roofing/samra-bros-builders-inc-0037-1283295
K & W Glass Innovations Ltd.,(604) 319-5813,,,,,4 145 Schoolhouse St ,Coquitlam,BC,V3K 4X8,https://www.bbb.org/ca/bc/coquitlam/profile/skylights/k-w-glass-innovations-ltd-0037-1368735
3E Glass Ltd,(604) 277-2929,(604) 277-8900,,,,1545 Cliveden Ave ,Delta,BC,V3M 6P7,https://www.bbb.org/ca/bc/delta/profile/glass-repair/3e-glass-ltd-0037-1245677
Keron Industries Inc,(604) 531-6664,(604) 531-6664,,,,13885 18 Avenue ,Surrey,BC,V4A 1W6,https://www.bbb.org/ca/bc/surrey/profile/home-improvement/keron-industries-inc-0037-124183
Accountable Roofing Services Ltd.,(604) 762-5300,,,,,19613 46 Ave ,Langley,BC,V3A 3G8,https://www.bbb.org/ca/bc/langley/profile/roofing-contractors/accountable-roofing-services-ltd-0037-1279860
Cerko Consulting Services Ltd,(604) 961-2948,,,,,23 1561 Booth Ave ,Coquitlam,BC,V3K 6Z9,https://www.bbb.org/ca/bc/coquitlam/profile/chimney-repair/cerko-consulting-services-ltd-0037-1224899
Walnut Grove Glass and Aluminum Ltd.,(604) 888-5489,,,,,1 20043 92A Ave ,Langley,BC,V1M 3A5,https://www.bbb.org/ca/bc/langley/profile/window-installation/walnut-grove-glass-and-aluminum-ltd-0037-205428
Aurora Roofing LM,(604) 614-1653,,,,,6 19427 92nd Ave ,Surrey,BC,V4N 4G6,https://www.bbb.org/ca/bc/surrey/profile/roofing-contractors/aurora-roofing-lm-0037-2400845
Blackline Enterprises Inc.,(604) 229-7005,,,,,345 19358 96 Ave ,Surrey,BC,V4N 4C1,https://www.bbb.org/ca/bc/surrey/profile/building-envelope-restoration/blackline-enterprises-inc-0037-1385432
TechPro Roofing Ltd.,(604) 371-2505,,,,,145 19358 96 Ave ,Surrey,BC,V4N 4C1,https://www.bbb.org/ca/bc/surrey/profile/roofing-contractors/techpro-roofing-ltd-0037-1279195
ROTban Ultra Cleaning Corp,(604) 576-5822,,,,,PO Box 3160 STN LCD1 ,Langley,BC,V3A 4R5,https://www.bbb.org/ca/bc/langley/profile/roof-cleaning/rotban-ultra-cleaning-corp-0037-1254905
Monarch Roofing Services,(778) 789-0419,,,,,209-1021 4th Ave ,New Westminster,BC,V3M 1T3,https://www.bbb.org/ca/bc/new-westminster/profile/roofing-contractors/monarch-roofing-services-0037-1299599
G C W Consultants Ltd,(604) 524-4071,,,,,502 11 St ,New Westminster,BC,V3M 4G3,https://www.bbb.org/ca/bc/new-westminster/profile/roofing-consultants/g-c-w-consultants-ltd-0037-163683
Jordan Douglas Exterior Cleaning,(604) 210-6699,,,,,2nd Fl 8661 201 St ,Langley,BC,V2Y 0G9,https://www.bbb.org/ca/bc/langley/profile/exterior-building-cleaning/jordan-douglas-exterior-cleaning-0037-1296659
Tremco Ltd,(604) 520-3801,(604) 520-5966,,,,1127 Derwent Wy ,New Westminster,BC,V3M 5R4,https://www.bbb.org/ca/bc/new-westminster/profile/roofing-consultants/tremco-ltd-0037-120833
BC Roof Inspections,(604) 539-2510,,,,,201 19486 60 Ave ,Surrey,BC,V3S 3S7,https://www.bbb.org/ca/bc/surrey/profile/roof-inspection/bc-roof-inspections-0037-1250322
4ever Finishing & Carpentry,(778) 865-4293,,,,,7185 Hall Rd ,Surrey,BC,V3W 4X5,https://www.bbb.org/ca/bc/surrey/profile/carpenter/4ever-finishing-carpentry-0037-1383770
A2Z While You Were Out Reno's,,,,,,6758 King George Hwy ,Surrey,BC,V3W 4Z5,https://www.bbb.org/ca/bc/surrey/profile/general-contractor/a2z-while-you-were-out-renos-0037-1228756
Secura Custom Homes Ltd.,(604) 761-9268,,,,,13570 79A Avenue ,Surrey,BC,V3W 6S5,https://www.bbb.org/ca/bc/surrey/profile/general-contractor/secura-custom-homes-ltd-0037-1365540
U V V Renovation Company Ltd,(778) 865-5265,,,,,14275 62 Ave ,Surrey,BC,V3X 0B8,https://www.bbb.org/ca/bc/surrey/profile/general-contractor/u-v-v-renovation-company-ltd-0037-2419072
Aquarius Mechanical Services Inc,(604) 597-0699,(604) 597-0697,,,,15417 80a Ave ,Surrey,BC,V3S 7X7,https://www.bbb.org/ca/bc/surrey/profile/general-contractor/aquarius-mechanical-services-inc-0037-1186155
Shine Contracting & Construction Management Inc.,(604) 592-0666,,,,,105 13423 78 Ave ,Surrey,BC,V3W 0A8,https://www.bbb.org/ca/bc/surrey/profile/general-contractor/shine-contracting-construction-management-inc-0037-2414720
EOS Electrical & Renovation Ltd.,(604) 825-2503,,,,,PO Box 88536 RPO Newton ,Surrey,BC,V3W 0X1,https://www.bbb.org/ca/bc/surrey/profile/commercial-electrician/eos-electrical-renovation-ltd-0037-1375354
Gonzaga Management Contracting,(604) 597-7275,,,,,15643 78a Ave ,Surrey,BC,V3S 8H6,https://www.bbb.org/ca/bc/surrey/profile/general-contractor/gonzaga-management-contracting-0037-1187091
Jamie Janda Contracting,(604) 657-8705,,,,,,Surrey,BC,V3S 4R4,https://www.bbb.org/ca/bc/surrey/profile/general-contractor/jamie-janda-contracting-0037-1260158
Summerfield Contracting Ltd.,(778) 895-7786,,,,,209 13308 76 Ave ,Surrey,BC,V3W 2W1,https://www.bbb.org/ca/bc/surrey/profile/home-improvement/summerfield-contracting-ltd-0037-1227057
Galaxy Building Maintenance & Labour Contractor,(604) 807-7020,,,,,202 - 15230 84 Ave ,Surrey,BC,V3S 2N1,https://www.bbb.org/ca/bc/surrey/profile/general-contractor/galaxy-building-maintenance-labour-contractor-0037-1206922
Dubai Homes & Renovations Ltd.,(778) 628-9506,,,,,15433 82 Ave ,Surrey,BC,V3S 2K8,https://www.bbb.org/ca/bc/surrey/profile/home-improvement/dubai-homes-renovations-ltd-0037-2419109
Quick Work Construction Ltd,(604) 727-0015,,,,,13415 67 Ave ,Surrey,BC,V3W 8J8,https://www.bbb.org/ca/bc/surrey/profile/general-contractor/quick-work-construction-ltd-0037-2421891
All Inclusive Home Improvement & Renovation Contracting,(778) 709-2749,,,,,8823 Delcourt Cres ,Delta,BC,V4C 3Z8,https://www.bbb.org/ca/bc/delta/profile/walkin-tubs/all-inclusive-home-improvement-renovation-contracting-0037-1290368
M & M Glass,(604) 588-7227,,,,,109 10439 173 St ,Surrey,BC,V4N 5H3,https://www.bbb.org/ca/bc/surrey/profile/glass-company/m-m-glass-0037-136116
Army Roofing Inc.,(778) 686-7663,,,,,"14084 115 Ave, ",Surrey,BC,V3R 2P6,https://www.bbb.org/ca/bc/surrey/profile/roofing-contractors/army-roofing-inc-0037-1299508
Vinylco Windows Ltd.,(604) 587-5505,(604) 587-5561,,,,10798 Timberland Rd ,Surrey,BC,V3V 3T5,https://www.bbb.org/ca/bc/surrey/profile/windows/vinylco-windows-ltd-0037-1224937
AVS Windows Ltd.,(604) 582-8500,,,,,13070 115 Ave ,Surrey,BC,V3R 2T9,https://www.bbb.org/ca/bc/surrey/profile/windows/avs-windows-ltd-0037-125265
Midas Construction Inc.,(604) 240-8553,,,,,3277 Canterbury Dr ,Surrey,BC,V3S 0J4,https://www.bbb.org/ca/bc/surrey/profile/general-contractor/midas-construction-inc-0037-124699
BC Awning & Railings Inc.,(604) 521-2688,,,,,698 700 Derwent Way ,Delta,BC,V3M 5P8,https://www.bbb.org/ca/bc/delta/profile/railing/bc-awning-railings-inc-0037-1276529
Accurate Glass,(604) 472-1900,,,,,112 9 Burbidge St ,Coquitlam,BC,V3K 7B2,https://www.bbb.org/ca/bc/coquitlam/profile/glass-company/accurate-glass-0037-102083
Barney Ovans Roofing Ltd.,(604) 433-4020,,,,,4792 Neville St ,Burnaby,BC,V5J 2M3,https://www.bbb.org/ca/bc/burnaby/profile/roofing-contractors/barney-ovans-roofing-ltd-0037-115439
RooFix Services Inc.,(604) 444-4342,,,,,11 3051 Underhill Ave ,Burnaby,BC,V5A 3C2,https://www.bbb.org/ca/bc/burnaby/profile/roofing-contractors/roofix-services-inc-0037-222906
Ceron Roofing,(604) 454-9522,,,,,17 7228 Winston St ,Burnaby,BC,V5A 2G9,https://www.bbb.org/ca/bc/burnaby/profile/commercial-roofing/ceron-roofing-0037-1271357
G.C.West Construction Ltd.,(604) 880-8773,,,,,342 Blair Ave ,New Westminster,BC,V3L 4A2,https://www.bbb.org/ca/bc/new-westminster/profile/building-restoration/gcwest-construction-ltd-0037-1272591
Vanderloo Renovations,(604) 521-1567,,,,,111 Durham St ,New Westminster,BC,V3L 4H8,https://www.bbb.org/ca/bc/new-westminster/profile/commercial-roofing/vanderloo-renovations-0037-1269251
DoDo Roofing,(778) 554-0109,,,,,322 Mariner Way ,Coquitlam,BC,V3K 1N6,https://www.bbb.org/ca/bc/coquitlam/profile/roofing-contractors/dodo-roofing-0037-1384632
RenoPro Contractors Inc.,(604) 888-3331,,,,,15 19889 96 Ave ,Langley,BC,V1M 3C7,https://www.bbb.org/ca/bc/langley/profile/asbestos-removal/renopro-contractors-inc-0037-1291673
Raven Roofing Ltd,(604) 531-9619,,,,,18988 34A Ave ,Surrey,BC,V3Z 1A7,https://www.bbb.org/ca/bc/surrey/profile/commercial-roofing/raven-roofing-ltd-0037-1253937
Godard Roof Repair Service Ltd.,(604) 533-5888,,,,,1 19510 55 Ave ,Surrey,BC,V3S 8P7,https://www.bbb.org/ca/bc/surrey/profile/roofing-contractors/godard-roof-repair-service-ltd-0037-146765
Surlang Roofing Ltd.,(604) 533-8322,,,,,6 19585 56 Ave ,Surrey,BC,V3S 6K3,https://www.bbb.org/ca/bc/surrey/profile/roofing-contractors/surlang-roofing-ltd-0037-137532
G.K. Property Solutions Inc.,(778) 874-1146,,,,,19831 82 Ave ,Langley,BC,V2Y 1Y7,https://www.bbb.org/ca/bc/langley/profile/property-maintenance/gk-property-solutions-inc-0037-1290078
Ninja Roofing Ltd.,(778) 773-2716,,,,,1304 Ewen Ave ,New Westminster,BC,V3M 5E7,https://www.bbb.org/ca/bc/new-westminster/profile/roofing-contractors/ninja-roofing-ltd-0037-1258467
Harvey Roofing,(778) 554-0722,(778) 872-9051,,,,19761 56th Ave ,Langley,BC,V3A 3X8,https://www.bbb.org/ca/bc/langley/profile/commercial-roofing/harvey-roofing-0037-1286253
Manhire Sheet Metal & Cladding Ltd.,(778) 302-1772,,,,,,Surrey,BC,V3Z 9V2,https://www.bbb.org/ca/bc/surrey/profile/roofing-contractors/manhire-sheet-metal-cladding-ltd-0037-2397992
LeakStop,(778) 650-2760,,,,,137 720 6 St ,New Westminster,BC,V3L 3C5,https://www.bbb.org/ca/bc/new-westminster/profile/roofing-contractors/leakstop-0037-2424529
Cascade Roofing & Exteriors Inc.,(604) 792-9600,,,,,7968 Venture Pl ,Chilliwack,BC,V2R 0K2,https://www.bbb.org/ca/bc/chilliwack/profile/roofing-contractors/cascade-roofing-exteriors-inc-0037-1243180
Fraser Valley Roofing Ltd.,(604) 795-6620,,,,,44687 Chalmer Pl ,Chilliwack,BC,V2R 0H8,https://www.bbb.org/ca/bc/chilliwack/profile/roofing-contractors/fraser-valley-roofing-ltd-0037-1211715
M J D Glass Installations,(604) 625-7718,,,,,45787 Yale Rd ,Chilliwack,BC,V2P 2N5,https://www.bbb.org/ca/bc/chilliwack/profile/windows/m-j-d-glass-installations-0037-178103
Unger Window and Door Ltd.,(604) 792-7877,,,,,8753 Young Rd ,Chilliwack,BC,V2P 4P3,https://www.bbb.org/ca/bc/chilliwack/profile/windows/unger-window-and-door-ltd-0037-1249458
Precise Roofing,(604) 855-2857,,,,,46014 Clarke Dr ,Chilliwack,BC,V2P 3N6,https://www.bbb.org/ca/bc/chilliwack/profile/roofing-contractors/precise-roofing-0037-1268845
JDM Roofing,(604) 392-2910,(604) 787-4016,(888) 594-2910,,,P.O. Box 104 Station Main ,Chilliwack,BC,V2P 6H7,https://www.bbb.org/ca/bc/chilliwack/profile/roofing-contractors/jdm-roofing-0037-1298331
Menor Brothers Contracting Inc.,(778) 676-0907,,,,,9971 7th St ,Sidney,BC,V8L 2V9,https://www.bbb.org/ca/bc/sidney/profile/roofing-contractors/menor-brothers-contracting-inc-0047-90009920
Parker Johnston Group of Companies,(250) 652-1818,(250) 544-1862,,,,Unit B-10045 McDonald Park Rd ,Sidney,BC,V8L 5Y2,https://www.bbb.org/ca/bc/sidney/profile/roofing-contractors/parker-johnston-group-of-companies-0047-149
Lorenz Developments Ltd.,(604) 892-7652,(778) 378-7652,,,,1048 Jay Cr ,Squamish,BC,V8B 0P3,https://www.bbb.org/ca/bc/squamish/profile/general-contractor/lorenz-developments-ltd-0037-1252661
Donnelly Skylights,(250) 924-8828,,,,,4447 Yellow Point Rd ,Ladysmith,BC,V9G 1G5,https://www.bbb.org/ca/bc/ladysmith/profile/skylights/donnelly-skylights-0047-16311
Clear Choice Contracting,(250) 857-2878,,,,,4601 Lincolnshire Pl ,Cowichan Bay,BC,V0R 1N2,https://www.bbb.org/ca/bc/cowichan-bay/profile/vinyl-windows/clear-choice-contracting-0047-235955206
ADND Contracting,(604) 991-2633,,,,,Box 377 50977 Yale Rd E ,Rosedale,BC,V0X 1X0,https://www.bbb.org/ca/bc/rosedale/profile/metal-roofing-contractors/adnd-contracting-0037-1296835
Capax Roofing & Contracting,(250) 893-8391,,,,,1217 Braithwaite Dr ,Cobble Hill,BC,V0R 1L4,https://www.bbb.org/ca/bc/cobble-hill/profile/roofing-contractors/capax-roofing-contracting-0047-235955202
Parker Glass Ltd.,(250) 652-1174,(250) 652-1190,,,,6 - 6782 Veyaness Rd ,Saanichton,BC,V8M 2A7,https://www.bbb.org/ca/bc/saanichton/profile/window-glass/parker-glass-ltd-0047-28474
Proper Roofing Ltd.,(778) 554-8350,,,,,,Coquitlam,BC,V3K 3H5,https://www.bbb.org/ca/bc/coquitlam/profile/roofing-contractors/proper-roofing-ltd-0037-2419231
Tyrrell Projects Inc,(778) 928-5894,,,,,4420 202 Street ,Langley,BC,V3A 6K2,https://www.bbb.org/ca/bc/langley/profile/general-contractor/tyrrell-projects-inc-0037-1273706
Gentry Exteriors Inc.,(604) 533-7662,,,,,19935 38A Ave ,Langley,BC,V3A 2B1,https://www.bbb.org/ca/bc/langley/profile/general-contractor/gentry-exteriors-inc-0037-1263964
Rainmaster Roofing Ltd,(604) 518-4530,,,,,7276 209A St ,Langley,BC,V2Y 2E4,https://www.bbb.org/ca/bc/langley/profile/roofing-contractors/rainmaster-roofing-ltd-0037-1261646
Design Roofing & Sheet Metal Ltd,(604) 944-2977,(604) 944-2916,,,,1385 Kingsway Ave ,Port Coquitlam,BC,V3C 1S2,https://www.bbb.org/ca/bc/port-coquitlam/profile/roofing-contractors/design-roofing-sheet-metal-ltd-0037-124563
Campbell & Grill Ltd,(604) 431-9505,(604) 431-9518,,,,10 7315 Meadow Ave ,Burnaby,BC,V5J 4Z2,https://www.bbb.org/ca/bc/burnaby/profile/commercial-roofing/campbell-grill-ltd-0037-106358
Up & Up Roofing Ltd.,(604) 721-9875,,,,,3980 Carrigan Ct ,Burnaby,BC,V3N 4S6,https://www.bbb.org/ca/bc/burnaby/profile/roofing-contractors/up-up-roofing-ltd-0037-1274713
Continental Roofing,(604) 946-3011,(604) 270-1638,,,,7464 Hume Avenue ,Delta,BC,V4G 1C5,https://www.bbb.org/ca/bc/delta/profile/commercial-roofing/continental-roofing-0037-137724
CTS Roofing,(778) 987-0949,,,,,2562 200 St ,Langley,BC,V2Z 1X1,https://www.bbb.org/ca/bc/langley/profile/roofing-contractors/cts-roofing-0037-1291516
Lam Metal Contracting Ltd,(604) 430-3233,(604) 430-2028,,,,6962 Buller Ave ,Burnaby,BC,V5J 4S3,https://www.bbb.org/ca/bc/burnaby/profile/commercial-roofing/lam-metal-contracting-ltd-0037-126241
Overall Roofing,(604) 532-0468,,,,,2074 200st ,Langley,BC,V2Z 1W8,https://www.bbb.org/ca/bc/langley/profile/commercial-roofing/overall-roofing-0037-1261541
UpRise Home Improvements,(604) 777-5157,,,,,226 Churchill Ave ,New Westminster,BC,V3L 4N8,https://www.bbb.org/ca/bc/new-westminster/profile/home-improvement/uprise-home-improvements-0037-2417266
Bestco Roofing Ltd.,(604) 727-4806,,,,,434 Lakeview St ,Coquitlam,BC,V3K 5K8,https://www.bbb.org/ca/bc/coquitlam/profile/roofing-contractors/bestco-roofing-ltd-0037-1227555
Travco R V Service Centre Ltd.,(604) 430-1551,(604) 430-9522,,,,7020 Curragh Ave ,Burnaby,BC,V5J 4V9,https://www.bbb.org/ca/bc/burnaby/profile/rv-repair/travco-r-v-service-centre-ltd-0037-108052
Tony's Roofing,(604) 939-1419,(604) 939-1419,,,,842 Catherine Ave ,Coquitlam,BC,V3J 4L7,https://www.bbb.org/ca/bc/coquitlam/profile/roofing-contractors/tonys-roofing-0037-102032
J. Taylor & Associates Ltd.,(604) 503-4161,(604) 503-4160,,,,100 7164 120 St ,Surrey,BC,V3W 3M8,https://www.bbb.org/ca/bc/surrey/profile/building-construction-consultants/j-taylor-associates-ltd-0037-1195535
A-Top Class Roofing Ltd.,(604) 723-4470,,,,,11484 83 A Ave ,Delta,BC,V4C 2J6,https://www.bbb.org/ca/bc/delta/profile/roofing-contractors/a-top-class-roofing-ltd-0037-1250704
Don Cameron Roofing Ltd.,(604) 581-2373,,,,,13025 111 Ave. ,Surrey,BC,V3T 2R8,https://www.bbb.org/ca/bc/surrey/profile/commercial-roofing/don-cameron-roofing-ltd-0037-1257814
North Side Roofing&Moss Removal,(778) 863-7774,,,,,12588 110 Ave ,Surrey,BC,V3V 3J8,https://www.bbb.org/ca/bc/surrey/profile/commercial-roofing/north-side-roofingmoss-removal-0037-1263732
Global DEC-K-ING Systems,(778) 571-3000,,,,,5250 185A St ,Surrey,BC,V3S 7A4,https://www.bbb.org/ca/bc/surrey/profile/patio-enclosures/global-dec-k-ing-systems-0037-101405
Hazelmere Roofing,(604) 808-1655,,,,,2943 Woodcrest Pl ,Surrey,BC,V4P 2K8,https://www.bbb.org/ca/bc/surrey/profile/roofing-contractors/hazelmere-roofing-0037-214613
All Round Home Improvements and Restorations Ltd.,(604) 581-9887,,,,,,Surrey,BC,V4N 3M7,https://www.bbb.org/ca/bc/surrey/profile/framing-contractors/all-round-home-improvements-and-restorations-ltd-0037-1258704
Evergreen Roofing,(778) 990-4555,,,,,6381 167 St ,Surrey,BC,V3S 0W5,https://www.bbb.org/ca/bc/surrey/profile/commercial-roofing/evergreen-roofing-0037-1287068
Atwal's Enterprises Ltd.,(604) 805-7198,,,,,12475 55 Ave. ,Surrey,BC,V3X 3S9,https://www.bbb.org/ca/bc/surrey/profile/commercial-roofing/atwals-enterprises-ltd-0037-1273692
B Prince Roofing Ltd.,(604) 825-2759,,,,,12748 96A Ave ,Surrey,BC,V3V 2B4,https://www.bbb.org/ca/bc/surrey/profile/roofing-contractors/b-prince-roofing-ltd-0037-1224846
A Best Pro Roofing Ltd.,(604) 808-3657,,,,,12758 97 Ave. ,Surrey,BC,V3V 2E9,https://www.bbb.org/ca/bc/surrey/profile/commercial-roofing/a-best-pro-roofing-ltd-0037-1274095
H & D Roofing Ltd,(604) 825-4502,,,,,12391 82 Ave ,Surrey,BC,V3W 3E5,https://www.bbb.org/ca/bc/surrey/profile/roofing-contractors/h-d-roofing-ltd-0037-1228108
Paradise Roofing Ltd.,(604) 307-6751,,,,,13446 95 Ave ,Surrey,BC,V3V 1P5,https://www.bbb.org/ca/bc/surrey/profile/roofing-contractors/paradise-roofing-ltd-0037-1202907
Maple Roofing Ltd.,(604) 721-8153,,,,,12875 93 Ave ,Surrey,BC,V3V 6B6,https://www.bbb.org/ca/bc/surrey/profile/roofing-contractors/maple-roofing-ltd-0037-1274891
MK Roofing Ltd.,(604) 512-5167,,,,,9544 125 St ,Surrey,BC,V3V 4X7,https://www.bbb.org/ca/bc/surrey/profile/roofing-contractors/mk-roofing-ltd-0037-1233921
Technic Roofing Ltd.,(604) 338-9035,,,,,9769 126 St ,Surrey,BC,V3V 5E3,https://www.bbb.org/ca/bc/surrey/profile/roofing-contractors/technic-roofing-ltd-0037-1230959
AG Woodward Roofing & Drainage,(604) 327-2908,,,,,7941 Willard St ,Burnaby,BC,V3N 2W8,https://www.bbb.org/ca/bc/burnaby/profile/roofing-contractors/ag-woodward-roofing-drainage-0037-106840
Libra Envelope,(604) 528-1133,,,,,10 1740 Broadway St ,Port Coquitlam,BC,V3C 2M8,https://www.bbb.org/ca/bc/port-coquitlam/profile/waterproofing-contractors/libra-envelope-0037-1258018
Choice Roofing Ltd.,(604) 807-7312,(604) 200-2851,,,,505 Kelly St ,New Westminster,BC,V3L 3V1,https://www.bbb.org/ca/bc/new-westminster/profile/roofing-contractors/choice-roofing-ltd-0037-1225601
Happy Five Star Tiles Ltd.,(604) 716-6400,,,,,15936 107 Ave. ,Surrey,BC,V4N 3J1,https://www.bbb.org/ca/bc/surrey/profile/ceramic-tile-contractors/happy-five-star-tiles-ltd-0037-1291132
Signature Gutters,(604) 561-0000,(604) 575-7634,,,,6834 Morgan Pl ,Surrey,BC,V3S 5M9,https://www.bbb.org/ca/bc/surrey/profile/gutters/signature-gutters-0037-1246537
Star House Pressure Washing Ltd.,(604) 861-6060,,,,,9021 134 St ,Surrey,BC,V3V 6T7,https://www.bbb.org/ca/bc/surrey/profile/pressure-washing/star-house-pressure-washing-ltd-0037-1289030
Homeservicecenter.ca,(604) 210-6699,,,,,,Surrey,BC,V4N 2Z4,https://www.bbb.org/ca/bc/surrey/profile/cleaning-services/homeservicecenterca-0037-1253108
Home Star Siding,(604) 657-8364,,,,,9489 151A Street ,Surrey,BC,V3R 4E3,https://www.bbb.org/ca/bc/surrey/profile/siding-material/home-star-siding-0037-1280831
Baruch Power Cleaning,(778) 554-4174,,,,,,Surrey,BC,V3T 5M1,https://www.bbb.org/ca/bc/surrey/profile/window-cleaning/baruch-power-cleaning-0037-1283929
M K Gutters,(604) 551-8352,,,,,9663 133A St ,Surrey,BC,V3T 3Z7,https://www.bbb.org/ca/bc/surrey/profile/gutters/m-k-gutters-0037-1207898
Lyonridge Property Services,(604) 368-1418,(778) 772-5432,,,,,Surrey,BC,V3T 5W2,https://www.bbb.org/ca/bc/surrey/profile/pressure-washing/lyonridge-property-services-0037-1376396
Spruce UP with US,(604) 341-9087,,,,,16323 95 Ave ,Surrey,BC,V4N 3C5,https://www.bbb.org/ca/bc/surrey/profile/exterior-building-cleaning/spruce-up-with-us-0037-1286259
Twice As Nice Home Services,(604) 532-5321,,,,,5882 169A St ,Surrey,BC,V3S 6Z8,https://www.bbb.org/ca/bc/surrey/profile/window-cleaning/twice-as-nice-home-services-0037-1154723
Surrey Gutter Pros,(604) 670-5588,,,,,5882 169A St ,Langley,BC,V3A 6Z8,https://www.bbb.org/ca/bc/langley/profile/gutter-contractor/surrey-gutter-pros-0037-1295730
Integrity Maintenance,(778) 997-5163,,,,,104 13858 102 Ave ,Surrey,BC,V3T 1P1,https://www.bbb.org/ca/bc/surrey/profile/property-maintenance/integrity-maintenance-0037-1293279
Abba Chimney & Gutters,(604) 589-2125,,,,,10276 145A St ,Surrey,BC,V3R 6A6,https://www.bbb.org/ca/bc/surrey/profile/gutters/abba-chimney-gutters-0037-1276077
Campos Roofing Ltd.,(778) 322-1971,,,,,10340 155A St ,Surrey,BC,V3R 4K5,https://www.bbb.org/ca/bc/surrey/profile/roofing-contractors/campos-roofing-ltd-0037-1285617
Pacific Maintenance Service,(604) 671-3502,(604) 930-2646,(604) 531-2444,,,11447 81 A Ave ,Delta,BC,V4C 2A7,https://www.bbb.org/ca/bc/delta/profile/cleaning-systems/pacific-maintenance-service-0037-110526
A-1 Gutters LTD.,(604) 724-5493,,,,,12236 - 96A AVENUE ,Surrey,BC,V3V 7C3,https://www.bbb.org/ca/bc/surrey/profile/gutter-contractor/a-1-gutters-ltd-0037-2412095
High Level Exterior Services,(604) 318-4768,,,,,9316 172 St ,Surrey,BC,V4N 6H5,https://www.bbb.org/ca/bc/surrey/profile/exterior-building-cleaning/high-level-exterior-services-0037-2398329
Advantage Siding,(778) 883-8024,,,,,8506 113 B St ,Delta,BC,V4C 5G4,https://www.bbb.org/ca/bc/delta/profile/siding-material/advantage-siding-0037-1225187
Hall Home Services,(604) 644-5448,,,,,--- ,Delta,BC,V4C 2B7,https://www.bbb.org/ca/bc/richmond/profile/pressure-washing/hall-home-services-0037-1378899
Canamex Industries,(604) 589-1966,,,,,10965 Lark Pl ,Surrey,BC,V3R 4W1,https://www.bbb.org/ca/bc/surrey/profile/gutters/canamex-industries-0037-106920
TWE The Work Exchange (Bond Restorations) Ltd.,(604) 588-5555,,,,,13809 Grosvenor Rd ,Surrey,BC,V3R 5E5,https://www.bbb.org/ca/bc/surrey/profile/home-improvement/twe-the-work-exchange-bond-restorations-ltd-0037-111490
Fair and Square Millwork Ltd,(778) 564-4014,,,,,-- ,Surrey,BC,V3W 0Y8- 0Y8,https://www.bbb.org/ca/bc/surrey/profile/cabinets/fair-and-square-millwork-ltd-0037-1376718
J Singh Construction,(778) 994-4111,,,,,12205 66 Avenue ,Surrey,BC,V3W 2A3,https://www.bbb.org/ca/bc/surrey/profile/framing-contractors/j-singh-construction-0037-1375876
Home Depot,(770) 433-8211,(770) 384-5038,(800) 553-3199,(770) 888-8135,(770) 476-4460,7350 120 St ,Surrey,BC,V3W 3M9,https://www.bbb.org/us/ga/atlanta/profile/building-materials/the-home-depot-0443-4588
CWS Construction and Renovation,(604) 837-7879,,,,,9058 162a St ,Surrey,BC,V4N 3L6,https://www.bbb.org/ca/bc/surrey/profile/home-improvement/cws-construction-and-renovation-0037-2401788
Jaap Painting Ltd,(604) 442-4634,,,,,10 12128 68 Ave ,Surrey,BC,V3W 1M3,https://www.bbb.org/ca/bc/surrey/profile/painting-contractors/jaap-painting-ltd-0037-2400964
Bedi Construction Ltd,(306) 216-8020,,,,,Private Address ,Surrey,BC,V3W 0H8,https://www.bbb.org/ca/bc/surrey/profile/building-and-construction/bedi-construction-ltd-0037-2396472
Best Choice Kitchen Cabinets,(604) 591-2214,,,,,6 8528 123 St ,Surrey,BC,V3W 3V6,https://www.bbb.org/ca/bc/surrey/profile/cabinets/best-choice-kitchen-cabinets-0037-1276700
Optimum Solution Design Build Ltd,(778) 571-2602,,,,,16692 85 A Ave ,Surrey,BC,V4N 5A7,https://www.bbb.org/ca/bc/surrey/profile/home-improvement/optimum-solution-design-build-ltd-0037-1243197
Northwest Electrical Solutions,(604) 630-5800,,,,,496 - 7184 120th St ,Surrey,BC,V3W 0M6,https://www.bbb.org/ca/bc/surrey/profile/wholesale-electric-supplies/northwest-electrical-solutions-0037-1353649
Optimus Security Systems Ltd.,(778) 384-2459,,,,,Private Address ,Surrey,BC,V3W 0P6,https://www.bbb.org/ca/bc/surrey/profile/security-systems/optimus-security-systems-ltd-0037-1374471
JD Insulation Ltd,(778) 991-3600,,,,,6238 126B St ,Surrey,BC,V3X 3N2,https://www.bbb.org/ca/bc/surrey/profile/insulation-contractors/jd-insulation-ltd-0037-1375914
Sandal Home Renovations Ltd,(604) 725-6270,,,,,10823 129 St. ,Surrey,BC,V3W 3K5,https://www.bbb.org/ca/bc/surrey/profile/home-improvement/sandal-home-renovations-ltd-0037-1282590
Tom Rick Renovations,(604) 589-1534,,,,,15434 93a Ave ,Surrey,BC,V3R 9P8,https://www.bbb.org/ca/bc/surrey/profile/home-improvement/tom-rick-renovations-0037-1188712
Reno West Construction,(604) 727-3399,,,,,12736 61 Ave ,Surrey,BC,V3X 3M6,https://www.bbb.org/ca/bc/surrey/profile/home-improvement/reno-west-construction-0037-1268889
Merit Homes,(604) 716-4444,,,,,13028 57 Ave ,Surrey,BC,V3X 2Z3,https://www.bbb.org/ca/bc/surrey/profile/home-builders/merit-homes-0037-1296645
EcoF Cleaners,(778) 708-3636,,,,,6462 124A St ,Surrey,BC,V3W 5Y1,https://www.bbb.org/ca/bc/surrey/profile/house-cleaning/ecof-cleaners-0037-1372245
Lifestyle Renovations,(604) 818-3344,,,,,9459 153 St ,Surrey,BC,V3R 9C7,https://www.bbb.org/ca/bc/surrey/profile/home-improvement/lifestyle-renovations-0037-1199135
Gaste Roofing,(604) 710-2339,,,,,5908 128 St. ,Surrey,BC,V3X 1T3,https://www.bbb.org/ca/bc/surrey/profile/roofing-contractors/gaste-roofing-0037-1251112
Alpha West Developments Ltd.,(604) 613-0634,,,,,210 12837 76 Ave ,Surrey,BC,V3W 2V3,https://www.bbb.org/ca/bc/surrey/profile/construction-management/alpha-west-developments-ltd-0037-1294263
Cambridge Doors,(604) 572-0222,,,,,"106 8433 132 St, Surrey ",Surrey,BC,V3W 4N8,https://www.bbb.org/ca/bc/surrey/profile/doors/cambridge-doors-0037-1379076
Direct Call 4 Renovation,(604) 767-5431,,,,,13698 58 Ave ,Surrey,BC,V3X 3H9,https://www.bbb.org/ca/bc/surrey/profile/home-renovation/direct-call-4-renovation-0037-1271609
Apna Group Inc,(778) 320-6400,,,,,8433 132 Street ,Surrey,BC,V3W 4N8,https://www.bbb.org/ca/bc/surrey/profile/home-builders/apna-group-inc-0037-1383810
Alair Homes Surrey,(604) 761-2457,,,,,11 5889 152 St ,Surrey,BC,V3S 3K4,https://www.bbb.org/ca/bc/surrey/profile/home-builders/alair-homes-surrey-0037-1286582
Sandhar Ventures Inc,(604) 644-5643,,,,,13767 57 B Ave ,Surrey,BC,V3X 2V2,https://www.bbb.org/ca/bc/surrey/profile/construction/sandhar-ventures-inc-0037-2399598
J I Contractors Renovations& Additions,(778) 896-9879,,,,,14952 90A Ave. ,Surrey,BC,V3R 1B4,https://www.bbb.org/ca/bc/surrey/profile/home-improvement/j-i-contractors-renovations-additions-0037-1302438
Colt Construction Ltd,(604) 240-2534,,,,,16158 80A Ave ,Surrey,BC,V4N 0J8,https://www.bbb.org/ca/bc/surrey/profile/construction-services/colt-construction-ltd-0037-1186571
A.M Tile & Marble,(778) 998-6034,,,,,8974 156 St ,Surrey,BC,V3R 4K8,https://www.bbb.org/ca/bc/surrey/profile/ceramic-tile-contractors/am-tile-marble-0037-1244371
Can-Asia Tile & Stone Ltd,(604) 598-1800,,,,,#114 13065 84th Ave ,Surrey,BC,V3W 1B3,https://www.bbb.org/ca/bc/surrey/profile/ceramic-tile-contractors/can-asia-tile-stone-ltd-0037-1281724
Yes Construction & Renovations,(604) 315-1111,,,,,13835 92 Ave ,Surrey,BC,V3V 1J3,https://www.bbb.org/ca/bc/surrey/profile/home-improvement/yes-construction-renovations-0037-1277422
Deepgarhey Framing Contractor Ltd,(604) 719-4073,,,,,8866 132 St ,Surrey,BC,V3V 5P2,https://www.bbb.org/ca/bc/surrey/profile/framing-contractors/deepgarhey-framing-contractor-ltd-0037-1375277
EconoWise Sunrooms & Patio Covers Ltd.,(604) 593-7496,,,,,123 12651 80 Ave ,Surrey,BC,V3W 3A6,https://www.bbb.org/ca/bc/surrey/profile/patio-enclosures/econowise-sunrooms-patio-covers-ltd-0037-1243684
Iman Construction,(604) 715-1811,,,,,705 52 125th St ,Surrey,BC,V3W 0M3,https://www.bbb.org/ca/bc/surrey/profile/home-improvement/iman-construction-0037-1282160
Sheepwash Contracting & Design Inc.,(604) 785-6061,,,,,15446 92 Ave ,Surrey,BC,V3R 5W1,https://www.bbb.org/ca/bc/surrey/profile/home-improvement/sheepwash-contracting-design-inc-0037-1280450
Renos By George,(604) 572-4017,(604) 572-4007,,,,12454 76B Ave ,Surrey,BC,V3W 7W6,https://www.bbb.org/ca/bc/surrey/profile/home-improvement/renos-by-george-0037-217308
V G Home Renovations,(604) 516-9758,,,,,9375 140 St ,Surrey,BC,V3V 5Z3,https://www.bbb.org/ca/bc/surrey/profile/home-improvement/v-g-home-renovations-0037-1202304
J.S. Sekhon Ltd,(778) 892-0026,,,,,69 12677 63 Ave ,Surrey,BC,V3W 0M6,https://www.bbb.org/ca/bc/surrey/profile/home-improvement/js-sekhon-ltd-0037-1234356
Atma Homes Ltd.,(778) 898-8253,,,,,,Surrey,BC,V3S 3V5,https://www.bbb.org/ca/bc/surrey/profile/residential-general-contractor/atma-homes-ltd-0037-2414829
Lanac renovations,(604) 349-6805,,,,,453 15910 Fraser Hwy ,Surrey,BC,V4N 0X8,https://www.bbb.org/ca/bc/surrey/profile/home-improvement/lanac-renovations-0037-1290403
GeoSpace Home Design,(604) 783-9298,,,,,284 8128 128 St ,Surrey,BC,V3V 1R1,https://www.bbb.org/ca/bc/surrey/profile/home-consultant/geospace-home-design-0037-1374920
Louie's Renovations,(604) 583-5152,,,,,15654 88 Ave ,Surrey,BC,V4N 1G5,https://www.bbb.org/ca/bc/surrey/profile/home-improvement/louies-renovations-0037-1372241
A&G Aluminum & Ironworks Ltd.,(778) 318-2414,,,,,8 13025 84 Ave ,Surrey,BC,V3W 1R9,https://www.bbb.org/ca/bc/surrey/profile/aluminum-fabrication/ag-aluminum-ironworks-ltd-0037-2398035
Everything Renovations,(778) 230-0714,,,,,12801 80Th Ave ,Surrey,BC,V3W 4E9,https://www.bbb.org/ca/bc/surrey/profile/home-improvement/everything-renovations-0037-1279516
Lally Drain Tile & Excavating Ltd,(604) 543-9792,(604) 805-6660,,,,6363 129A St ,Surrey,BC,V3X 1R9,https://www.bbb.org/ca/bc/surrey/profile/home-improvement/lally-drain-tile-excavating-ltd-0037-136448
Pro Villa Designs Ltd,(604) 593-7070,,,,,108 8299 129th St ,Surrey,BC,V3W 0A6,https://www.bbb.org/ca/bc/surrey/profile/home-design/pro-villa-designs-ltd-0037-1367305
AMJ Home Repairs,(604) 780-9387,,,,,1 3298 E 54 Ave ,Vancouver,BC,V5S 0A1,https://www.bbb.org/ca/bc/vancouver/profile/home-improvement/amj-home-repairs-0037-1299779
Household Craftsmen,(604) 582-8739,(604) 589-5456,,,,9266 148 St ,Surrey,BC,V3R 3W8,https://www.bbb.org/ca/bc/surrey/profile/home-improvement/household-craftsmen-0037-218904
Edgeline Drywall System Ltd.,(604) 771-0402,,,,,101 15055 54A Ave ,Surrey,BC,V3S 5X7,https://www.bbb.org/ca/bc/surrey/profile/drywall-contractors/edgeline-drywall-system-ltd-0037-1377987
Rungur Sher Homes Group Ltd,(604) 562-8990,,,,,12945 56A Ave ,Surrey,BC,V3X 2Z1,https://www.bbb.org/ca/bc/surrey/profile/custom-home-builder/rungur-sher-homes-group-ltd-0037-2421910
Kiev Renovations Ltd,(604) 785-8444,,,,,16181 89A Ave ,Surrey,BC,V4N 2Z4,https://www.bbb.org/ca/bc/surrey/profile/home-improvement/kiev-renovations-ltd-0037-2412359
Ladybug Landscaping Ltd,(604) 719-5239,,,,,121 9626 148 St ,Surrey,BC,V3R 0W2,https://www.bbb.org/ca/bc/surrey/profile/landscape-contractors/ladybug-landscaping-ltd-0037-1251497
Nehna Construction Reno Ltd,(604) 446-1245,,,,,7741 122A St ,Surrey,BC,V3W 9H3,https://www.bbb.org/ca/bc/surrey/profile/home-improvement/nehna-construction-reno-ltd-0037-1284056
Jaigur Builders,(778) 899-3120,,,,,16332 88 Ave ,Surrey,BC,V4N 1B6,https://www.bbb.org/ca/bc/surrey/profile/home-renovation/jaigur-builders-0037-1303183
Fine Living Construction Corporation,(604) 930-6298,,,,,9049 161A St ,Surrey,BC,V4N 3E5,https://www.bbb.org/ca/bc/surrey/profile/home-improvement/fine-living-construction-corporation-0037-1297376
Holtz Contracting Ltd,(778) 809-0754,,,,,2962 270a St. Unit 2962,Surrey,BC,V3W 2Z9,https://www.bbb.org/ca/bc/surrey/profile/home-improvement/holtz-contracting-ltd-0037-2401608
High Build Interiors Ltd.,(778) 951-5444,,,,,9434 158 St ,Surrey,BC,V4N 3B7,https://www.bbb.org/ca/bc/surrey/profile/home-renovation/high-build-interiors-ltd-0037-2414722
Top Choice Electric & Construction Ltd.,(778) 892-1243,,,,,15411 84 Ave ,Surrey,BC,V3S 2N3,https://www.bbb.org/ca/bc/surrey/profile/home-improvement/top-choice-electric-construction-ltd-0037-1288779
Downtown Prodigy Contracting,(604) 700-2605,,,,,14503 59B Ave ,Surrey,BC,V3S 7B4,https://www.bbb.org/ca/bc/surrey/profile/building-restoration/downtown-prodigy-contracting-0037-1300715
Marquis Custom Homes & Developments Ltd.,(604) 808-0790,,,,,5979 145 St ,Surrey,BC,V3S 7B4,https://www.bbb.org/ca/bc/surrey/profile/home-builders/marquis-custom-homes-developments-ltd-0037-1367626
Surrey Stone Guy,(778) 999-7393,,,,,Private Address ,Surrey,BC,V3S 2P5,https://www.bbb.org/ca/bc/surrey/profile/mason-contractors/surrey-stone-guy-0037-2396511
BC Home Staging,(778) 318-7555,,,,,15276 85A Ave ,Surrey,BC,V3S 6J4,https://www.bbb.org/ca/bc/surrey/profile/home-staging/bc-home-staging-0037-1380879
K and M Construction,(604) 765-7400,,,,,#139-7536 130th St ,Surrey,BC,V3W 1H8,https://www.bbb.org/ca/bc/surrey/profile/home-improvement/k-and-m-construction-0037-1370984
Omni Drywall Ltd,(778) 998-4040,,,,,14967 59A Ave ,Surrey,BC,V3S 1H9,https://www.bbb.org/ca/bc/surrey/profile/drywall-contractors/omni-drywall-ltd-0037-1273845
Rudra Sharma Construction,(604) 723-1989,,,,,13125 68 Ave. ,Surrey,BC,V3W 2E5,https://www.bbb.org/ca/bc/surrey/profile/home-improvement/rudra-sharma-construction-0037-1273653
Glacierview Building Solutions Ltd.,(778) 227-4541,,,,,121 7536 130 St ,Surrey,BC,V2N 2P4,https://www.bbb.org/ca/bc/surrey/profile/home-improvement/glacierview-building-solutions-ltd-0037-1242340
FV Kitchen Cabinets Ltd.,(604) 889-8955,,,,,120 7536 130 St ,Surrey,BC,V3W 1H8,https://www.bbb.org/ca/bc/surrey/profile/kitchen-cabinets/fv-kitchen-cabinets-ltd-0037-1380928
Power Star Electrical Ltd.,(604) 710-6418,,,,,,Surrey,BC,V3W 9E2,https://www.bbb.org/ca/bc/surrey/profile/electrical/power-star-electrical-ltd-0037-1374633
JD Bros Renovation,(778) 872-9520,,,,,"7244 130th St. Surrey, BC ",Surrey,BC,V3W 6E8,https://www.bbb.org/ca/bc/surrey/profile/home-improvement/jd-bros-renovation-0037-1278139
Norden Windows and Doors Ltd,(604) 503-1907,,,,,13240 Comber Way ,Surrey,BC,V3W 5V9,https://www.bbb.org/ca/bc/delta/profile/window-door-installation/norden-windows-and-doors-ltd-0037-1378741
Master Maintenance,(604) 805-4940,,,,,6277 138 St. ,Surrey,BC,V3X 1E6,https://www.bbb.org/ca/bc/surrey/profile/home-improvement/master-maintenance-0037-1288872
Friendly Construction Ltd.,(604) 728-2272,,,,,,Surrey,BC,V3W 7B7,https://www.bbb.org/ca/bc/surrey/profile/home-improvement/friendly-construction-ltd-0037-1281306
B.C. Ltd. General Contracting Ltd.,(778) 708-3786,,,,,8062 135A St ,Surrey,BC,V3W 1R4,https://www.bbb.org/ca/bc/surrey/profile/home-improvement/bc-ltd-general-contracting-ltd-0037-1285627
Homewise Renovation Solutions,(604) 788-5803,,,,,14535 60th Ave ,Surrey,BC,V3S 1R4,https://www.bbb.org/ca/bc/surrey/profile/home-renovation/homewise-renovation-solutions-0037-1367144
J & G Kitchen Craft Cabinets Ltd,(604) 592-3114,(604) 592-5060,(778) 889-3139,(604) 825-8726,(778) 829-3254,"15 13289 79 Ave, Surrey, BC ",Surrey,BC,V3W 2N5,https://www.bbb.org/ca/bc/surrey/profile/cabinet-maker/j-g-kitchen-craft-cabinets-ltd-0037-1229098
Awesome Drywall Ltd,(604) 767-2412,,,,,13518 64A Ave ,Surrey,BC,V3W 9H6,https://www.bbb.org/ca/bc/surrey/profile/drywall-contractors/awesome-drywall-ltd-0037-1273708
C.I.D Enterprises,(604) 603-0575,,,,,6022 142 St ,Surrey,BC,V3X 1C1,https://www.bbb.org/ca/bc/surrey/profile/home-improvement/cid-enterprises-0037-1261855
Power House Selective Demolition,(604) 771-3125,(604) 710-0534,,,,14025 79 Ave ,Surrey,BC,V3W 5Y9,https://www.bbb.org/ca/bc/surrey/profile/home-improvement/power-house-selective-demolition-0037-222693
Inview Conttruction Management Ltd,,,,,,Unit# 518 7360 137st ,Surrey,BC,V3W 1A3,https://www.bbb.org/ca/bc/surrey/profile/home-improvement/inview-conttruction-management-ltd-0037-1253310
Primetop Decks and Covers,(604) 282-2771,,,,,102 7337 137 St ,Surrey,BC,V3W 1A4,https://www.bbb.org/ca/bc/surrey/profile/patios-and-decks/primetop-decks-and-covers-0037-1372172
Jujhar Painting Ltd,(778) 709-5455,,,,,13856 77A Ave ,Surrey,BC,V3W 2X1,https://www.bbb.org/ca/bc/surrey/profile/painting-contractors/jujhar-painting-ltd-0037-1377852
Garcha Homes,(604) 593-5251,,,,,110 13737 72 Ave ,Surrey,BC,V3W 2P2,https://www.bbb.org/ca/bc/surrey/profile/home-builders/garcha-homes-0037-1291505
Pickup Drywall Ltd.,(604) 720-4648,,,,,14198 65 Ave ,Surrey,BC,V3W 1N1- 1N1,https://www.bbb.org/ca/bc/surrey/profile/drywall-contractors/pickup-drywall-ltd-0037-1386229
Zone 2 Zone Custom Homes Ltd.,(604) 961-2907,(778) 327-8274,,,,200 7404 King George Blvd ,Surrey,BC,V3W 1N6,https://www.bbb.org/ca/bc/surrey/profile/home-builders/zone-2-zone-custom-homes-ltd-0037-1365139
Applewood Kitchen Concepts Ltd.,(778) 863-2911,,,,,205 14770 64 Ave ,Surrey,BC,V3S 1X7,https://www.bbb.org/ca/bc/surrey/profile/cabinet-maker/applewood-kitchen-concepts-ltd-0037-1274121
SG Stair Railings Ltd.,(604) 836-9217,,,,,6477 140 St ,Surrey,BC,V3W 9H9,https://www.bbb.org/ca/bc/surrey/profile/railing/sg-stair-railings-ltd-0037-1289577
360 Home Renovations Inc.,(604) 445-3535,,,,,107 15336 67 Ave ,Surrey,BC,V3S 7C6,https://www.bbb.org/ca/bc/surrey/profile/home-renovation/360-home-renovations-inc-0037-1276175
Best Quality Kitchen Cabinets,(778) 564-4900,,,,,2 13550 77 Ave ,Surrey,BC,V3W 6Y3,https://www.bbb.org/ca/bc/surrey/profile/cabinet-manufacturers/best-quality-kitchen-cabinets-0037-1361484
EnerStar Windows Ltd.,(604) 503-2117,,,,,7531 134A St ,Surrey,BC,V3W 7B3,https://www.bbb.org/ca/bc/surrey/profile/window-manufacturers/enerstar-windows-ltd-0037-1378791
Well Done Plumbing Ltd.,(604) 788-7000,,,,,7116 134 St ,Surrey,BC,V3W 4T3,https://www.bbb.org/ca/bc/surrey/profile/plumber/well-done-plumbing-ltd-0037-1371697
Jawanda Do It Right Renovations,(778) 991-9424,,,,,8262 152 St ,Surrey,BC,V3S 3M7,https://www.bbb.org/ca/bc/surrey/profile/home-improvement/jawanda-do-it-right-renovations-0037-1273816
Juniper Drywall,(604) 839-5042,,,,,Private Address ,Surrey,BC,V3X 0B2,https://www.bbb.org/ca/bc/surrey/profile/drywall-contractors/juniper-drywall-0037-1377891
Shine Construction Ltd.,(778) 242-7780,(604) 592-0666,,,,105 13423 78 Ave ,Surrey,BC,V3W 0A8,https://www.bbb.org/ca/bc/surrey/profile/mason-contractors/shine-construction-ltd-0037-1299947
Highlights Painting,(778) 779-1916,,,,,6612 Swanson Pl ,Surrey,BC,V3W 6G2,https://www.bbb.org/ca/bc/surrey/profile/painting-contractors/highlights-painting-0037-1378505
Sunshine Railing Ltd,(778) 829-6551,,,,,13279A 72 Ave ,Surrey,BC,V3W 2N5,https://www.bbb.org/ca/bc/surrey/profile/railing/sunshine-railing-ltd-0037-1372918
Altron Construction,(604) 590-3735,,,,,13 8190 King George Hwy ,Surrey,BC,V3W 5B7,https://www.bbb.org/ca/bc/surrey/profile/home-improvement/altron-construction-0037-222854
BMS Painting,(604) 562-5955,(778) 552-1763,,,,8484 141A St ,Surrey,BC,V3W 2T4,https://www.bbb.org/ca/bc/surrey/profile/painting-contractors/bms-painting-0037-1243545
Guttervac Home Services,(800) 876-7886,,,,,17049 104A Ave ,Surrey,BC,V4N 4L9,https://www.bbb.org/ca/bc/surrey/profile/gutter-cleaning/guttervac-home-services-0037-1247477
All Clear Gutter Cleaning,(604) 531-1411,,,,,103 15028 32 Ave ,Surrey,BC,V4P 1A3,https://www.bbb.org/ca/bc/surrey/profile/gutter-cleaning/all-clear-gutter-cleaning-0037-1289025
Rain Elements,(604) 808-8955,,,,,202 18428 53rd Ave ,Surrey,BC,V3S 7A4,https://www.bbb.org/ca/bc/surrey/profile/gutters/rain-elements-0037-1299726
All Purpose Pressure Washing & Maintenance,(604) 338-2655,,,,,19360 62A Ave ,Surrey,BC,V3S 7L6,https://www.bbb.org/ca/bc/surrey/profile/pressure-washing/all-purpose-pressure-washing-maintenance-0037-1234389
Precision Gutters Ltd.,(604) 888-5112,(604) 888-5143,,,,7 9515 190 St ,Surrey,BC,V4N 3S1,https://www.bbb.org/ca/bc/surrey/profile/gutters/precision-gutters-ltd-0037-136497
RCCL Contracting Ltd,(778) 822-7006,,,,,15355 24 Ave ,Surrey,BC,V4A 2H9,https://www.bbb.org/ca/bc/surrey/profile/exterior-building-cleaning/rccl-contracting-ltd-0037-1256303
Shine City Pressure Washing Inc.,(604) 740-5353,,,,,6949 196 St ,Surrey,BC,V4N 5Z1,https://www.bbb.org/ca/bc/surrey/profile/pressure-washing/shine-city-pressure-washing-inc-0037-2396526
Busybee Gardening,(604) 990-7233,,,,,202 15388 24 Ave ,Surrey,BC,V4A 2J2,https://www.bbb.org/ca/bc/surrey/profile/gardener/busybee-gardening-0037-215401
Aqua Seal Services Ltd.,(604) 767-9500,,,,,351 19316 56 Ave ,Surrey,BC,V3S 6K4,https://www.bbb.org/ca/bc/surrey/profile/gutters/aqua-seal-services-ltd-0037-1257903
Cascadia Home Services,(604) 561-8485,,,,,108 15809 Marine Dr ,White Rock,BC,V4B 1E7,https://www.bbb.org/ca/bc/white-rock/profile/cleaning-services/cascadia-home-services-0037-1254862
MHC Gutters,(604) 552-4866,(604) 459-8177,(604) 459-8166,,,1101 1225 Kingsway Ave ,Port Coquitlam,BC,V3C 1S2,https://www.bbb.org/ca/bc/port-coquitlam/profile/gutters/mhc-gutters-0037-1259391
Mills Roofing,(778) 387-9899,,,,,918 164 St ,Surrey,BC,V4A 4Y5,https://www.bbb.org/ca/bc/surrey/profile/roofing-contractors/mills-roofing-0037-2410936
Green Planet Home Services,(604) 358-2618,,,,,,Port Coquitlam,BC,V3C 6B3,https://www.bbb.org/ca/bc/port-coquitlam/profile/gutters/green-planet-home-services-0037-1282368
Built in Gutter Specialist,(778) 808-5477,,,,,3885 203B St ,Langley,BC,V3A 4X1,https://www.bbb.org/ca/bc/langley/profile/gutters/built-in-gutter-specialist-0037-1234033
Reflections Painting & Remodeling,(778) 891-7787,,,,,825 164A St ,Surrey,BC,V4A 9C1,https://www.bbb.org/ca/bc/surrey/profile/painting-contractors/reflections-painting-remodeling-0037-1272613
Euro Artistic Metals Ltd,(604) 882-8660,,,,,21446 83 Ave ,Langley,BC,V2Y 2C6,https://www.bbb.org/ca/bc/langley/profile/gutters/euro-artistic-metals-ltd-0037-1335898
Champion Window & Pressure Cleaning Services,(604) 266-3349,,,,,164 5489 Byrne Rd ,Burnaby,BC,V5J 3J1,https://www.bbb.org/ca/bc/burnaby/profile/window-cleaning/champion-window-pressure-cleaning-services-0037-1146072
Absolut Enterprises Inc,(604) 317-7110,,,,,20380 Wharf St ,Maple Ridge,BC,V2X 1A3,https://www.bbb.org/ca/bc/maple-ridge/profile/home-improvement/absolut-enterprises-inc-0037-1251331
Haney Powerwash Coquitlam,(604) 240-7864,,,,,834 Cottonwood Ave ,Coquitlam,BC,V3J 2T1,https://www.bbb.org/ca/bc/coquitlam/profile/gutters/haney-powerwash-coquitlam-0037-221218
Wash Me Property Services,(604) 446-9274,,,,,1 - 11550 Kingston St ,Maple Ridge,BC,V2X 9J8,https://www.bbb.org/ca/bc/maple-ridge/profile/property-maintenance/wash-me-property-services-0037-1277368
Roto-Rooter Plumbing and Drain Services,(604) 736-1323,,,,,307 20285 Stewart Cr ,Maple Ridge,BC,V2X 8G1,https://www.bbb.org/ca/bc/maple-ridge/profile/plumber/roto-rooter-plumbing-and-drain-services-0037-111017
Man Up Services,(778) 323-4368,,,,,10074 240A street ,Maple Ridge,BC,V2W 1Z9,https://www.bbb.org/ca/bc/maple-ridge/profile/gutters/man-up-services-0037-1269899
MaplEaves Contracting Ltd,(778) 320-7180,,,,,2185 176th St ,Surrey,BC,V3Z 9W4,https://www.bbb.org/ca/bc/surrey/profile/gutter-contractor/mapleaves-contracting-ltd-0037-1276546
Complete Gutter Systems 2018 Ltd.,(604) 690-7473,,,,,502 20540 Duncan Way ,Langley,BC,V3A 7A3,https://www.bbb.org/ca/bc/langley/profile/gutter-contractor/complete-gutter-systems-2018-ltd-0037-1376364
KingFisher Yard Care Services,(778) 877-7499,,,,,143 16335 14 Ave ,Surrey,BC,V4A 1H2,https://www.bbb.org/ca/bc/surrey/profile/landscape-contractors/kingfisher-yard-care-services-0037-1263658
Black Bear Gutters Ltd.,(604) 347-6630,,,,,,Langley,BC,V2Y 0S7,https://www.bbb.org/ca/bc/langley/profile/gutter-contractor/black-bear-gutters-ltd-0037-1384652
Invictus,(604) 220-9475,,,,,665 1628 Industrial Ave ,Port Coquitlam,BC,V3C 6N3,https://www.bbb.org/ca/bc/port-coquitlam/profile/janitor-service/invictus-0037-1267668
Advance Window Cleaning,(604) 908-2296,(604) 465-6687,,,,11 19160 119 Ave ,Pitt Meadows,BC,V3Y 2L7,https://www.bbb.org/ca/bc/pitt-meadows/profile/window-cleaning/advance-window-cleaning-0037-1266193
Sunny Exteriors,(604) 728-4842,,,,,5 8250 209B St ,Langley,BC,V2Y 0J7,https://www.bbb.org/ca/bc/langley/profile/siding-contractors/sunny-exteriors-0037-216400
All Clear Window and Gutter Cleaners,(604) 519-0678,,,,,6136 Marine Dr ,Burnaby,BC,V3N 2Y1,https://www.bbb.org/ca/bc/burnaby/profile/window-cleaning/all-clear-window-and-gutter-cleaners-0037-1231727
Capstone Gutter Cleaning,(778) 987-3332,,,,,2450 Lobb Ave ,Port Coquitlam,BC,V3C 6G8,https://www.bbb.org/ca/bc/port-coquitlam/profile/gutter-cleaning/capstone-gutter-cleaning-0037-1275225
Four Star Gutter Service 1980,(604) 524-9634,,,,,352 Keary St ,New Westminster,BC,V3L 3L3,https://www.bbb.org/ca/bc/new-westminster/profile/gutters/four-star-gutter-service-1980-0037-117777
Black & White Property Maintenance Ltd,(778) 928-7868,,,,,2240 Sicamous Ave ,Coquitlam,BC,V3K 6R9,https://www.bbb.org/ca/bc/coquitlam/profile/property-maintenance/black-white-property-maintenance-ltd-0037-1246212
Bayview Cleaners,(604) 538-9269,,,,,15516 17 Ave ,Surrey,BC,V4A 1V2,https://www.bbb.org/ca/bc/surrey/profile/window-cleaning/bayview-cleaners-0037-133888
Clearview Cleaning Services Ltd.,(778) 242-6736,,,,,12607 19 Ave ,Surrey,BC,V4A 1X5,https://www.bbb.org/ca/bc/abbotsford/profile/cleaning-services/clearview-cleaning-services-ltd-0037-1268382
High Profile Gutters Inc.,(778) 823-3356,,,,,406 14022 North Bluff ,White Rock,BC,V4B 3C3,https://www.bbb.org/ca/bc/white-rock/profile/gutter-cleaning/high-profile-gutters-inc-0037-1383322
Caretek Contracting Ltd.,(604) 367-9967,,,,,3 300 Decaire St ,Coquitlam,BC,V3K 5P2,https://www.bbb.org/ca/bc/coquitlam/profile/gutter-contractor/caretek-contracting-ltd-0037-1252807
Tims-Team Renovations,(604) 781-4313,,,,,2241 Gale Avenue ,Coquitlam,BC,V3K 2Z1,https://www.bbb.org/ca/bc/coquitlam/profile/general-contractor/tims-team-renovations-0037-1365130
Aztec Developments & Promotions,(604) 536-8111,,,,,201 15225 Thrift Ave ,White Rock,BC,V4B 2K9,https://www.bbb.org/ca/bc/white-rock/profile/gutters/aztec-developments-promotions-0037-134732
Stayclean Gutters,(604) 514-3634,,,,,20492 67 St ,Langley,BC,V2Y 3E1,https://www.bbb.org/ca/bc/langley/profile/gutters/stayclean-gutters-0037-1170055
Wonder Clean,(778) 713-4050,,,,,709 211 11 St ,New Westminster,BC,V3M 6B3,https://www.bbb.org/ca/bc/new-westminster/profile/cleaning-services/wonder-clean-0037-1210522
Titan Home Services,(604) 999-4746,,,,,2265 153A St ,Surrey,BC,V4A 4R4,https://www.bbb.org/ca/bc/surrey/profile/gutter-contractor/titan-home-services-0037-1266750
Beaudry Landscapes,(778) 237-0336,,,,,338 Pembina St ,New Westminster,BC,V3M 5J6,https://www.bbb.org/ca/bc/new-westminster/profile/landscape-contractors/beaudry-landscapes-0037-1384204
Orca Roofing Ltd,(604) 371-2505,(604) 371-2506,,,,145 19358 96 Ave ,Surrey,BC,V4N 4C1,https://www.bbb.org/ca/bc/surrey/profile/roofing-contractors/orca-roofing-ltd-0037-1268318
Nu Form Exteriors Ltd,(604) 888-9292,(604) 794-0059,,,,19434 94 Ave ,Surrey,BC,V4N 4E5,https://www.bbb.org/ca/bc/surrey/profile/gutters/nu-form-exteriors-ltd-0037-134677
Pro Image Gutters Ltd.,(604) 533-7325,,,,,6 5508 Production Blvd ,Surrey,BC,V3S 8P5,https://www.bbb.org/ca/bc/surrey/profile/gutter-contractor/pro-image-gutters-ltd-0037-220122
All Elements Services & Restoration,(604) 371-3265,,,,,6 19522 96 Ave ,Surrey,BC,V4N 4C3,https://www.bbb.org/ca/bc/surrey/profile/fire-water-damage-restoration/all-elements-services-restoration-0037-1274732
Dirty Bird Window,(604) 584-1150,,,,,5560 198 St ,Langley,BC,V3A 1G2,https://www.bbb.org/ca/bc/langley/profile/gutters/dirty-bird-window-0037-158063
WRK Property Services,(604) 800-0795,,,,,19876 56 Ave ,Langley,BC,V3A 3X9,https://www.bbb.org/ca/bc/langley/profile/property-maintenance/wrk-property-services-0037-1380769
Langley Window Cleaning,(604) 800-0795,,,,,19876 56 Ave ,Langley,BC,V3A 3X9,https://www.bbb.org/ca/bc/langley/profile/window-cleaning/langley-window-cleaning-0037-1280393
Jackson Property Services Ltd,(604) 831-2254,,,,,12361 Davison St ,Maple Ridge,BC,V2X 5N5,https://www.bbb.org/ca/bc/maple-ridge/profile/snow-removal-services/jackson-property-services-ltd-0037-1299634
T W C Window Cleaners,(604) 437-0774,,,,,12 3485 Foster ,Vancouver,BC,V5R 5V9,https://www.bbb.org/ca/bc/vancouver/profile/window-cleaning/t-w-c-window-cleaners-0037-200389
Valley Pro Home Services,(604) 377-4802,(604) 369-4457,,,,11887 Burnett St ,Maple Ridge,BC,V2X 6P6,https://www.bbb.org/ca/bc/maple-ridge/profile/carpet-and-rug-cleaners/valley-pro-home-services-0037-1230779
Take Away the Pressure,(604) 946-9395,,,,,5225 Maple Cres ,Delta,BC,V4K 1G1,https://www.bbb.org/ca/bc/delta/profile/pressure-washing/take-away-the-pressure-0037-1231301
Premier Roof Solutions Inc.,(403) 910-9400,,,,,200 4170 Still Creek Dr ,Burnaby,BC,V5C 6C6,https://www.bbb.org/ca/ab/calgary/profile/roofing-contractors/premier-exterior-solutions-inc-0017-107070
Gutter Doctor,(604) 851-2912,,,,,160 2639 Viking Way ,Richmond,BC,V6V 3B7,https://www.bbb.org/ca/bc/abbotsford/profile/gutters/gutter-doctor-0037-1227406
Blue Sky Window & Gutter Cleaning Ltd.,(604) 736-1979,,,,,103 1990 E Kent Ave ,Vancouver,BC,V5P 4X5,https://www.bbb.org/ca/bc/vancouver/profile/window-cleaning/blue-sky-window-gutter-cleaning-ltd-0037-1258796
Collingwood Construction Ltd.,(604) 779-5014,,,,,,Vancouver,BC,V5R 2J8,https://www.bbb.org/ca/bc/vancouver/profile/flat-roofing-contractors/collingwood-construction-ltd-0037-2407778
Men In Kilts - Vancouver Franchise,(877) 777-5458,,,,,136 12100 Riverside Way ,Richmond,BC,V6W 1K5,https://www.bbb.org/ca/bc/vancouver/profile/window-cleaning/men-in-kilts-vancouver-franchise-0037-1145520
Umbrella Property Services,(888) 255-4666,,,,,2784 Kingsway ,Vancouver,BC,V5R 5H6,https://www.bbb.org/ca/bc/vancouver/profile/property-maintenance/umbrella-property-services-0037-1286268
Starlight Home Services,(778) 980-8885,,,,,2548 41st Ave E ,Vancouver,BC,V5R 2W7,https://www.bbb.org/ca/bc/vancouver/profile/exterior-building-cleaning/starlight-home-services-0037-1286256
Cleantech Service Group Limited,(604) 244-1660,,,,,105 12371 Horseshoe Way ,Richmond,BC,V7A 4X6,https://www.bbb.org/ca/bc/richmond/profile/commercial-cleaning-services/cleantech-service-group-limited-0037-170756
Chisholm Roofing Ltd.,(604) 325-8099,,,,,115 1083 E Kent Ave N ,Vancouver,BC,V5X 4V9,https://www.bbb.org/ca/bc/vancouver/profile/roofing-contractors/chisholm-roofing-ltd-0037-115703
Abney Roofing Ltd.,(604) 534-5715,,,,,24943 58 Ave ,Aldergrove,BC,V4W 1T5,https://www.bbb.org/ca/bc/aldergrove/profile/roofing-contractors/abney-roofing-ltd-0037-106548
Villa Roofing & Sheet Metal Ltd,(604) 261-2441,,,,,103-8380 St. George Street ,Vancouver,BC,V5X 3S7,https://www.bbb.org/ca/bc/vancouver/profile/roofing-contractors/villa-roofing-sheet-metal-ltd-0037-1188855
Wolf & Wolf Roof Services,(604) 343-3747,,,,,,Belcarra,BC,V3H 4R8,https://www.bbb.org/ca/bc/belcarra/profile/commercial-roofing/wolf-wolf-roof-services-0037-124882
Fraserview Roofing and Renovations,(604) 897-3614,,,,,5907 Culloden St ,Vancouver,BC,V5W 3S3,https://www.bbb.org/ca/bc/vancouver/profile/home-improvement/fraserview-roofing-and-renovations-0037-1270082
R.A. Smith Roofing,(604) 230-8883,,,,,3020 Roslyn Blvd ,North Vancouver,BC,V7G 1P3,https://www.bbb.org/ca/bc/north-vancouver/profile/roofing-contractors/ra-smith-roofing-0037-1252812
iHome100 Roofing & Renovation Inc.,(800) 380-9641,(604) 330-6833,(800) 680-8827,(647) 339-1987,,9491 Finn Road ,Richmond,BC,V7A 2L3,https://www.bbb.org/ca/bc/richmond/profile/roofing-contractors/ihome100-roofing-renovation-inc-0037-1364653
New Horizons Roofing Ltd.,(604) 396-7751,,,,,23788 130 Ave ,Maple Ridge,BC,V4R 2S4,https://www.bbb.org/ca/bc/maple-ridge/profile/roofing-contractors/new-horizons-roofing-ltd-0037-1382551
GRC Columbia Roofing Inc,(604) 856-5112,(604) 856-5115,(604) 830-4168,,,PO Box 10078 3600 248 St ,Aldergrove,BC,V4W 3Z5,https://www.bbb.org/ca/bc/aldergrove/profile/roofing-contractors/grc-columbia-roofing-inc-0037-1199685
Laurentian Roofing Inc.,(604) 345-7663,,,,,PO Box 75015 8165 Main St ,Vancouver,BC,V5X 3L2,https://www.bbb.org/ca/bc/vancouver/profile/roofing-contractors/laurentian-roofing-inc-0037-1243858
3 King's Roofing and Renovations Inc.,(778) 683-1994,,,,,4323 Inverness St ,Vancouver,BC,V5V 4X1,https://www.bbb.org/ca/bc/vancouver/profile/roofing-contractors/3-kings-roofing-and-renovations-inc-0037-1385264
Williams Roofing & Drainage Ltd.,(604) 580-2444,(604) 852-3358,,,,,Langley,BC,V4W 2R2,https://www.bbb.org/ca/bc/langley/profile/roofing-contractors/williams-roofing-drainage-ltd-0037-108644
Landmark Roofing Ltd.,(778) 668-9451,(604) 371-4500,(604) 888-9451,,,7676 229 St ,Langley,BC,V1M 2J5,https://www.bbb.org/ca/bc/langley/profile/roofing-contractors/landmark-roofing-ltd-0037-1275568
Chrome Roofing & Siding,(778) 889-9830,,,,,84053 2844 Bainbridge Ave ,Burnaby,BC,V5A 4T9,https://www.bbb.org/ca/bc/burnaby/profile/roofing-contractors/chrome-roofing-siding-0037-1263267
Perm Roof 1 Ltd.,(604) 946-8112,(604) 946-8115,(778) 863-8112,(778) 863-8114,(604) 817-0511,5137 64 St ,Delta,BC,V4K 3M5,https://www.bbb.org/ca/bc/delta/profile/roofing-contractors/perm-roof-1-ltd-0037-1188073
Mr Max Roofing Ltd.,(604) 379-1751,(604) 456-0300,(604) 379-1742,,,15 2922 E Kent Ave S ,Vancouver,BC,V5S 0G6,https://www.bbb.org/ca/bc/vancouver/profile/roofing-contractors/mr-max-roofing-ltd-0037-1278616
Yang Guang Enterprise Ltd,(604) 725-2568,,,,,108-2931 Viking Way ,Richmond,BC,V6V 1Y1,https://www.bbb.org/ca/bc/richmond/profile/metal-roofing-contractors/yang-guang-enterprise-ltd-0037-1297586
SCL Contracting,(604) 329-3011,,,,,,Maple Ridge,BC,V2X 2K6,https://www.bbb.org/ca/bc/maple-ridge/profile/home-renovation/scl-contracting-0037-1285381
Futat Roofing,(778) 882-6618,,,,,5410 Frances St ,Burnaby,BC,V5B 4Z4,https://www.bbb.org/ca/bc/burnaby/profile/roofing-contractors/futat-roofing-0037-1271593
Roy Dennis Roofing (2005) Ltd.,(604) 278-0442,(604) 278-8214,(604) 273-4252,,,2420 Viscount Way ,Richmond,BC,V6V 1N1,https://www.bbb.org/ca/bc/richmond/profile/roofing-contractors/roy-dennis-roofing-2005-ltd-0037-108162
Cambie Roofing Contractors Ltd,(604) 261-1111,(604) 325-5580,(604) 874-4444,(604) 345-2065,,1367 E Kent Ave N ,Vancouver,BC,V5X 4T6,https://www.bbb.org/ca/bc/vancouver/profile/roofing-contractors/cambie-roofing-contractors-ltd-0037-107383
Nu-Tech Roofing & Waterproofing,(604) 473-9587,,,,,3196 Norland Ave ,Burnaby,BC,V5B 3A6,https://www.bbb.org/ca/bc/burnaby/profile/roofing-contractors/nu-tech-roofing-waterproofing-0037-207685
Ray Browne Roofing Ltd.,(604) 941-6120,,,,,5230 Doninion St. ,Burnaby,BC,V5G 1E2,https://www.bbb.org/ca/bc/burnaby/profile/roofing-contractors/ray-browne-roofing-ltd-0037-1250333
On Point Contracting,(604) 816-4086,,,,,4490 232 St ,Langley,BC,V2Z 2S2,https://www.bbb.org/ca/bc/langley/profile/home-improvement/on-point-contracting-0037-1372225
Highland Roofing Ltd.,(778) 908-8091,,,,,24467 50th Ave ,Langley,BC,V2Z 1E3,https://www.bbb.org/ca/bc/langley/profile/roofing-contractors/highland-roofing-ltd-0037-1252330
Rick Page Roofing,,,,,,,Delta,BC,V4L 1N6,https://www.bbb.org/ca/bc/delta/profile/roofing-consultants/rick-page-roofing-0037-208898
Phoenix Roof Consultants Ltd.,(604) 317-3786,,,,,4611 Kelly Pl ,Delta,BC,V4K 1G8,https://www.bbb.org/ca/bc/delta/profile/roofing-consultants/phoenix-roof-consultants-ltd-0037-2403210
Brian's Roofing & Contracting,(604) 719-5993,,,,,2095 E 30 Ave ,Vancouver,BC,V5N 3A4,https://www.bbb.org/ca/bc/vancouver/profile/roofing-contractors/brians-roofing-contracting-0037-1257548
MacDonald Roofing,(604) 220-0378,(604) 321-6545,(604) 686-9464,(604) 321-6515,,478 E 60 Ave ,Vancouver,BC,V5X 1Z9,https://www.bbb.org/ca/bc/vancouver/profile/roofing-consultants/macdonald-roofing-0037-211621
Burrard Roofing & Drainage,(604) 986-1812,,,,,B 135 Riverside Dr ,North Vancouver,BC,V7H 1T6,https://www.bbb.org/ca/bc/north-vancouver/profile/roofing-contractors/burrard-roofing-drainage-0037-115456
Aldergrove Roofing,(778) 389-5564,,,,,1121 248 St. ,Aldergrove,BC,V4W 2B8,https://www.bbb.org/ca/bc/aldergrove/profile/roofing-contractors/aldergrove-roofing-0037-1374130
All Season Home Maintenance,(778) 885-5645,,,,,PO Box 86344 ,North Vancouver,BC,V7L 4K6,https://www.bbb.org/ca/bc/north-vancouver/profile/landscape-contractors/all-season-home-maintenance-0037-1209691
Schwab Roofing,(604) 728-3699,,,,,3340 272nd St ,Aldergrove,BC,V4W 3X2,https://www.bbb.org/ca/bc/aldergrove/profile/roofing-contractors/schwab-roofing-0037-1368355
M.D. Roofing Ltd.,(778) 882-0183,(604) 725-1315,,,,1708 William Ave ,North Vancouver,BC,V7L 4G7,https://www.bbb.org/ca/bc/north-vancouver/profile/roofing-contractors/md-roofing-ltd-0037-222097
Cooper Roofing,(604) 674-0319,,,,,600 1285 W Broadway ,Vancouver,BC,V6H 3X8,https://www.bbb.org/ca/bc/vancouver/profile/roofing-contractors/cooper-roofing-0037-1291775
Valley Metal Roofing,(604) 670-8484,,,,,600 1285 West Broadway ,Vancouver,BC,V6H 3X8,https://www.bbb.org/ca/bc/vancouver/profile/roofing-contractors/valley-metal-roofing-0037-2418879
Eco Exteriors Roofing Gutters and Solar Ltd.,(604) 985-4326,(778) 839-5899,,,,208 144 E 19 St ,North Vancouver,BC,V7L 2Y8,https://www.bbb.org/ca/bc/north-vancouver/profile/roofing-contractors/eco-exteriors-roofing-gutters-and-solar-ltd-0037-1253654
Town And Country Roofing Ltd.,(604) 462-1552,,,,,11020 288 St ,Maple Ridge,BC,V2W 1L7,https://www.bbb.org/ca/bc/maple-ridge/profile/roofing-contractors/town-and-country-roofing-ltd-0037-111226
SB Roofing Ltd.,(778) 241-5285,,,,,30524 Robin Dr ,Abbotsford,BC,V2T 5S1,https://www.bbb.org/ca/bc/abbotsford/profile/roofing-contractors/sb-roofing-ltd-0037-1365004
Best Look Roofing Ltd.,(778) 908-8141,,,,,2622 Springhill St ,Abbotsford,BC,V2T 3V7,https://www.bbb.org/ca/bc/abbotsford/profile/roofing-contractors/best-look-roofing-ltd-0037-2396588
Valley Top Roofing Ltd.,(604) 626-8602,,,,,,Abbotsford,BC,V2T 5A4,https://www.bbb.org/ca/bc/abbotsford/profile/roofing-contractors/valley-top-roofing-ltd-0037-1289260
Action Roofing Ltd.,(604) 826-3294,(604) 826-0073,(604) 854-0811,,,,Mission,BC,V2V 4P4,https://www.bbb.org/ca/bc/mission/profile/roofing-contractors/action-roofing-ltd-0037-140184
Glacier Valley Roofing Inc.,(604) 551-8742,,,,,,Mission,BC,V2V 7B4,https://www.bbb.org/ca/bc/mission/profile/roofing-contractors/glacier-valley-roofing-inc-0037-2405673
Clearbrook Roofing Ltd.,(604) 854-1012,(604) 854-5742,,,,34313 Farmer Rd ,Abbotsford,BC,V2S 7M4,https://www.bbb.org/ca/bc/abbotsford/profile/roofing-contractors/clearbrook-roofing-ltd-0037-114809
Anyday Roofing,(604) 740-7449,,,,,252 Ryan Dr ,Gibsons,BC,V0N 1V4,https://www.bbb.org/ca/bc/gibsons/profile/roofing-contractors/anyday-roofing-0037-1345725
Canwest Roofing,,,,,,,Gibsons,BC,V0N 1V8,https://www.bbb.org/ca/bc/gibsons/profile/roofing-contractors/canwest-roofing-0037-1255655
Endurance Roofing,(604) 758-2048,(604) 615-0075,,,,8621 Chilliwack Mountain Rd ,Chilliwack,BC,V2R 3W8,https://www.bbb.org/ca/bc/chilliwack/profile/roofing-contractors/endurance-roofing-0037-1378737
Leadworth Roofing and Renovations,(604) 798-1712,,,,,12 8465 Harvard Pl ,Chilliwack,BC,V2P 7Z5,https://www.bbb.org/ca/bc/chilliwack/profile/general-contractor/leadworth-roofing-and-renovations-0037-1377521
The Roof Medics,(778) 297-4090,(604) 391-1114,,,,46038 Larter Avenue ,Chilliwack,BC,V2P 6M6,https://www.bbb.org/ca/bc/chilliwack/profile/roofing-contractors/the-roof-medics-0037-1249460
Undercover Roofing,(604) 741-5679,,,,,,Roberts Creek,BC,V0N 2W5,https://www.bbb.org/ca/bc/roberts-creek/profile/roofing-contractors/undercover-roofing-0037-1291657
Can-Tech Roofing Ltd.,(604) 824-0095,(604) 858-3645,,,,46794 Sylvan Dr ,Chilliwack,BC,V2R 4E9,https://www.bbb.org/ca/bc/chilliwack/profile/roofing-contractors/can-tech-roofing-ltd-0037-149663
Chief Roofing,(604) 815-3416,,,,,PO Box 3276 ,Garibaldi Highlands,BC,V0N 1T0,https://www.bbb.org/ca/bc/garibaldi-highlands/profile/roofing-contractors/chief-roofing-0037-1298086
Peninsula Flat Roofing,(250) 208-1932,,,,,1530 McTavish Rd ,North Saanich,BC,V8L 5T3,https://www.bbb.org/ca/bc/north-saanich/profile/roofing-contractors/peninsula-flat-roofing-0047-235959967
Cypress Roofing Ltd.,(604) 929-3837,(604) 929-3837,,,,1695 Emerson Ct ,North Vancouver,BC,V7H 2Y6,https://www.bbb.org/ca/bc/north-vancouver/profile/roofing-contractors/cypress-roofing-ltd-0037-109784
Holland Roofing Services,(604) 685-8688,,,,,255 2416 Main St ,Vancouver,BC,V5T 3E2,https://www.bbb.org/ca/bc/vancouver/profile/roofing-contractors/holland-roofing-services-0037-1233770
GVRD Roofing Inc.,(604) 445-4873,,,,,202 141 W 7 Ave ,Vancouver,BC,V5Y 1L8,https://www.bbb.org/ca/bc/vancouver/profile/roofing-contractors/gvrd-roofing-inc-0037-1275929
Spratt Emanuel Engineering Ltd.,(604) 872-1211,(604) 872-1274,,,,2348 Yukon St ,Vancouver,BC,V5Y 3T6,https://www.bbb.org/ca/bc/vancouver/profile/professional-engineer/spratt-emanuel-engineering-ltd-0037-125249
Addmore Quality Systems,(604) 462-0817,(604) 466-1473,(604) 466-1479,,,12218 264 St ,Maple Ridge,BC,V2W 1P1,https://www.bbb.org/ca/bc/maple-ridge/profile/roofing-contractors/addmore-quality-systems-0037-140356
Red Fox Roofing,(778) 888-5073,,,,,633 East 4th St ,North Vancouver,BC,V7L 1J9,https://www.bbb.org/ca/bc/north-vancouver/profile/roofing-contractors/red-fox-roofing-0037-1258335
William Thomas Roofing,(604) 261-2015,,,,,6650 Balsam St ,Vancouver,BC,V6B 5W7,https://www.bbb.org/ca/bc/vancouver/profile/roofing-consultants/william-thomas-roofing-0037-212334
Roof Revolution Ltd,(604) 637-6644,,,,,600 1285 W Broadway ,Vancouver,BC,V6H 3X8,https://www.bbb.org/ca/bc/vancouver/profile/roofing-contractors/roof-revolution-ltd-0037-1255673
Green Roofing & Exteriors Ltd.,(778) 889-5019,,,,,Private Address ,Vancouver,BC,V6B 0M9,https://www.bbb.org/ca/bc/vancouver/profile/roofing-contractors/green-roofing-exteriors-ltd-0037-1384905
Power Sense Home Improvements,,,,,,200 100 Royal Park S Ave ,West Vancouver,BC,V7T 1A2,https://www.bbb.org/ca/bc/west-vancouver/profile/home-additions/power-sense-home-improvements-0037-1287453
The Roofing Doctor,(604) 506-5077,,,,,30690 Keystone Ave ,Mission,BC,V4S 1G5,https://www.bbb.org/ca/bc/mission/profile/roofing-contractors/the-roofing-doctor-0037-1225825
Calysta Consulting,(604) 854-8222,(604) 854-8111,(604) 541-1331,(778) 242-8220,(604) 541-6136,702 -30711 Simpson Rd ,Abbotsford,BC,V2T 6Y7,https://www.bbb.org/ca/bc/abbotsford/profile/roofing-consultants/calysta-consulting-0037-119180
Apex Building Sciences Inc.,(604) 575-8220,,,,,301D 30721 Simpson Rd ,Abbotsford,BC,V2T 6C7,https://www.bbb.org/ca/bc/abbotsford/profile/engineering-consultant/apex-building-sciences-inc-0037-1249689
Valleyview Roofing and Cleaning Solutions,(604) 644-7220,,,,,3537 Summit Drive ,Abbotsford,BC,V2T 6S4,https://www.bbb.org/ca/bc/abbotsford/profile/roofing-contractors/valleyview-roofing-and-cleaning-solutions-0037-1383680
Super Star Roofing Ltd,(604) 866-1212,,,,,PO Box 2593 ,Abbotsford,BC,V2T 6R3,https://www.bbb.org/ca/bc/abbotsford/profile/roofing-contractors/super-star-roofing-ltd-0037-1246190
Sky View Roofing Ltd,(604) 317-4729,,,,,32428 Grebe Cr ,Mission,BC,V2V 5C4,https://www.bbb.org/ca/bc/mission/profile/roofing-contractors/sky-view-roofing-ltd-0037-1162888
IG Roofing Ltd.,(778) 241-5237,,,,,3353 Nakusp Dr ,Abbotsford,BC,V2T 5C9,https://www.bbb.org/ca/bc/abbotsford/profile/roofing-contractors/ig-roofing-ltd-0037-1368948
First Class Roofing Ltd,(604) 807-4119,,,,,33106 Huntingdon Rd ,Abbotsford,BC,V2S 7Z3,https://www.bbb.org/ca/bc/abbotsford/profile/roofing-consultants/first-class-roofing-ltd-0037-162043
Platinum Cedar Sales Ltd.,(604) 615-2534,(604) 756-0825,,,,PO Box 8000-482 ,Abbotsford,BC,V2S 6H1,https://www.bbb.org/ca/bc/abbotsford/profile/roofing-equipment/platinum-cedar-sales-ltd-0037-1284100
Alliance Truss Ltd.,(604) 574-3525,,,,,890 Riverside Rd ,Abbotsford,BC,V2S 7P6,https://www.bbb.org/ca/bc/abbotsford/profile/trusses/alliance-truss-ltd-0037-1286530
Westcoast Roofing Systems Ltd.,(604) 926-7325,,,,,435 E 15 St ,North Vancouver,BC,V7L 2R9,https://www.bbb.org/ca/bc/north-vancouver/profile/roofing-contractors/westcoast-roofing-systems-ltd-0037-116045
Sunset Roofing Ltd.,(604) 313-5185,,,,,,Vancouver,BC,V6B 3M1,https://www.bbb.org/ca/bc/vancouver/profile/roofing-contractors/sunset-roofing-ltd-0037-1372781
Norton Roofing Systems Ltd.,(604) 281-4759,,,,,1500 701 W Georgia St ,Vancouver,BC,V7Y 1C6,https://www.bbb.org/ca/bc/vancouver/profile/roofing-contractors/norton-roofing-systems-ltd-0037-1279486
Dial-A-Roof LTD,(604) 618-7255,,,,,C 1241 E27 St ,North Vancouver,BC,V7J 1S4,https://www.bbb.org/ca/bc/north-vancouver/profile/roofing-contractors/dial-a-roof-ltd-0037-1286557
Lonsdale Roofing,(604) 722-1105,,,,,401 201 W 1 ,North Vancouver,BC,V7M 1B3,https://www.bbb.org/ca/bc/north-vancouver/profile/roofing-consultants/lonsdale-roofing-0037-1145112
NorthVan Roofing,(604) 900-1902,,,,,252 2nd St W ,North Vancouver,BC,V7M 1C8,https://www.bbb.org/ca/bc/north-vancouver/profile/roofing-contractors/northvan-roofing-0037-1280392
MPG Roofing Ltd.,(604) 250-4019,,,,,200 1892 W Broadway Ave ,Vancouver,BC,V6J 1Y9,https://www.bbb.org/ca/bc/vancouver/profile/roofing-contractors/mpg-roofing-ltd-0037-1179795
Trimstyle Consulting Inc.,(604) 909-7777,,,,,200 1892 W Broadway ,Vancouver,BC,V5Y 1H4,https://www.bbb.org/ca/bc/vancouver/profile/roofing-consultants/trimstyle-consulting-inc-0037-1245753
Coastal Alpine Roofing & Drainage,(604) 773-5697,,,,,PO Box 38664 MPO ,North Vancouver,BC,V7M 3N1,https://www.bbb.org/ca/bc/north-vancouver/profile/drainage-contractors/coastal-alpine-roofing-drainage-0037-1195186
Westcoast Wood Distribution Ltd,(604) 803-3881,,,,,8514 Mclean St ,Mission,BC,V4S 1H3,https://www.bbb.org/ca/bc/mission/profile/siding-contractors/westcoast-wood-distribution-ltd-0037-1285741
High Definition Roofing Ltd.,(250) 208-8866,(250) 732-1366,,,,162 Second St ,Duncan,BC,V9L 1R4,https://www.bbb.org/ca/bc/duncan/profile/roofing-contractors/high-definition-roofing-ltd-0047-2519529
Parker Johnston Industries Ltd.,(250) 382-9181,,,,,6791 Oldfield Rd ,Saanichton,BC,V8M 2A2,https://www.bbb.org/ca/bc/saanichton/profile/roofing-contractors/parker-johnston-industries-ltd-0047-795
Top Notch Roofing Inc.,(604) 745-1099,,,,,10335 Wildrose Dr ,Rosedale,BC,V0X 1X1,https://www.bbb.org/ca/bc/rosedale/profile/roofing-contractors/top-notch-roofing-inc-0037-1203321
Custom Roofing Inc.,(250) 882-8357,,,,,6428 Anndon Pl ,Victoria,BC,V8Z 5R8,https://www.bbb.org/ca/bc/victoria/profile/roofing-contractors/custom-roofing-inc-0047-204745522
Alpha Roofing & Cladding Inc.,(250) 544-0169,,,,,2 - 6654 Butler Cres ,Saanichton,BC,V8M 2G8,https://www.bbb.org/ca/bc/saanichton/profile/roofing-contractors/alpha-roofing-cladding-inc-0047-1074287
Central Isle Roofing Services,(250) 954-7133,,,,,V9X1B7 ,Nanaimo,BC,V9X 1B7,https://www.bbb.org/ca/bc/nanaimo/profile/roofing-contractors/central-isle-roofing-services-0047-235958823
M&M Roofing,(250) 686-6169,,,,,4524 Vantreight Drive ,Victoria,BC,V8N 3W7,https://www.bbb.org/ca/bc/victoria/profile/roofing-contractors/mm-roofing-0047-1915642
Vickers Contracting Inc.,(604) 997-1292,(778) 878-6448,,,,6 45762 Safflower Cres ,Chilliwack,BC,V2R 0S4,https://www.bbb.org/ca/bc/chilliwack/profile/building-contractors/vickers-contracting-inc-0037-2401661
Ken Poskitt Roofing,(250) 360-0078,,,,,601-7835 East Saanich Rd ,Saanichton,BC,V8M 2B4,https://www.bbb.org/ca/bc/saanichton/profile/roofing-contractors/ken-poskitt-roofing-0047-17264
P.W. McCallum Roofing Ltd.,(250) 884-0305,,,,,#11 - 850 Shawnigan-Mill Bay Rd ,Mill Bay,BC,V0R 2P2,https://www.bbb.org/ca/bc/mill-bay/profile/roofing-contractors/pw-mccallum-roofing-ltd-0047-184019236
Diamond Tip Roofing,(604) 966-4810,(778) 770-0158,,,,P.O. Box 3725 ,Garibaldi Highlands,BC,V0N 1T0,https://www.bbb.org/ca/bc/garibaldi-highlands/profile/roofing-contractors/diamond-tip-roofing-0037-1299697
Garibaldi Roofing Co. Ltd.,(604) 898-2285,,,,,PO Box 2874 ,Garibaldi Highlands,BC,V0N 1T0,https://www.bbb.org/ca/bc/garibaldi-highlands/profile/roofing-contractors/garibaldi-roofing-co-ltd-0037-1255670
Island Wide Roofing,(250) 709-7967,(250) 710-5781,(250) 749-3113,,,43 Powell St ,Duncan,BC,V9L 2V8,https://www.bbb.org/ca/bc/duncan/profile/roofing-contractors/island-wide-roofing-0047-220716734
Scotts Roofing & Exteriors Ltd.,(778) 539-6801,,,,,45244 Stevenson Rd ,Chilliwack,BC,V2R 1L9,https://www.bbb.org/ca/bc/chilliwack/profile/roofing-contractors/scotts-roofing-exteriors-ltd-0037-2399477
BCR Roof Contracting Ltd.,(604) 906-0266,,,,,2372 38064 Cleveland Ave ,Squamish,BC,V8B 0A1,https://www.bbb.org/ca/bc/squamish/profile/roofing-contractors/bcr-roof-contracting-ltd-0037-1384192
Surface Exteriors,(604) 938-3538,,,,,312- 1201 Commercial Way ,Squamish,BC,V8B 0V1,https://www.bbb.org/ca/bc/squamish/profile/building-envelope-restoration/surface-exteriors-0037-1372079
Millwall Roofing,(604) 763-1930,,,,,,North Vancouver,BC,V7L 1G1,https://www.bbb.org/ca/bc/north-vancouver/profile/roofing-contractors/millwall-roofing-0037-1253188
Smart Roofer,(778) 855-1066,,,,,NO Cetrain ,Richmond,BC,V7C 5M8,https://www.bbb.org/ca/bc/richmond/profile/commercial-roofing/smart-roofer-0037-1285356
Park View Homes Ltd.,(604) 825-2000,,,,,,Aldergrove,BC,V4W 2T9,https://www.bbb.org/ca/bc/aldergrove/profile/home-builders/park-view-homes-ltd-0037-1376022
Gelinas Roofing Ltd.,(604) 720-5054,,,,,25663 112 Ave ,Maple Ridge,BC,V2W 1H1,https://www.bbb.org/ca/bc/maple-ridge/profile/roofing-contractors/gelinas-roofing-ltd-0037-1247020
Delta Sierra Construction,(604) 215-3335,,,,,1916 Triumph St ,Vancouver,BC,V5L 1K5,https://www.bbb.org/ca/bc/vancouver/profile/construction/delta-sierra-construction-0037-1285865
Accurate Roofing Ltd.,(604) 250-3939,,,,,312 2818 Main St ,Vancouver,BC,V5T 0C1,https://www.bbb.org/ca/bc/vancouver/profile/roofing-contractors/accurate-roofing-ltd-0037-1137389
Excel Roofing,(604) 351-7994,,,,,607 12835 Lilley Dr ,Maple Ridge,BC,V2W 0G1,https://www.bbb.org/ca/bc/maple-ridge/profile/roofing-contractors/excel-roofing-0037-2401588
Amex Roofing and Drainage Ltd.,(604) 985-1859,,,,,323 Lynn Ave ,North Vancouver,BC,V7J 2C4,https://www.bbb.org/ca/bc/north-vancouver/profile/roofing-contractors/amex-roofing-and-drainage-ltd-0037-1285607
Professional Home Builders Ltd.,(604) 600-7270,,,,,2408 McKessock Ave ,Richmond,BC,V6X 2N9,https://www.bbb.org/ca/bc/richmond/profile/home-builders/professional-home-builders-ltd-0037-1374435
Wescan Construction,(604) 644-2384,,,,,451 E 60 Avenue ,Vancouver,BC,V5X 2A1,https://www.bbb.org/ca/bc/vancouver/profile/general-contractor/wescan-construction-0037-1366562
Shawn's Roofing Services Ltd.,(604) 526-2441,,,,,-- ,Richmond,BC,V7A 1M6,https://www.bbb.org/ca/bc/richmond/profile/roofing-contractors/shawns-roofing-services-ltd-0037-1375978
Dignity Roofing & Exteriors Corp.,(604) 330-9903,,,,,,Richmond,BC,V6Y 0A8,https://www.bbb.org/ca/bc/richmond/profile/roofing-contractors/dignity-roofing-exteriors-corp-0037-2414652
Serpentine Cedar Roofing Ltd.,(604) 467-1804,,,,,8910 256 St ,Langley,BC,V1M 3N7,https://www.bbb.org/ca/bc/langley/profile/roofing-contractors/serpentine-cedar-roofing-ltd-0037-1231869
Atlas-Apex,(604) 273-0845,,,,,9211 River Dr ,Richmond,BC,V6X 1Z1,https://www.bbb.org/ca/bc/richmond/profile/roofing-contractors/atlas-apex-0037-1292394
Aujla Construction& Renovation,(604) 220-1119,,,,,P.O. Box# 81214 ,Burnaby,BC,V5H 4K2,https://www.bbb.org/ca/bc/burnaby/profile/commercial-roofing/aujla-construction-renovation-0037-1281984
Commercial Drive Contracting Ltd,(604) 836-3985,,,,,-- ,Burnaby,BC,V5C 3C9,https://www.bbb.org/ca/bc/burnaby/profile/roofing-contractors/commercial-drive-contracting-ltd-0037-2401639
Magnum Roofing Ltd.,(604) 720-3432,,,,,4414 William St ,Burnaby,BC,V5C 3K1,https://www.bbb.org/ca/bc/burnaby/profile/roofing-contractors/magnum-roofing-ltd-0037-1145217
Big Gun's Roofing Ltd.,(604) 816-3658,,,,,,Maple Ridge,BC,V4R 0G1,https://www.bbb.org/ca/bc/maple-ridge/profile/roofing-contractors/big-guns-roofing-ltd-0037-1253521
Alpine Roofing Ltd,(604) 313-8029,,,,,240 St. ,Maple Ridge,BC,V2W 1Y1,https://www.bbb.org/ca/bc/maple-ridge/profile/roofing-contractors/alpine-roofing-ltd-0037-1365005
Wolf Roofing and Property Maintenance,(778) 987-4916,,,,,Private Address ,Burnaby,BC,V5H 4A8,https://www.bbb.org/ca/bc/burnaby/profile/roofing-contractors/wolf-roofing-and-property-maintenance-0037-1377945
Tymey Roofing,(604) 376-5101,,,,,430 Montgomery St ,Coquitlam,BC,V3K 5G6,https://www.bbb.org/ca/bc/coquitlam/profile/roofing-contractors/tymey-roofing-0037-1383898
BTR Roofing,(778) 321-4019,,,,,21960 River Rd ,Maple Ridge,BC,V2X 2C3,https://www.bbb.org/ca/bc/maple-ridge/profile/roofing-contractors/btr-roofing-0037-1383897
JG Wells Roofing and Construction,(778) 512-7255,(778) 338-4499,,,,3121 Patullo Cres ,Coquitlam,BC,V3E 2R3,https://www.bbb.org/ca/bc/coquitlam/profile/roofing-contractors/jg-wells-roofing-and-construction-0037-2403253
Muscle Stronger Roofing Ltd.,(778) 896-9111,,,,,Private Address ,Burnaby,BC,V5A 1H9,https://www.bbb.org/ca/bc/burnaby/profile/roofing-contractors/muscle-stronger-roofing-ltd-0037-2396517
VCP Construction Ltd.,(604) 600-4445,,,,,2383 Burquitlam Dr ,Vancouver,BC,V5P 2P3,https://www.bbb.org/ca/bc/vancouver/profile/home-improvement/vcp-construction-ltd-0037-1293361
Elevate Roofing & Waterproofing Ltd.,(778) 242-5421,,,,,5043 Halifax St ,Burnaby,BC,V5B 2N4,https://www.bbb.org/ca/bc/burnaby/profile/roofing-contractors/elevate-roofing-waterproofing-ltd-0037-1289798
Lion Roofing,(604) 375-7282,,,,,,Maple Ridge,BC,V2X 3Y1,https://www.bbb.org/ca/bc/maple-ridge/profile/flat-roofing-contractors/lion-roofing-0037-1301131
Repp Industries Roofing Ltd.,(604) 853-8394,,,,,B 2629 Progressive Way ,Abbotsford,BC,V2T 6H8,https://www.bbb.org/ca/bc/abbotsford/profile/roofing-contractors/repp-industries-roofing-ltd-0037-191558
Contour Concrete Ltd.,(604) 392-3380,,,,,51614 Old Yale RD ,Rosedale,BC,V0X 1X2,https://www.bbb.org/ca/bc/chilliwack/profile/concrete-contractors/contour-concrete-ltd-0037-1266425
FoxMan Home & Garden Services,(604) 347-5905,,,,,316 425 W 8 Ave ,Vancouver,BC,V5Y 3Z5,https://www.bbb.org/ca/bc/vancouver/profile/window-cleaning/foxman-home-garden-services-0037-1263124
Fairview Gutters and Exteriors Ltd.,(604) 874-7246,,,,,844 W 19 Ave ,Vancouver,BC,V5Z 1X3,https://www.bbb.org/ca/bc/vancouver/profile/gutter-contractor/fairview-gutters-and-exteriors-ltd-0037-1273981
Weatherguard Gutters Inc.,(604) 574-1985,(604) 574-1986,,,,B145 5525 272 St ,Langley,BC,V4W 1P1,https://www.bbb.org/ca/bc/langley/profile/gutters/weatherguard-gutters-inc-0037-133998
Green Grads Window and Gutter Cleaning,(604) 992-0863,,,,,657 - 3381 Cambie Str ,Vancouver,BC,V5Z 4R3,https://www.bbb.org/ca/bc/vancouver/profile/gutters/green-grads-window-and-gutter-cleaning-0037-1274623
Fresh & Clean Management co.,(604) 928-4045,,,,,307 1030 W 14 Ave ,Vancouver,BC,V6H 1P3,https://www.bbb.org/ca/bc/vancouver/profile/carpet-and-rug-cleaners/fresh-clean-management-co-0037-1287152
Peerless Painting and Contracting Ltd.,(604) 430-1118,,,,,720 999 W Broadway ,Vancouver,BC,V5Z 1K5,https://www.bbb.org/ca/bc/vancouver/profile/painting-contractors/peerless-painting-and-contracting-ltd-0037-1233346
Citywide Gutters & Exteriors Ltd,(604) 868-1373,,,,,101 1001 W Broadway Unit 108 ,Vancouver,BC,V6H 4E4,https://www.bbb.org/ca/bc/vancouver/profile/gutters/citywide-gutters-exteriors-ltd-0037-1254801
Bioules Home and Garden,(604) 949-1399,(604) 462-7701,,,,27530 Bell Ave ,Maple Ridge,BC,V2W 1R7,https://www.bbb.org/ca/bc/maple-ridge/profile/landscape-contractors/bioules-home-and-garden-0037-1249358
Greater Vancouver Gutters Inc.,(604) 648-9815,,,,,60638 2888 Granville St ,Vancouver,BC,V6H 3J5,https://www.bbb.org/ca/bc/vancouver/profile/gutters/greater-vancouver-gutters-inc-0037-1275358
Ajax Property Services,(604) 987-5358,,,,,302 161 Keith Rd E ,North Vancouver,BC,V7L 1V1,https://www.bbb.org/ca/bc/north-vancouver/profile/window-cleaning/ajax-property-services-0037-197913
CleanWerx,(800) 288-9379,,,,,210 1200 W 73 Ave ,Vancouver,BC,V6P 6G5,https://www.bbb.org/ca/bc/vancouver/profile/property-maintenance/cleanwerx-0037-1244876
Shack Shine,(888) 808-7751,,,,,301 887 Great Northern Way ,Vancouver,BC,V5T 4T5,https://www.bbb.org/ca/bc/vancouver/profile/window-cleaning/shack-shine-0037-1279983
Byron's Window Cleaning,(604) 803-6256,,,,,2041 Parkhurst Rd ,North Vancouver,BC,V7J 1J1,https://www.bbb.org/ca/bc/north-vancouver/profile/gutters/byrons-window-cleaning-0037-1268597
Black Tie Property Services Inc.,(604) 629-9055,,,,,1840 Triumph St ,Vancouver,BC,V5L 1K3,https://www.bbb.org/ca/bc/vancouver/profile/property-maintenance/black-tie-property-services-inc-0037-1264438
M T Gutters,(604) 612-5388,,,,,25586 104 Ave ,Maple Ridge,BC,V2W 1K5,https://www.bbb.org/ca/bc/maple-ridge/profile/gutters/m-t-gutters-0037-177920
Clean Break Home Services,(778) 200-2141,,,,,160 6631 Westminster Hwy ,Richmond,BC,V7C 4V4,https://www.bbb.org/ca/bc/richmond/profile/property-maintenance/clean-break-home-services-0037-1277403
Ocean Tides Services,(604) 839-3177,,,,,175 8623 Granville St ,Vancouver,BC,V6P 5A2,https://www.bbb.org/ca/bc/vancouver/profile/gutters/ocean-tides-services-0037-1256327
Grime Fighters Building Maintenance,(778) 237-6486,,,,,107 330 E 7 Ave ,Vancouver,BC,V5T 4K5,https://www.bbb.org/ca/bc/vancouver/profile/cleaning-systems/grime-fighters-building-maintenance-0037-1249564
Seymour Lawn Maintenance,(604) 990-1252,,,,,718 333 Brooksbank Ave ,North Vancouver,BC,V7J 3V8,https://www.bbb.org/ca/bc/north-vancouver/profile/lawn-maintenance/seymour-lawn-maintenance-0037-1203116
City View Systems Inc.,(604) 761-1394,,,,,473 E 54 Ave ,Vancouver,BC,V5X 1L3,https://www.bbb.org/ca/bc/vancouver/profile/window-cleaning/city-view-systems-inc-0037-1246293
Holland Home Services,(604) 325-2032,,,,,8155 Main St ,Vancouver,BC,V5X 3L2,https://www.bbb.org/ca/bc/vancouver/profile/window-cleaning/holland-home-services-0037-113760
LL Supreme Green Home Services,(778) 893-3566,,,,,525 E 48 Ave ,Vancouver,BC,V5W 2E4,https://www.bbb.org/ca/bc/vancouver/profile/pressure-washing/ll-supreme-green-home-services-0037-1271243
Rainbow Angels Home Inc.,(778) 885-0771,,,,,996 E 33 Ave ,Vancouver,BC,V5V 3A6,https://www.bbb.org/ca/bc/vancouver/profile/home-improvement/rainbow-angels-home-inc-0037-1268786
Nurture Property Maintenance Inc.,(604) 209-3445,,,,,161 8151B Ryan Rd ,Richmond,BC,V7A 2E4,https://www.bbb.org/ca/bc/richmond/profile/property-maintenance/nurture-property-maintenance-inc-0037-1292356
Busy Bee Gutters,(604) 788-3991,,,,,Private Address ,Delta,BC,V4M 1E7,https://www.bbb.org/ca/bc/delta/profile/gutters/busy-bee-gutters-0037-126381
ClearWest Home Services,(604) 710-3581,,,,,113 8643 Logan St. ,Vancouver,BC,V6P 6Z3,https://www.bbb.org/ca/bc/vancouver/profile/gutters/clearwest-home-services-0037-1229660
A Glass Act Window Cleaners & Building Maintenace Ltd.,(604) 435-3550,,,,,155-C Riverside Dr ,North Vancouver,BC,V7H 1T6,https://www.bbb.org/ca/bc/north-vancouver/profile/window-cleaning/a-glass-act-window-cleaners-building-maintenace-ltd-0037-138798
Omega Home and Property Services,(604) 839-3759,,,,,318 7435 Moffat Rd ,Richmond,BC,V6Y 1X9,https://www.bbb.org/ca/bc/richmond/profile/gutters/omega-home-and-property-services-0037-1260238
Henry's Home Services,(604) 315-7916,,,,,2162 Old Dollarton Rd ,North Vancouver,BC,V7H 1A7,https://www.bbb.org/ca/bc/north-vancouver/profile/pressure-washing/henrys-home-services-0037-1299361
Westcoast Roof Inspection Services Ltd.,(250) 743-2913,,,,,665 Butterfield Rd ,Mill Bay,BC,V0R 2P4,https://www.bbb.org/ca/bc/mill-bay/profile/roofing-consultants/westcoast-roof-inspection-services-ltd-0047-1073509
Stephenson Roofing,(604) 760-9929,,,,,8915 Cedar St ,Mission,BC,V4S 1A3,https://www.bbb.org/ca/bc/mission/profile/roofing-contractors/stephenson-roofing-0037-1296359
Beachrock Construction,(604) 996-8227,,,,,PO Box 16099 ,Abbotsford,BC,V3G 0E5,https://www.bbb.org/ca/bc/abbotsford/profile/construction/beachrock-construction-0037-1383007
Rising Structures Ltd.,(604) 798-9684,,,,,43576 Keith Wilson Rd ,Chilliwack,BC,V2R 4B4,https://www.bbb.org/ca/bc/chilliwack/profile/building-contractors/rising-structures-ltd-0037-1293022
Supreme Roofing and Sheet Metal Ltd.,(604) 999-1287,(604) 593-0200,(604) 721-7185,,,212 Mackay Rd. ,North Vancouver,BC,V7P 3H4,https://www.bbb.org/ca/bc/north-vancouver/profile/commercial-roofing/supreme-roofing-and-sheet-metal-ltd-0037-1268810
Vithu Developments Ltd.,(604) 767-3036,,,,,3421 Puget Dr ,Vancouver,BC,V6L 2T6,https://www.bbb.org/ca/bc/vancouver/profile/home-improvement/vithu-developments-ltd-0037-1302709
CleanRLook Property Services,(604) 831-1791,,,,,23691 114A Ave ,Maple Ridge,BC,V2W 2A4,https://www.bbb.org/ca/bc/maple-ridge/profile/property-maintenance/cleanrlook-property-services-0037-1261870
Gaia Landscape Services & Construction,(604) 506-3058,,,,,980 Willingdon ,Burnaby,BC,V5C 2K6,https://www.bbb.org/ca/bc/port-coquitlam/profile/landscape-contractors/gaia-landscape-services-construction-0037-1275810
McKennas Maintenance,(604) 264-8881,,,,,9780 Shell Rd ,Richmond,BC,V7A 3X1,https://www.bbb.org/ca/bc/richmond/profile/gutters/mckennas-maintenance-0037-219341
Champion Property Services Inc.,(604) 230-0627,,,,,175 N Ranelagh Ave ,Burnaby,BC,V5B 1H7,https://www.bbb.org/ca/bc/burnaby/profile/property-maintenance/champion-property-services-inc-0037-130900
No Monkey Biz Inc.,(604) 307-8323,,,,,,Vancouver,BC,V5P 1E7,https://www.bbb.org/ca/bc/vancouver/profile/pressure-washing/no-monkey-biz-inc-0037-1298487
First Class Window Cleaning,(778) 896-8653,,,,,3603 Napier St ,Vancouver,BC,V5K 2Y1,https://www.bbb.org/ca/bc/vancouver/profile/window-cleaning/first-class-window-cleaning-0037-1236535
K & L Windows & Gutters,(604) 879-1341,,,,,3504 William St ,Vancouver,BC,V5K 2Z7,https://www.bbb.org/ca/bc/vancouver/profile/gutter-cleaning/k-l-windows-gutters-0037-172839
Spartan Exteriors Ltd,(778) 572-0999,,,,,10468 McEachern Street ,Maple Ridge,BC,V2W 0H8,https://www.bbb.org/ca/bc/maple-ridge/profile/siding-contractors/spartan-exteriors-ltd-0037-1280235
L S Guttertech Ltd,(604) 856-0448,(778) 240-9398,,,,25280 64 Ave ,Aldergrove,BC,V4W 1H3,https://www.bbb.org/ca/bc/aldergrove/profile/gutters/l-s-guttertech-ltd-0037-1248250
J F B Pressure Washing,(604) 468-9274,(604) 720-5261,,,,13310 235 St ,Maple Ridge,BC,V4R 2S6,https://www.bbb.org/ca/bc/maple-ridge/profile/exterior-building-cleaning/j-f-b-pressure-washing-0037-1230321
Colourwise Inc,(778) 232-4063,,,,,3162 Charles St. ,Vancouver,BC,V5K 3B8,https://www.bbb.org/ca/bc/vancouver/profile/commercial-painting-contractors/colourwise-inc-0037-1254694
Stratapro Contracting Ltd.,(604) 721-9724,,,,,21714 123 Ave ,Maple Ridge,BC,V2X 4C3,https://www.bbb.org/ca/bc/maple-ridge/profile/deck-builder/stratapro-contracting-ltd-0037-1281996
ProRise Painting & Gutters,(604) 338-4817,,,,,1120 853 Seaborne Ave ,Port Coquitlam,BC,V3B 8G8,https://www.bbb.org/ca/bc/port-coquitlam/profile/painting-contractors/prorise-painting-gutters-0037-1259208
Aqua-Mobile Gutters & Property Maintenance,(604) 626-2443,,,,,2511 200 St ,Langley,BC,V2Z 1Y4,https://www.bbb.org/ca/bc/langley/profile/gutters/aqua-mobile-gutters-property-maintenance-0037-1272075
Nick's Gutters Ltd.,(604) 475-6610,,,,,20355 Walnut Cr ,Maple Ridge,BC,V2X 9N8,https://www.bbb.org/ca/bc/maple-ridge/profile/cleaning-services/nicks-gutters-ltd-0037-1285646
Four Seasons Home & Business Property Services Ltd,(604) 653-9698,,,,,11669 Waresley St. ,Maple Ridge,BC,V2X 8Y2,https://www.bbb.org/ca/bc/maple-ridge/profile/landscape-contractors/four-seasons-home-business-property-services-ltd-0037-1371677
Dave's Pressure Washing & Gutter Cleaning,(604) 889-4925,,,,,PO Box 273 8888 Nesh St ,Langley,BC,V1M 3S7,https://www.bbb.org/ca/bc/langley/profile/cleaning-systems/daves-pressure-washing-gutter-cleaning-0037-156887
Grant's Home Maintenance,(604) 936-2808,,,,,184 34A - 2755 Lougheed Highway ,Port Coquitlam,BC,V3B 5Y9,https://www.bbb.org/ca/bc/port-coquitlam/profile/property-maintenance/grants-home-maintenance-0037-1291036
Coast Mountain Gutters,(604) 290-4677,,,,,P.O. Box 54 Maple Ridge ,Maple Ridge,BC,V2X 7E9,https://www.bbb.org/ca/bc/maple-ridge/profile/gutters/coast-mountain-gutters-0037-1265416
Citadel Roofing & Building Maintenance Ltd.,(604) 612-3601,,,,,11663 210 St ,Maple Ridge,BC,V2X 4Y2,https://www.bbb.org/ca/bc/maple-ridge/profile/roofing-contractors/citadel-roofing-building-maintenance-ltd-0037-1280846
Best on Top Roofing,(250) 797-2307,,,,,451 Poets Trail Dr ,Nanaimo,BC,V9R 7B1,https://www.bbb.org/ca/bc/nanaimo/profile/roofing-contractors/best-on-top-roofing-0047-235955404
VanderLeek Roofing Inc.,(403) 700-6580,(250) 755-1110,(250) 880-3179,,,1490 Townsite Rd ,Nanaimo,BC,V9S 1N1,https://www.bbb.org/ca/ab/calgary/profile/roofing-contractors/vanderleek-roofing-inc-0017-77978
Argo Metal Works Inc.,(250) 514-8039,,,,,,Victoria,BC,V8P 2Z2,https://www.bbb.org/ca/bc/victoria/profile/metal-cladding/argo-metal-works-inc-0047-235966936
Flatout Roofing Ltd.,(250) 418-5818,,,,,1101 Skeena Pl ,Victoria,BC,V8Z 1L8,https://www.bbb.org/ca/bc/victoria/profile/roofing-contractors/flatout-roofing-ltd-0047-195145103
Infinity Roofing,(250) 661-3722,,,,,3892 Duke Rd ,Victoria,BC,V9C 4A5,https://www.bbb.org/ca/bc/victoria/profile/roofing-contractors/infinity-roofing-0047-194522184
Square Deal Roofing Ltd.,(250) 382-1452,,,,,2548 Vancouver St ,Victoria,BC,V8T 4A7,https://www.bbb.org/ca/bc/victoria/profile/roofing-contractors/square-deal-roofing-ltd-0047-4734
Magill Metal Ltd,(250) 217-5949,,,,,#5-5616 Hillside Ave ,Victoria,BC,V8T 1Z2,https://www.bbb.org/ca/bc/victoria/profile/sheet-metal-contractor/magill-metal-ltd-0047-235949780
All About Gutters Inc.,(778) 873-6136,,,,,19708 16 Ave ,Langley,BC,V2Z 1K1,https://www.bbb.org/ca/bc/langley/profile/gutters/all-about-gutters-inc-0037-1375983
Look N Smile,(604) 465-6435,,,,,205 10 124A Ave ,Maple Ridge,BC,V2X 0A3,https://www.bbb.org/ca/bc/maple-ridge/profile/gutter-cleaning/look-n-smile-0037-1376324
Ryan B's Exterior Home Maintenance,(778) 919-7926,,,,,21071 118 Ave ,Maple Ridge,BC,V2X 8B7,https://www.bbb.org/ca/bc/maple-ridge/profile/gutters/ryan-bs-exterior-home-maintenance-0037-1273359
New Casa Painters,(778) 558-3206,,,,,941 4974 Kingsway ,Burnaby,BC,V5H 4M9,https://www.bbb.org/ca/bc/burnaby/profile/painting-contractors/new-casa-painters-0037-1369459
Alma Roofing & Chimney Service,(604) 763-4221,,,,,941 Prairie Ave ,Port Coquitlam,BC,V3C 6L7,https://www.bbb.org/ca/bc/port-coquitlam/profile/chimney-cleaning/alma-roofing-chimney-service-0037-1267193
Blue Heron Projects,(604) 780-3566,,,,,304 1148 Westwood St ,Coquitlam,BC,V3B 7M5,https://www.bbb.org/ca/bc/coquitlam/profile/gutter-contractor/blue-heron-projects-0037-1251016
Coastal Gutters,(778) 861-7963,,,,,7 6363 McKay Ave ,Burnaby,BC,V5H 2W8,https://www.bbb.org/ca/bc/burnaby/profile/gutters/coastal-gutters-0037-1242730
Corso Industries Ltd,(778) 863-0426,,,,,PO Box 217 2133 2850 Shaughnessy St ,Port Coquitlam,BC,V3B 6K5,https://www.bbb.org/ca/bc/port-coquitlam/profile/home-improvement/corso-industries-ltd-0037-1262336
WorkPro Window Gutter & Pressure Cleaning Ltd.,(604) 328-0865,,,,,2560 Trillium Pl ,Coquitlam,BC,V3E 2G3,https://www.bbb.org/ca/bc/coquitlam/profile/window-cleaning/workpro-window-gutter-pressure-cleaning-ltd-0037-1274317
Rodaje Construction,(604) 475-1874,,,,,3387 Darwin Ave ,Coquitlam,BC,V3B 0C9,https://www.bbb.org/ca/bc/coquitlam/profile/general-contractor/rodaje-construction-0037-1385741
Adequate Solutions,(604) 349-7506,,,,,1526 Maplehurst Cir ,Burnaby,BC,V5A 3Z1,https://www.bbb.org/ca/bc/burnaby/profile/gutter-contractor/adequate-solutions-0037-1286665
Seamless Gutter Systems,(778) 999-8649,,,,,43048 Cascade ,Burnaby,BC,V5G 4S2,https://www.bbb.org/ca/bc/burnaby/profile/gutters/seamless-gutter-systems-0037-1369139
H & I Roofing Ltd.,(604) 838-2890,,,,,25525 104 Ave ,Maple Ridge,BC,V2W 1K5,https://www.bbb.org/ca/bc/maple-ridge/profile/roofing-contractors/h-i-roofing-ltd-0037-219791
Greystone Tile and Stone,(604) 744-0410,,,,,36178 Dawn Crescent ,Abbotsford,BC,V3G 1C6,https://www.bbb.org/ca/bc/abbotsford/profile/tile-roofing-contractors/greystone-tile-and-stone-0037-1275609
Capitol Roofing Co. Ltd.,(604) 299-3917,(604) 945-6222,(604) 937-0707,,,1300 Sherman St ,Coquitlam,BC,V3B 6M2,https://www.bbb.org/ca/bc/coquitlam/profile/roofing-contractors/capitol-roofing-co-ltd-0037-114681
Northwest Inspection Ltd,(604) 649-0692,,,,,2602 Uplands Crt ,Coquitlam,BC,V3E 2N9,https://www.bbb.org/ca/bc/coquitlam/profile/roofing-consultants/northwest-inspection-ltd-0037-184546
Roof Tech Consultants Ltd.,(604) 888-7663,(604) 882-7663,(604) 230-7663,,,PO Box 654 ,Fort Langley,BC,V1M 2S1,https://www.bbb.org/ca/bc/fort-langley/profile/building-inspector/roof-tech-consultants-ltd-0037-139212
Pacific Coast Roof & Chimney,(604) 241-2320,,,,,6331 Sidaway Rd ,Richmond,BC,V6W 1B7,https://www.bbb.org/ca/bc/richmond/profile/roofing-consultants/pacific-coast-roof-chimney-0037-136230
Specifex Building Science Inc.,(604) 576-5740,,,,,2282 232 St ,Langley,BC,V2Z 2Z9,https://www.bbb.org/ca/bc/langley/profile/roofing-consultants/specifex-building-science-inc-0037-124721
Professional Roofing Ltd.,(604) 306-3549,,,,,2408 McKessock Ave ,Richmond,BC,V6X 2N9,https://www.bbb.org/ca/bc/richmond/profile/roofing-contractors/professional-roofing-ltd-0037-1202350
604-Gutters,(604) 488-8377,,,,,255 2055 Commercial Dr ,Vancouver,BC,V5N 0C7,https://www.bbb.org/ca/bc/vancouver/profile/gutter-contractor/604-gutters-0037-2396596
New City Contracting Ltd.,(604) 215-7374,(604) 254-7014,,,,1109 Venables St ,Vancouver,BC,V6A 2E3,https://www.bbb.org/ca/bc/vancouver/profile/general-contractor/new-city-contracting-ltd-0037-215774
Raise the Roof Roofing and Repair Ltd.,(778) 385-9585,,,,,,Vancouver,BC,V6A 2J8,https://www.bbb.org/ca/bc/vancouver/profile/roofing-contractors/raise-the-roof-roofing-and-repair-ltd-0037-2415973
JHR Contracting Ltd,(604) 356-1938,,,,,402-1717 Haro St ,Vancouver,BC,V6G 2X9,https://www.bbb.org/ca/bc/vancouver/profile/tile-roofing-contractors/jhr-contracting-ltd-0037-1291622
Norquest Homes Ltd.,(604) 250-1951,,,,,11596 238A St ,Maple Ridge,BC,V2W 2A9,https://www.bbb.org/ca/bc/maple-ridge/profile/home-improvement/norquest-homes-ltd-0037-1199811
Elevated Roofing,(250) 701-6144,,,,,V0R 2W2 ,Shawnigan Lake,BC,V0R 2W2,https://www.bbb.org/ca/bc/shawnigan-lake/profile/roofing-contractors/elevated-roofing-0047-235958348
Altitude Roofing Ltd.,(604) 346-9611,,,,,,Pemberton,BC,V0N 2L0,https://www.bbb.org/ca/bc/pemberton/profile/roofing-consultants/altitude-roofing-ltd-0037-1369587
All Purpose Roofing,(250) 295-3643,(877) 299-7663,(250) 485-3285,(250) 501-1080,,1828 Main St ,Coalmont,BC,V0X 1G0,https://www.bbb.org/ca/bc/coalmont/profile/roofing-contractors/all-purpose-roofing-0037-1298356
Top Pair Roofing Inc.,(250) 857-6486,,,,,#302 - 1055 Hillside Ave ,Victoria,BC,V8T 2A4,https://www.bbb.org/ca/bc/victoria/profile/roofing-contractors/top-pair-roofing-inc-0047-90007524
Aerial Roofing & Construction,(250) 474-1519,(250) 474-0664,,,,3587 Kathy Ln ,Victoria,BC,V9C 3X1,https://www.bbb.org/ca/bc/victoria/profile/roofing-contractors/aerial-roofing-construction-0047-11968
Nortek Roofing,(250) 590-7164,,,,,1490 Kangaroo Rd ,Victoria,BC,V9C 4C6,https://www.bbb.org/ca/bc/victoria/profile/roofing-contractors/nortek-roofing-0047-90004979
NSR Construction,(604) 710-2485,,,,,3944 Inverness St ,Port Coquitlam,BC,V3B 3C1,https://www.bbb.org/ca/bc/port-coquitlam/profile/home-improvement/nsr-construction-0037-1300445
Ferguson Roofing and Sheet Metal,(780) 901-8997,,,,,117-951 Goldstream Ave ,Victoria,BC,V9B 6S5,https://www.bbb.org/ca/bc/victoria/profile/roofing-consultants/ferguson-roofing-and-sheet-metal-0047-235970244
Ranger Industries Moss Removal/Roof Treatment,(250) 661-2241,,,,,923 Jenkins Ave ,Victoria,BC,V9B 2N8,https://www.bbb.org/ca/bc/victoria/profile/roof-cleaning/ranger-industries-moss-removalroof-treatment-0047-90007514
J. Watson Roofing Consulting,(250) 391-7887,,,,,224 Seafield Rd ,Victoria,BC,V9C 1S5,https://www.bbb.org/ca/bc/victoria/profile/roofing-consultants/j-watson-roofing-consulting-0047-90011401
Roofpro The Rainstoppers,(250) 248-3400,,,,,1552 Arbutus Dr ,Nanoose Bay,BC,V9P 9C8,https://www.bbb.org/ca/bc/nanoose-bay/profile/roofing-consultants/roofpro-the-rainstoppers-0047-235962183
Oceanside Roofing Ltd.,(250) 951-0601,,,,,270 Fourneau Way ,Parksville,BC,V9P 2J8,https://www.bbb.org/ca/bc/parksville/profile/roofing-contractors/oceanside-roofing-ltd-0047-211156814
Carmana Home Improvements,(250) 607-8349,,,,,1112 Centre Rd ,Qualicum Beach,BC,V9K 2G7,https://www.bbb.org/ca/bc/qualicum-beach/profile/building-and-construction/carmana-home-improvements-0047-235949795
De Moss Doctor / GMO Construction Services,(250) 589-4998,,,,,1925 Watson St ,Victoria,BC,V8R 3H7,https://www.bbb.org/ca/bc/victoria/profile/roof-cleaning/de-moss-doctor-gmo-construction-services-0047-185503798
Erickson Roofing,(250) 758-5440,,,,,7 - 4151 Mostar Rd ,Nanaimo,BC,V9T 6A6,https://www.bbb.org/ca/bc/nanaimo/profile/roofing-contractors/erickson-roofing-0047-1075194
On Point Roofing,(250) 667-0820,,,,,183 Armins Pl ,Nanaimo,BC,V9T 0J5,https://www.bbb.org/ca/bc/nanaimo/profile/roofing-contractors/on-point-roofing-0047-235958502
Webber and Company Roofing Ltd.,(236) 464-1158,,,,,413-825 Goldstream Ave ,Victoria,BC,V9B 0C3,https://www.bbb.org/ca/bc/victoria/profile/roofing-contractors/webber-and-company-roofing-ltd-0047-235958195
Jake's Roofing,(250) 248-8014,,,,,PO BOX 614 2-2430 Alberni Hwy,Coombs,BC,V0R 1M0,https://www.bbb.org/ca/bc/coombs/profile/roofing-contractors/jakes-roofing-0047-36358
Milne Roofing,(250) 756-9197,,,,,4647 Lost Lake Rd ,Nanaimo,BC,V9T 5C5,https://www.bbb.org/ca/bc/nanaimo/profile/roofing-contractors/milne-roofing-0047-10635
Your Maintenance Man Renovation & Maintenance Services,(250) 729-9444,,,,,3007 Charles St ,Nanaimo,BC,V9T 2Y1,https://www.bbb.org/ca/bc/nanaimo/profile/home-improvement/your-maintenance-man-renovation-maintenance-services-0047-174041380
Phil Smith Roofing,(250) 383-9428,,,,,2808 Dunlevy St ,Victoria,BC,V8R 5Z5,https://www.bbb.org/ca/bc/victoria/profile/roofing-contractors/phil-smith-roofing-0047-33045
Victoria Roofing & Insulation Co. Ltd.,(250) 382-2331,,,,,2838 Blackwood St ,Victoria,BC,V8T 3W8,https://www.bbb.org/ca/bc/victoria/profile/roofing-contractors/victoria-roofing-insulation-co-ltd-0047-7445
Ram Roofing Ltd.,(778) 400-3766,,,,,5313 Cascara Dr ,Nanaimo,BC,V9T 0E3,https://www.bbb.org/ca/bc/nanaimo/profile/roofing-contractors/ram-roofing-ltd-0047-90011523
Brokop Roofing,(250) 744-9639,,,,,1250 Judge Pl ,Victoria,BC,V8P 2C6,https://www.bbb.org/ca/bc/victoria/profile/roofing-contractors/brokop-roofing-0047-235956701
